timestamp,visibility,tenengrad,laplacian_var,high_freq_ratio,contrast_rms,edge_density,dark_channel,temperature,humidity,pressure,dewpoint,wind_speed,wind_direction,vertical_wind,fog_formation_prob,temp_dewpoint_diff
2020-3-12 8:00,3000,2322.9586588541665,147.52469292533664,0.4255334686472282,19.366032478902426,0.011952039930555556,0.3638288696555011,9.7,85,1016.9,7.32,1.47,70,0.31,0.4736666666666667,2.379999999999999
2020-3-12 8:00,3000,3568.596247829861,268.86820962364277,0.42948910302930127,21.26771854305195,0.006650391,0.3135119144880174,9.7,85,1016.9,7.32,1.49,69,0.29,0.4716666666666667,2.379999999999999
2020-3-12 8:00,3000,1828.6490234375,134.33403428817564,0.42832491802547484,19.045328359276134,0.007419704861111111,0.3712709652437364,9.7,85,1016.9,7.32,1.57,66,0.22,0.46366666666666667,2.379999999999999
2020-3-12 8:00,3100,3234.5968836805555,245.97937882189225,0.4346117754003834,20.034637076319914,0.007463107638888889,0.25062523828976035,9.8,85,1017,7.42,1.6,64,0.17,0.45933333333333337,2.380000000000001
2020-3-12 8:01,3100,1434.8843272569445,107.68584743640915,0.4225623291688697,18.479036646594693,0.005865885416666667,0.4001947806032135,9.8,85,1017,7.42,1.57,65,0.19,0.4623333333333334,2.380000000000001
2020-3-12 8:01,3100,2591.2456770833332,187.52170789918787,0.4423316714285347,20.078791732648142,0.010712891,0.33941139450571894,9.8,85,1017,7.42,1.53,66,0.21,0.4663333333333334,2.380000000000001
2020-3-12 8:01,3100,2570.0059765625,184.66736979136527,0.4402164196027123,19.805883483578185,0.010294053819444444,0.3397247029888344,9.8,85,1017,7.42,1.53,63,0.13,0.4663333333333334,2.380000000000001
2020-3-12 8:01,3100,2566.1624696180556,184.55651258633452,0.44106427678620813,19.38862028744862,0.010254991319444445,0.3319315597766885,9.8,84,1017,7.24,1.55,59,0.03,0.44766666666666666,2.5600000000000005
2020-3-12 8:02,3100,2599.515668402778,186.49459743795398,0.44009294187465253,19.569819646566025,0.010794270833333333,0.3367314687159586,9.8,84,1017,7.24,1.56,57,-0.03,0.44666666666666666,2.5600000000000005
2020-3-12 8:02,3100,2586.081137152778,184.47606011140488,0.44015439577782,19.468043400379052,0.010397135416666667,0.3295478068831699,9.8,84,1017,7.24,1.58,55,-0.08,0.44466666666666665,2.5600000000000005
2020-3-12 8:02,3100,2631.8409288194443,185.95152343670418,0.4383248625293902,19.305774822522476,0.010942925347222222,0.3190317818967865,9.8,84,1017,7.24,1.53,53,-0.13,0.44966666666666666,2.5600000000000005
2020-3-12 8:02,3100,2607.4187847222224,185.3036111099055,0.4390459556661488,19.559176934880306,0.009996744791666666,0.3377628931781046,9.9,84,1017.1,7.34,1.53,51,-0.19,0.4483333333333333,2.5600000000000005
2020-3-12 8:03,3100,2596.3290494791668,183.8381868488629,0.43814099730562844,19.313534536010412,0.01068142361111111,0.3310299649373638,9.9,84,1017.1,7.34,1.48,48,-0.26,0.4533333333333333,2.5600000000000005
2020-3-12 8:03,3100,2538.434088541667,184.18659721852993,0.44100842835479637,19.139204380942296,0.009943576388888889,0.33970119315087144,9.9,84,1017.1,7.34,1.48,45,-0.33,0.4533333333333333,2.5600000000000005
2020-3-12 8:03,3100,2521.1871527777776,182.59306098038354,0.4386943516714555,19.00340305656164,0.010174696180555555,0.3417167755991285,9.9,84,1017.1,7.34,1.52,47,-0.29,0.4493333333333333,2.5600000000000005
2020-3-12 8:03,3100,2432.3318489583335,177.82236219555773,0.4408980961684199,18.79669025357902,0.009697266,0.34342259837962963,9.9,84,1017.1,7.34,1.56,49,-0.24,0.4453333333333333,2.5600000000000005
2020-3-12 8:04,3100,2359.952174479167,173.13720486099336,0.4406486221154884,18.409665182614734,0.009241536458333333,0.3412352090141612,9.9,84,1017.1,7.34,1.62,52,-0.17,0.4393333333333333,2.5600000000000005
2020-3-12 8:04,3100,2484.454045138889,182.53980143219619,0.4402156137806475,19.11395792859794,0.009643012152777778,0.31692764501633985,9.9,84,1017.1,7.34,1.67,55,-0.09,0.43433333333333335,2.5600000000000005
2020-3-12 8:04,3100,2585.6717230902777,181.76493272552486,0.43634462470878915,19.038018421973415,0.010860460069444444,0.3016802406726579,9.9,84,1017.1,7.34,1.79,58,0,0.42233333333333334,2.5600000000000005
2020-3-12 8:04,3100,2844.5574913194446,198.50163953636897,0.4388407752632747,20.796842579233548,0.011089409722222223,0.3103432266135621,10,84,1017.1,7.44,1.85,61,0.1,0.415,2.5599999999999996
2020-3-12 8:05,3100,2872.8425434027777,199.35019313986976,0.43706112875972497,20.947955894077595,0.011677517361111112,0.3098382140182462,10,84,1017.1,7.44,1.91,63,0.17,0.409,2.5599999999999996
2020-3-12 8:05,3100,2979.0106944444447,210.273856330005,0.4386058406348678,21.27255589759516,0.011773003472222222,0.3097515786696623,10,84,1017.1,7.44,2.08,66,0.29,0.39199999999999996,2.5599999999999996
2020-3-12 8:05,3000,2986.291641,211.25568250816139,0.4383254677725407,21.357125295206142,0.011625434027777777,0.314257331665305,10,84,1017.1,7.44,2.18,68,0.38,0.38199999999999995,2.5599999999999996
2020-3-12 8:05,3000,2977.785763888889,210.15955729166197,0.4388539467885221,21.303770430069626,0.011205512152777777,0.3181349188112745,10,83,1017.1,7.27,2.27,70,0.47,0.35633333333333334,2.7300000000000004
2020-3-12 8:06,3000,2991.792813,208.5026128200201,0.43794596302558136,21.336796599299074,0.011654730902777778,0.30924438742510896,10,83,1017.1,7.27,2.37,72,0.57,0.3463333333333333,2.7300000000000004
2020-3-12 8:06,3000,3011.3982248263887,210.73650933046576,0.4389114596131296,21.58686955892675,0.011727430555555555,0.3089332746119281,10,83,1017.1,7.27,2.45,73,0.63,0.3383333333333333,2.7300000000000004
2020-3-12 8:06,3000,2980.1427864583334,209.60688584492524,0.4384076040380355,21.594934425370546,0.012068142361111112,0.31147236264297384,10,83,1017.1,7.27,2.51,75,0.73,0.33233333333333337,2.7300000000000004
2020-3-12 8:06,3100,2925.1877821180556,207.69739257283968,0.4398560845687663,21.54068537130658,0.011282552083333333,0.33036352805010893,10.1,84,1017.1,7.54,2.61,77,0.85,0.33766666666666667,2.5599999999999996
2020-3-12 8:07,3100,2866.5172352430554,205.82492078930775,0.44011928242816417,21.140573632573545,0.011612413194444445,0.33569887408088234,10.1,84,1017.1,7.54,2.75,78,0.94,0.3236666666666667,2.5599999999999996
2020-3-12 8:07,3100,2735.837907986111,198.14864908827678,0.44019238996980625,21.13953597168523,0.011050347222222222,0.33766972188180827,10.1,84,1017.1,7.54,2.75,79,0.99,0.3236666666666667,2.5599999999999996
2020-3-12 8:07,3100,2553.693472222222,185.12434570311436,0.43995643183022615,18.729103723829706,0.009682074652777779,0.32103787530637257,10.1,84,1017.1,7.54,2.72,80,1.02,0.32666666666666666,2.5599999999999996
2020-3-12 8:07,3100,2467.6905598958333,183.4869270827635,0.44080033130425333,21.348166035759355,0.009340277777777777,0.3580123697916667,10.2,84,1017.1,7.64,2.65,82,1.08,0.33233333333333337,2.5599999999999996
2020-3-12 8:08,3100,2515.471875,191.13455186434032,0.444675437874036,20.747956279367934,0.0074826388888888885,0.31714191431781047,10.2,84,1017.1,7.64,2.59,83,1.09,0.3383333333333334,2.5599999999999996
2020-3-12 8:08,3100,2657.1350217013887,196.87235459989859,0.44230748562732225,18.699331355443196,0.009653862847222222,0.31755344073393243,10.2,84,1017.1,7.64,2.61,84,1.14,0.3363333333333333,2.5599999999999996
2020-3-12 8:08,3100,2672.7523177083335,197.9623643650372,0.4402495808214089,19.81772773790624,0.009485677083333333,0.31635296245234207,10.2,84,1017.1,7.64,2.6,84,1.14,0.3373333333333333,2.5599999999999996
2020-3-12 8:08,3100,2724.1068619791668,205.2486881494299,0.43664293095611434,25.47779962243027,0.008741319444444444,0.35815713507625274,10.2,83,1017,7.46,2.59,84,1.14,0.3216666666666667,2.7399999999999993
2020-3-12 8:09,3100,3040.5040972222223,233.42398654483748,0.4468550662638292,19.845312140877763,0.010627170138888888,0.31930335563044665,10.2,83,1017,7.46,2.57,83,1.09,0.3236666666666667,2.7399999999999993
2020-3-12 8:09,3100,3048.143142361111,232.12016276034126,0.4483311940306582,20.188420911137914,0.010466579861111111,0.3145974988085512,10.2,83,1017,7.46,2.5,83,1.06,0.33066666666666666,2.7399999999999993
2020-3-12 8:09,3100,3092.4856119791666,235.98227647539292,0.44703661879032525,20.280104354792194,0.010579427083333334,0.32008814168028327,10.2,83,1017,7.46,2.5,82,1.02,0.33066666666666666,2.7399999999999993
2020-3-12 8:09,3100,3101.725698784722,231.89804578941127,0.44635820371091767,20.59858080451236,0.01058376736111111,0.31599787241285404,10.3,84,1017,7.73,2.57,82,1.04,0.339,2.5700000000000003
2020-3-12 8:10,3100,3216.4229557291665,243.67063910563795,0.4485654544034882,21.014950490897093,0.011117621527777777,0.31346435014978213,10.3,84,1017,7.73,2.63,81,1.03,0.33299999999999996,2.5700000000000003
2020-3-12 8:10,3100,3197.1793446180554,240.06513777906508,0.44784501270444793,21.391203287697348,0.010963541666666667,0.3209950767633442,10.3,84,1017,7.73,2.59,81,1.01,0.337,2.5700000000000003
2020-3-12 8:10,3100,3321.4467491319447,247.71328123959674,0.4461771065450435,21.666075834366094,0.011825086805555555,0.31714387595315907,10.3,84,1017,7.73,2.61,82,1.06,0.33499999999999996,2.5700000000000003
2020-3-12 8:10,3100,3312.0001605902776,244.97553059853328,0.4469478822381043,21.965932289804968,0.012154947916666667,0.31561220894607844,10.5,85,1017,8.1,2.6,81,1.01,0.35,2.4000000000000004
2020-3-12 8:11,3100,3396.122573784722,251.89090494448345,0.4471567748423394,22.73622064641613,0.012478298611111112,0.3113692555147059,10.5,85,1017,8.1,2.59,81,1.01,0.35100000000000003,2.4000000000000004
2020-3-12 8:11,3100,3402.8224696180555,249.73141817177552,0.44699632157086894,22.40039362880864,0.012278645833333334,0.3157721907339325,10.5,85,1017,8.1,2.63,82,1.07,0.34700000000000003,2.4000000000000004
2020-3-12 8:11,3100,3409.9978493923613,251.14705619361666,0.4462020056870251,22.657625754108544,0.012430555555555556,0.32311263446350763,10.5,85,1017,8.1,2.61,82,1.06,0.34900000000000003,2.4000000000000004
2020-3-12 8:11,3100,3414.523971354167,252.3085177949082,0.4479904093550994,22.743716353175017,0.01244900173611111,0.3182401918232571,10.5,83,1017,7.76,2.56,81,1,0.32066666666666666,2.74
2020-3-12 8:12,3100,3491.702660590278,256.66246202077866,0.4468398271915773,22.919483165738928,0.012638888888888889,0.31920019318491283,10.5,83,1017,7.76,2.53,79,0.9,0.3236666666666667,2.74
2020-3-12 8:12,3100,3460.169587673611,254.08365992024625,0.44774514070565924,23.101167783856575,0.012510850694444445,0.31548327716503266,10.5,83,1017,7.76,2.5,78,0.85,0.32666666666666666,2.74
2020-3-12 8:12,3200,3519.765802951389,258.3486469180626,0.44620657470498615,23.009031455691886,0.012432725694444445,0.31337276177832246,10.5,83,1017,7.76,2.44,78,0.84,0.33266666666666667,2.74
2020-3-12 8:12,3200,3466.847135416667,252.79861544968875,0.44682265465004234,23.001714839395845,0.012261284722222222,0.3157787224264706,10.5,83,1017,7.76,2.45,80,0.92,0.33166666666666667,2.74
2020-3-12 8:13,3200,3481.3865060763887,256.13970051894955,0.4470246359224135,23.02834868889134,0.012403428819444444,0.3158409203090959,10.5,83,1017,7.76,2.47,81,0.97,0.32966666666666666,2.74
2020-3-12 8:13,3200,3471.997734,256.6701074216101,0.4484196927481398,23.068311291806047,0.012495659722222222,0.3138051130174292,10.5,83,1017,7.76,2.49,81,0.97,0.32766666666666666,2.74
2020-3-12 8:13,3200,3481.1268055555556,255.47949218406671,0.44624434024451914,23.106730317475716,0.012391493055555555,0.3213917313453159,10.5,83,1017,7.76,2.53,81,0.99,0.3236666666666667,2.74
2020-3-12 8:13,3200,3443.924474826389,252.71456814234233,0.44844372853976244,23.033203496112723,0.012459852430555555,0.3219852217796841,10.6,82,1017,7.68,2.59,82,1.05,0.2996666666666667,2.92
2020-3-12 8:14,3200,3433.419904513889,253.3466666632335,0.44727738653178606,23.005706053115976,0.012260199652777777,0.3220634063521242,10.6,82,1017,7.68,2.64,84,1.16,0.29466666666666663,2.92
2020-3-12 8:14,3200,3389.448676215278,250.62171983480454,0.44744354760830174,22.94733043560365,0.012004123263888888,0.3234863791870915,10.6,82,1017,7.68,2.64,84,1.16,0.29466666666666663,2.92
2020-3-12 8:14,3200,3357.7602039930557,249.3553569875069,0.4461666816756818,23.251845846810905,0.012096354166666667,0.3256660964733116,10.6,82,1017,7.68,2.62,84,1.15,0.29666666666666663,2.92
2020-3-12 8:14,3200,3307.6275,245.49560112839674,0.44718093373587864,22.591389021362843,0.011939019097222222,0.334692980664488,10.6,82,1017,7.68,2.58,83,1.09,0.30066666666666664,2.92
2020-3-12 8:15,3200,3355.768064236111,247.68840386264822,0.4447191341379313,22.824237644230436,0.01202365451388889,0.32853517327069715,10.6,82,1017,7.68,2.54,82,1.03,0.30466666666666664,2.92
2020-3-12 8:15,3200,3287.8045399305556,244.79639105902305,0.4462543919211568,22.834596726320587,0.012083333333333333,0.33757232519744007,10.6,82,1017,7.68,2.49,82,1.01,0.30966666666666665,2.92
2020-3-12 8:15,3200,3337.1731727430556,247.31043184767356,0.445281416004814,22.552383346160354,0.012039930555555555,0.3376992570465686,10.6,82,1017,7.68,2.38,83,1.01,0.32066666666666666,2.92
2020-3-12 8:15,3200,3281.0832291666666,242.57569986945137,0.44623515268085906,22.09969215370763,0.01218967013888889,0.3393397288602941,10.6,80,1017.1,7.32,2.34,84,1.03,0.29133333333333333,3.2799999999999994
2020-3-12 8:16,3200,3311.272400173611,244.6415071564839,0.4444281994920979,22.090445707649792,0.012153862847222223,0.337139327171841,10.6,80,1017.1,7.32,2.35,85,1.07,0.29033333333333333,3.2799999999999994
2020-3-12 8:16,3100,3263.0580338541668,241.01108180532452,0.4448753407993385,21.803094946521988,0.011870659722222222,0.3390291351783769,10.6,80,1017.1,7.32,2.37,86,1.11,0.28833333333333333,3.2799999999999994
2020-3-12 8:16,3100,3277.289982638889,242.2098860371896,0.4442475134321628,21.823704066147837,0.012080078,0.34064862047249456,10.6,80,1017.1,7.32,2.4,86,1.13,0.2853333333333333,3.2799999999999994
2020-3-12 8:16,3100,3266.958997395833,239.46767252321484,0.44532704685945423,21.631758698108364,0.011731770833333334,0.33335898352396515,10.7,81,1017.1,7.6,2.39,87,1.16,0.30166666666666664,3.0999999999999996
2020-3-12 8:17,3100,3286.130872395833,244.30866210440067,0.445830701444485,21.64683941391179,0.011786024305555556,0.33525762952750543,10.7,81,1017.1,7.6,2.4,89,1.24,0.3006666666666667,3.0999999999999996
2020-3-12 8:17,3100,3237.9479774305555,240.1243044661051,0.4446680487219949,21.460862667655253,0.011255425347222223,0.33517569189133983,10.7,81,1017.1,7.6,2.46,91,1.34,0.2946666666666667,3.0999999999999996
2020-3-12 8:17,3100,3283.731458333333,242.92920898293272,0.44404036599169133,21.55590915827292,0.011899956597222223,0.3369498527709695,10.7,81,1017.1,7.6,2.55,91,1.39,0.2856666666666667,3.0999999999999996
2020-3-12 8:17,3100,3269.269709201389,240.38610568533883,0.4448193694472005,21.60570873544973,0.011769748263888888,0.33425979115604576,10.7,80,1017.1,7.42,2.58,91,1.41,0.266,3.2799999999999994
2020-3-12 8:18,3100,3330.0627951388888,245.28714518219624,0.4449758096869799,21.636468384133224,0.01253689236111111,0.32599554057734204,10.7,80,1017.1,7.42,2.56,91,1.4,0.268,3.2799999999999994
2020-3-12 8:18,3100,3285.0027387152777,243.78439344612286,0.4457901261490372,21.54414544886265,0.011620008680555556,0.3264370149101307,10.7,80,1017.1,7.42,2.56,90,1.35,0.268,3.2799999999999994
2020-3-12 8:18,3200,3329.7714756944442,246.4917838540915,0.44425857560832027,21.59734606948105,0.011821831597222223,0.3255720954180283,10.7,80,1017.1,7.42,2.54,90,1.34,0.27,3.2799999999999994
2020-3-12 8:18,3200,3299.5231770833334,241.09047634420392,0.44488820769524456,21.38916011322238,0.011625434027777777,0.316584435423475,10.7,80,1017.1,7.42,2.59,91,1.41,0.265,3.2799999999999994
2020-3-12 8:19,3200,3319.376115451389,245.3504242454799,0.444932259290331,21.629219145487106,0.011797960069444445,0.32499668096405226,10.7,80,1017.1,7.42,2.6,90,1.38,0.264,3.2799999999999994
2020-3-12 8:19,3200,3252.8550520833332,239.73515407642793,0.4438621211290459,21.54628485166034,0.012049696180555555,0.3322212988494009,10.7,80,1017.1,7.42,2.62,90,1.39,0.262,3.2799999999999994
2020-3-12 8:19,3200,3249.1385850694446,242.33601996527779,0.4449164911280721,21.769423069802876,0.011681857638888888,0.33657250391476035,10.7,80,1017.1,7.42,2.66,89,1.37,0.258,3.2799999999999994
2020-3-12 8:19,3200,3190.8996788194445,236.442623695204,0.4449607252450519,21.592783851535,0.011649305555555555,0.3398839316108388,10.8,80,1017,7.51,2.72,89,1.4,0.2506666666666666,3.290000000000001
2020-3-12 8:20,3200,3257.8165234375,243.2600455708398,0.445182264650803,21.624921245864765,0.012036675347222222,0.33870727379493465,10.8,80,1017,7.51,2.79,89,1.43,0.24366666666666664,3.290000000000001
2020-3-12 8:20,3200,3232.9493272569443,240.6355718315678,0.4454686047057405,21.5521766671735,0.011868489583333334,0.33694738051470585,10.8,80,1017,7.51,2.83,89,1.46,0.23966666666666664,3.290000000000001
2020-3-12 8:20,3200,3238.6096701388888,239.09994248571385,0.4430198216525607,21.45878947977976,0.011925998263888888,0.3360393944035948,10.8,80,1017,7.51,2.86,88,1.43,0.23666666666666666,3.290000000000001
2020-3-12 8:20,3200,3181.7698914930556,234.8475867937818,0.4446119044174395,21.2902573118134,0.011567925347222223,0.33782941006263617,10.9,80,1017,7.61,2.85,86,1.34,0.2363333333333333,3.29
2020-3-12 8:21,3300,3171.2150434027776,237.3169780782899,0.4449081535857619,21.234556058644856,0.011661241319444444,0.34044816772194986,10.9,80,1017,7.61,2.91,85,1.32,0.2303333333333333,3.29
2020-3-12 8:21,3300,3163.6835633680557,235.67951280347918,0.4448021199014988,21.106603407737868,0.011547309027777777,0.33614380787037035,10.9,80,1017,7.61,2.89,85,1.31,0.2323333333333333,3.29
2020-3-12 8:21,3200,3126.495525173611,233.1415603293901,0.4435220497355286,20.91080639905435,0.011525607638888888,0.34350405092592595,10.9,80,1017,7.61,2.85,84,1.25,0.2363333333333333,3.29
2020-3-12 8:21,3200,3045.356719,228.16710720485648,0.44299624799938414,20.594315716186365,0.011212022569444445,0.34586503438180827,10.9,79,1017,7.43,2.77,83,1.17,0.22766666666666666,3.4700000000000006
2020-3-12 8:22,3200,3137.9525390625,235.2891406178368,0.4428693387326797,20.079826120908557,0.011089409722222223,0.324396688623366,10.9,79,1017,7.43,2.78,82,1.13,0.22666666666666668,3.4700000000000006
2020-3-12 8:22,3200,3147.2540972222223,235.1558929900547,0.4431310324202264,19.800319741500566,0.011097005208333333,0.3175247183074619,10.9,79,1017,7.43,2.76,81,1.08,0.22866666666666668,3.4700000000000006
2020-3-12 8:22,3200,3101.604019097222,234.38594292534597,0.44384088997838056,20.074092342883848,0.011321614583333334,0.3308151169321895,10.9,79,1017,7.43,2.77,81,1.08,0.22766666666666666,3.4700000000000006
2020-3-12 8:22,3200,2982.4060677083335,225.30999019231794,0.4434261450526255,20.230896585872898,0.010901692708333334,0.34319297640931373,11.1,81,1017,7.99,2.82,82,1.15,0.25333333333333335,3.1099999999999994
2020-3-12 8:23,3200,3030.751089409722,228.84391167500692,0.4416463358637665,20.37282196420049,0.01031467013888889,0.3392378855187908,11.1,81,1017,7.99,2.84,81,1.11,0.25133333333333335,3.1099999999999994
2020-3-12 8:23,3200,2967.679275173611,229.83668184233773,0.445738221948997,19.26944797841903,0.010372178819444444,0.3245026424632353,11.1,81,1017,7.99,2.87,80,1.07,0.2483333333333333,3.1099999999999994
2020-3-12 8:23,3200,2925.6633723958334,224.7153689213317,0.44201381371020115,20.47859264151107,0.00880642361111111,0.3456419228281591,11.1,81,1017,7.99,2.94,80,1.1,0.24133333333333334,3.1099999999999994
2020-3-12 8:23,3200,2876.9676085069445,218.60970485903422,0.44244356835523607,19.566431737558425,0.009299045138888889,0.3371043411288126,11.2,81,1017,8.09,3,79,1.07,0.23399999999999999,3.1099999999999994
2020-3-12 8:24,3200,2954.485316840278,225.8256564620395,0.44380413627130166,19.688747375051953,0.009308810763888889,0.332548828,11.2,81,1017,8.09,2.97,78,1.01,0.23699999999999996,3.1099999999999994
2020-3-12 8:24,3200,2931.4898567708333,225.00814669142352,0.44342337111417746,19.679027029406424,0.009486762152777778,0.3297393110021786,11.2,81,1017,8.09,2.98,78,1.02,0.236,3.1099999999999994
2020-3-12 8:24,3200,2949.799470486111,225.60137586713242,0.44330617227168934,19.596429932380687,0.008994141,0.335801670581427,11.2,81,1017,8.09,2.99,77,0.97,0.23499999999999996,3.1099999999999994
2020-3-12 8:24,3200,2804.399240451389,215.59872829653423,0.444196848338012,19.376982516108495,0.008853081597222222,0.3486665432666122,11.2,79,1017,7.72,2.94,77,0.96,0.20666666666666667,3.4799999999999995
2020-3-12 8:25,3200,2845.5140711805557,221.4313259548424,0.44204951347262983,18.850174673240836,0.0069791666666666665,0.32740215226715685,11.2,79,1017,7.72,2.94,76,0.91,0.20666666666666667,3.4799999999999995
2020-3-12 8:25,3200,2794.254926215278,216.69784504812264,0.44284853741017927,18.8412285873408,0.007228732638888889,0.33563383374183003,11.2,79,1017,7.72,2.91,76,0.9,0.20966666666666664,3.4799999999999995
2020-3-12 8:25,3200,2824.0660894097223,215.43380208212776,0.44111971391336346,18.7245768104384,0.007368706597222222,0.3389179049223856,11.2,79,1017,7.72,2.82,76,0.87,0.21866666666666668,3.4799999999999995
2020-3-12 8:25,3200,2700.060954861111,210.85770724682166,0.4429885671544477,19.386013799346326,0.006968315972222222,0.3514647203499456,11.3,78,1017,7.63,2.72,77,0.88,0.2106666666666666,3.670000000000001
2020-3-12 8:26,3200,2850.9590928819443,220.03093641394042,0.44307236259813326,18.72912179794029,0.007964409722222222,0.324238659960512,11.3,78,1017,7.63,2.65,78,0.9,0.21766666666666667,3.670000000000001
2020-3-12 8:26,3200,2834.5578428819445,216.8607703979445,0.4425766598459365,18.38836374561695,0.008182508680555556,0.32517051759940085,11.3,78,1017,7.63,2.59,78,0.88,0.22366666666666668,3.670000000000001
2020-3-12 8:26,3200,2806.878537326389,215.67307508623577,0.4419888775523499,18.021703575268116,0.008450520833333334,0.3309329724945534,11.3,78,1017,7.63,2.51,78,0.86,0.2316666666666667,3.670000000000001
2020-3-12 8:26,3200,2669.4182161458334,205.57846679625214,0.44278250515870377,17.82575283612462,0.00799587673611111,0.33749655330882355,11.2,78,1017,7.54,2.46,78,0.84,0.23800000000000002,3.6599999999999993
2020-3-12 8:27,3200,2657.230525173611,206.84367404490806,0.4434845057172095,18.489432253835336,0.007399088541666667,0.33011854915577343,11.2,78,1017,7.54,2.35,78,0.81,0.24899999999999997,3.6599999999999993
2020-3-12 8:27,3200,2605.4855338541665,205.7757107190438,0.444639049273893,19.234738539495737,0.006930338541666667,0.34254327937772333,11.2,78,1017,7.54,2.36,79,0.85,0.24800000000000003,3.6599999999999993
2020-3-12 8:27,3200,2596.991657986111,204.4402788628178,0.4428186179120901,20.49784730581247,0.0069401041666666665,0.3418655918096405,11.2,78,1017,7.54,2.4,79,0.86,0.24400000000000002,3.6599999999999993
2020-3-12 8:27,3200,2639.2471397569443,206.86868706278852,0.44558475807478376,20.118645230286283,0.006956380208333333,0.3328482434640523,11.2,76,1017,7.16,2.49,78,0.85,0.20166666666666663,4.039999999999999
2020-3-12 8:28,3200,2721.339917534722,210.15924153501606,0.4426171115455698,18.586984288051514,0.006855469,0.3285072337962963,11.2,76,1017,7.16,2.52,78,0.86,0.19866666666666669,4.039999999999999
2020-3-12 8:28,3200,2716.5197569444445,210.59901800884555,0.4435778021283832,18.28905877441415,0.0077083333333333335,0.330890420751634,11.2,76,1017,7.16,2.56,77,0.83,0.19466666666666665,4.039999999999999
2020-3-12 8:28,3200,2816.192495659722,217.51227213089086,0.44275584323741474,18.68400824154186,0.007860243055555556,0.3271589222494553,11.2,76,1017,7.16,2.6,77,0.85,0.19066666666666665,4.039999999999999
2020-3-12 8:28,3200,2789.6981749131946,209.02001844456876,0.4399662167626792,18.531980612830193,0.008730469,0.32928042875136165,11.5,79,1017,8.01,2.61,79,0.93,0.23566666666666666,3.49
2020-3-12 8:29,3300,2897.5677213541667,216.68895506145222,0.43959822121507985,19.80053781768494,0.009141710069444444,0.32837970622276685,11.5,79,1017,8.01,2.57,80,0.96,0.23966666666666667,3.49
2020-3-12 8:29,3300,2879.9392144097224,216.71740668153654,0.44130705734021164,19.90257424081857,0.009574652777777777,0.3397446980528322,11.5,79,1017,8.01,2.5,80,0.94,0.24666666666666665,3.49
2020-3-12 8:29,3300,2880.5127256944443,218.56061412281463,0.4412879404879504,19.738301992866308,0.010050998263888888,0.34761474502995643,11.5,79,1017,8.01,2.45,83,1.03,0.25166666666666665,3.49
2020-3-12 8:29,3300,2801.6350086805555,212.93469726124394,0.4414318592879137,19.26836755194351,0.009346788194444445,0.3466869085307734,11.5,78,1017,7.83,2.45,84,1.08,0.23499999999999996,3.67
2020-3-12 8:30,3300,2798.627873263889,213.48850477392418,0.441305988417474,19.073662682792765,0.009255642361111111,0.34914139518654685,11.5,78,1017,7.83,2.51,83,1.06,0.229,3.67
2020-3-12 8:30,3300,2783.9919184027776,214.31019313444455,0.4404572274740706,20.047984595369606,0.007529297,0.3519411509395425,11.5,78,1017,7.83,2.53,82,1.03,0.227,3.67
2020-3-12 8:30,3400,2791.367829861111,215.57361111094156,0.4379335452763082,25.362232720274363,0.0059906684027777775,0.33506993804466234,11.5,78,1017,7.83,2.5,81,0.98,0.22999999999999998,3.67
2020-3-12 8:30,3400,2704.6625260416668,213.49609265758258,0.4477026482014693,21.16694591643918,0.009412977430555556,0.33987253199891065,11.5,74,1017,7.06,2.51,77,0.82,0.16233333333333336,4.44
2020-3-12 8:31,3400,2746.0347569444443,215.89272026875702,0.45052234614299375,19.246017925239947,0.010632595486111111,0.3295838567197712,11.5,74,1017,7.06,2.51,73,0.65,0.16233333333333336,4.44
2020-3-12 8:31,3500,2687.7107942708335,208.14505207202578,0.44868753841075515,19.15393047415004,0.010572916666666666,0.34206158088235294,11.5,74,1017,7.06,2.48,71,0.56,0.16533333333333333,4.44
2020-3-12 8:31,3500,2856.487230902778,223.91205295138414,0.4494331202556043,19.853557265638706,0.010874565972222222,0.31848768552559914,11.5,74,1017,7.06,2.41,71,0.54,0.1723333333333333,4.44
2020-3-12 8:31,3500,2508.795785590278,196.30274413087506,0.44133469338282766,20.182863046599227,0.005802951388888889,0.338360919628268,11.4,73,1017,6.77,2.31,70,0.48,0.16699999999999998,4.630000000000001
2020-3-12 8:32,3500,2747.0452387152777,209.58372395833334,0.44258741768163357,20.310788595325434,0.009293619791666667,0.3427472979643246,11.4,73,1017,6.77,2.3,70,0.48,0.168,4.630000000000001
2020-3-12 8:32,3400,2760.984309895833,207.71326497178134,0.4425222746416196,20.644508699759903,0.009414063,0.3322371791598584,11.4,73,1017,6.77,2.27,70,0.47,0.17099999999999999,4.630000000000001
2020-3-12 8:32,3400,2854.3991493055555,216.5810980883939,0.440545519579805,21.29799771819574,0.009520399305555555,0.3220281096813725,11.4,73,1017,6.77,2.28,71,0.51,0.17,4.630000000000001
2020-3-12 8:32,3400,2738.6906597222223,209.77377594670418,0.4416670346811902,19.95184153800892,0.00864040798611111,0.3580959031181917,11.5,74,1017,7.06,2.31,73,0.6,0.18233333333333332,4.44
2020-3-12 8:33,3500,2806.450056423611,219.0009190538183,0.43929369486521697,24.72469127191282,0.006821831597222223,0.3706785045615469,11.5,74,1017,7.06,2.32,75,0.68,0.18133333333333332,4.44
2020-3-12 8:33,3500,2849.156563,218.49300564219163,0.4436158680372588,18.97015819496307,0.009852430555555555,0.326654850047658,11.5,74,1017,7.06,2.33,75,0.68,0.18033333333333332,4.44
2020-3-12 8:33,3600,2987.1251822916665,221.15979275153722,0.44047139045233247,21.131570065493143,0.01114474826388889,0.3242244476783769,11.5,74,1017,7.06,2.35,73,0.61,0.17833333333333332,4.44
2020-3-12 8:33,3600,2962.6251692708333,216.93818467575719,0.44032950182430003,21.936676729827862,0.010761719,0.31924168113425927,11.5,74,1017.1,7.06,2.28,74,0.63,0.18533333333333335,4.44
2020-3-12 8:34,3600,2975.788098958333,221.5990115015371,0.4416025007992253,21.99731308845502,0.011189236111111112,0.3223679661968954,11.5,74,1017.1,7.06,2.15,76,0.67,0.19833333333333333,4.44
2020-3-12 8:34,3600,2882.2836197916668,215.63612955666895,0.44129247291050433,22.025131951761615,0.010866970486111112,0.3372611102600762,11.5,74,1017.1,7.06,2.12,78,0.73,0.2013333333333333,4.44
2020-3-12 8:34,3500,2955.616332465278,219.22274087011544,0.44024536024341093,21.849348538457733,0.010579427083333334,0.32274011097494554,11.5,74,1017.1,7.06,2.01,81,0.79,0.21233333333333335,4.44
2020-3-12 8:34,3500,3074.3630902777777,229.28135306760882,0.44186506440507445,21.08250977925767,0.010559895833333333,0.32060751974400875,11.6,74,1017.1,7.16,1.97,83,0.83,0.215,4.4399999999999995
2020-3-12 8:35,3500,3149.6125629340277,230.44563910372588,0.43881166773087293,22.245055639383352,0.011389973958333334,0.32036446418845316,11.6,74,1017.1,7.16,2.01,87,0.98,0.21100000000000002,4.4399999999999995
2020-3-12 8:35,3400,3134.4959678819446,232.10390082431252,0.4412279172393547,22.48598858927035,0.011317274305555555,0.32413950588916124,11.6,74,1017.1,7.16,2,89,1.03,0.212,4.4399999999999995
2020-3-12 8:35,3400,3151.5128385416665,229.80974609186626,0.43849548767414515,22.25154894211159,0.011440972222222222,0.3174442955133442,11.6,74,1017.1,7.16,2.08,90,1.1,0.204,4.4399999999999995
2020-3-12 8:35,3400,3108.0572569444444,229.16857312705793,0.4398211977088774,22.72169413062918,0.010990668402777778,0.3272016314338235,11.8,75,1017.1,7.55,2.21,89,1.14,0.205,4.250000000000001
2020-3-12 8:36,3500,3835.303537326389,301.10539388019777,0.44059304815956307,33.41398890036112,0.008497178819444444,0.3539207048270697,11.8,75,1017.1,7.55,2.33,88,1.17,0.19299999999999998,4.250000000000001
2020-3-12 8:36,3500,4124.878246527778,316.6922059428734,0.43912861493467986,21.882369500860968,0.005934244791666667,0.3013325163398693,11.8,75,1017.1,7.55,2.47,88,1.23,0.17899999999999996,4.250000000000001
2020-3-12 8:36,3500,3566.2883940972224,281.47206054673234,0.4456226003409497,24.56041761712627,0.0063943142361111115,0.36337908496732024,11.8,75,1017.1,7.55,2.66,86,1.25,0.15999999999999998,4.250000000000001
2020-3-12 8:36,3500,3699.693385416667,289.7896582019935,0.44485944375877584,23.726899150994267,0.008995225694444444,0.32659154156454245,12,77,1017,8.13,2.78,85,1.26,0.1786666666666667,3.869999999999999
2020-3-12 8:37,3400,3846.021948784722,292.38474066696057,0.44633593815954914,23.803138281139532,0.011408420138888889,0.3355477047589869,12,77,1017,8.13,2.83,83,1.2,0.17366666666666666,3.869999999999999
2020-3-12 8:37,3400,3886.3301258680553,296.3586393226858,0.4475989251748431,23.374548230002823,0.011387803819444445,0.3281387144267429,12,77,1017,8.13,2.95,82,1.2,0.16166666666666665,3.869999999999999
2020-3-12 8:37,3400,3901.3825694444445,298.70178710239435,0.44792563920365325,23.184760107794027,0.011566840277777778,0.32940146718409585,12,77,1017,8.13,2.92,82,1.19,0.16466666666666668,3.869999999999999
2020-3-12 8:37,3400,3883.8527256944444,297.30536891644755,0.4479941915958569,23.584322900125898,0.010919053819444444,0.33183020578022876,12,74,1017,7.55,2.79,83,1.18,0.12766666666666668,4.45
2020-3-12 8:38,3400,3827.7620833333335,294.20899522298186,0.44781479386563267,23.1814479797898,0.011546223958333334,0.33805060678785404,12,74,1017,7.55,2.61,83,1.1,0.14566666666666667,4.45
2020-3-12 8:38,3400,3821.185542534722,292.4800238712972,0.44772835981170067,23.49370335326126,0.011342230902777778,0.3366206512118736,12,74,1017,7.55,2.33,85,1.06,0.17366666666666666,4.45
2020-3-12 8:38,3500,3926.032144097222,301.2545323200356,0.4475685056236026,23.84857008855202,0.011509331597222222,0.3303988247208606,12,74,1017,7.55,2.08,86,0.98,0.19866666666666666,4.45
2020-3-12 8:38,3500,3809.152934027778,291.98296766348824,0.4474758005817742,23.7355959161842,0.011465928819444445,0.33642506638071895,11.8,72,1017,6.95,1.89,85,0.86,0.187,4.8500000000000005
2020-3-12 8:39,3400,4004.143029513889,305.1669943574084,0.44664065298414873,24.285780670802335,0.011595052083333333,0.32094971235021785,11.8,72,1017,6.95,1.8,88,0.9,0.19599999999999998,4.8500000000000005
2020-3-12 8:39,3400,3907.331662326389,298.7464507377046,0.44780070528122257,23.681693314005454,0.01157009548611111,0.3294387084694989,11.8,72,1017,6.95,1.75,90,0.92,0.20099999999999998,4.8500000000000005
2020-3-12 8:39,3400,3947.139709201389,297.57018771462975,0.44467981057037576,23.880503682637876,0.011481119791666666,0.32833074618736385,11.8,72,1017,6.95,1.78,92,1,0.19799999999999998,4.8500000000000005
2020-3-12 8:39,3400,3849.776037326389,292.58647786458334,0.4472005550287787,23.90799329864613,0.011357422,0.33332548679193896,11.9,73,1017.1,7.25,1.85,93,1.06,0.2063333333333333,4.65
2020-3-12 8:40,3400,3905.983919270833,299.34188042528945,0.44751365034759344,23.842747883737474,0.011244574652777778,0.33004837707652507,11.9,73,1017.1,7.25,1.96,94,1.15,0.19533333333333333,4.65
2020-3-12 8:40,3400,3844.571154513889,292.82224606130626,0.44709463616154754,23.911528256498084,0.011180555555555555,0.3343334567333878,11.9,73,1017.1,7.25,2.02,94,1.19,0.18933333333333333,4.65
2020-3-12 8:40,3400,3763.782344,285.28541991989584,0.44483343290806376,23.867301637772602,0.010895182291666666,0.34370954180283225,11.9,73,1017.1,7.25,2.06,93,1.18,0.18533333333333332,4.65
2020-3-12 8:40,3400,3720.4651953125,282.20251518417166,0.44575979897202767,23.752678473464467,0.011287977430555556,0.34488122957516343,12,74,1017.1,7.55,2.03,93,1.16,0.2036666666666667,4.45
2020-3-12 8:41,3400,3705.751094,281.0202332881397,0.4445123792574834,23.798135387428985,0.011244574652777778,0.3469630863630174,12,74,1017.1,7.55,1.96,93,1.13,0.21066666666666667,4.45
2020-3-12 8:41,3400,3744.3729557291667,284.1454079857296,0.4451061877826178,23.78219312953631,0.010821397569444445,0.33998954929193903,12,74,1017.1,7.55,1.95,91,1.06,0.2116666666666667,4.45
2020-3-12 8:41,3400,3676.3676258680557,279.41731011222447,0.4433765935197017,23.6708644876307,0.011117621527777777,0.3457076227192266,12,74,1017.1,7.55,1.89,90,1,0.2176666666666667,4.45
2020-3-12 8:41,3400,3689.5221484375,280.2033344179779,0.4439104233667193,23.493637737156025,0.010957031,0.34537481702750544,11.9,72,1017.1,7.05,1.86,89,0.96,0.18866666666666665,4.8500000000000005
2020-3-12 8:42,3400,3592.785802951389,277.0019140573714,0.4441942845776906,22.90368858827673,0.010094401041666666,0.3497604847494553,11.9,72,1017.1,7.05,1.78,89,0.92,0.19666666666666666,4.8500000000000005
2020-3-12 8:42,3400,3502.8431163194446,269.5624055978269,0.4450483778480287,22.238708763366137,0.009995659722222222,0.3545031871255447,11.9,72,1017.1,7.05,1.76,88,0.88,0.19866666666666666,4.8500000000000005
2020-3-12 8:42,3400,3318.799322916667,264.6277430538555,0.4452419497708855,23.1962791729241,0.005402560763888889,0.3589464741625817,11.9,72,1017.1,7.05,1.75,90,0.93,0.19966666666666666,4.8500000000000005
2020-3-12 8:42,3400,3370.691779513889,270.2263899078264,0.44662773610616063,24.262395113832348,0.0059722222222222225,0.3701484800517429,12,72,1017.1,7.15,1.73,91,0.94,0.20033333333333334,4.85
2020-3-12 8:43,3400,3265.438845486111,257.6264518228978,0.43709728624216754,29.600741042129485,0.005544704861111111,0.3740412156181917,12,72,1017.1,7.15,1.68,92,0.94,0.20533333333333334,4.85
2020-3-12 8:43,3300,3026.720277777778,237.65310220200217,0.4370990180482351,29.977590157986395,0.0053363715277777776,0.41341028816040304,12,72,1017.1,7.15,1.63,92,0.91,0.21033333333333334,4.85
2020-3-12 8:43,3300,2996.913940972222,232.1846820478074,0.436622632881812,26.605807891878154,0.0055110677083333335,0.36683328227124185,12,72,1017.1,7.15,1.6,91,0.87,0.21333333333333332,4.85
2020-3-12 8:43,3400,3530.4303515625,280.9031053127526,0.4409707552165724,33.284149092684956,0.005269097222222222,0.40865399475762526,12,73,1017.2,7.35,1.55,89,0.8,0.23500000000000001,4.65
2020-3-12 8:44,3400,3002.079240451389,239.67088975325217,0.4418589375915005,30.408613955495607,0.005385199652777777,0.40826123366013073,12,73,1017.2,7.35,1.49,90,0.79,0.24100000000000002,4.65
2020-3-12 8:44,3400,2455.924830729167,192.61527990630347,0.44077846740102866,25.599502333199343,0.005341797,0.4211476077410131,12,73,1017.2,7.35,1.43,87,0.69,0.24700000000000003,4.65
2020-3-12 8:44,3400,2276.2860026041667,178.66601019230478,0.4432075261645057,24.841693563177206,0.005378689236111111,0.39568155977668845,12,73,1017.2,7.35,1.48,87,0.72,0.24200000000000002,4.65
2020-3-12 8:44,3400,2264.740247395833,177.06846671911055,0.4434673611477788,23.976167638664776,0.005329861111111111,0.39910943882761435,12.1,73,1017.2,7.44,1.6,84,0.7,0.22866666666666668,4.659999999999999
2020-3-12 8:45,3400,2304.685724826389,179.59146267349334,0.4437110217360021,23.66388703346815,0.005373263888888889,0.3730197567742375,12.1,73,1017.2,7.44,1.72,80,0.64,0.21666666666666667,4.659999999999999
2020-3-12 8:45,3400,2381.889688,186.15324327157936,0.4429794266580319,24.960466595711114,0.005320095486111111,0.41427942027505443,12.1,73,1017.2,7.44,1.78,78,0.61,0.21066666666666667,4.659999999999999
2020-3-12 8:45,3400,2444.1799392361113,190.67708550342982,0.4442224258824107,25.007149118497928,0.005397135416666666,0.4048818848720043,12.1,73,1017.2,7.44,1.85,77,0.6,0.20366666666666666,4.659999999999999
2020-3-12 8:45,3400,2411.990798611111,187.87261066916665,0.44307100082519696,25.4095531612784,0.0052463107638888885,0.4004451678240741,12.2,73,1017.1,7.54,1.93,76,0.59,0.19433333333333336,4.659999999999999
2020-3-12 8:46,3400,2423.860486111111,189.64858506942562,0.4441672412848855,25.13300442669979,0.005425347222222222,0.4118898760893246,12.2,73,1017.1,7.54,2.02,76,0.62,0.18533333333333335,4.659999999999999
2020-3-12 8:46,3400,2338.4176996527776,185.5717621187516,0.44538038539181696,24.394550465793216,0.005339626736111111,0.4043953610089869,12.2,73,1017.1,7.54,2.13,78,0.73,0.17433333333333334,4.659999999999999
2020-3-12 8:46,3300,2363.643224826389,186.3983441840231,0.4458830343727733,24.560892171779713,0.005430772569444444,0.3952583741830065,12.2,73,1017.1,7.54,2.12,77,0.69,0.17533333333333334,4.659999999999999
2020-3-12 8:46,3300,2460.0182942708334,193.10741623498308,0.4421443314229363,25.983233044506687,0.005189887152777778,0.4200759548611111,12.2,74,1017.1,7.74,2.12,76,0.65,0.192,4.459999999999999
2020-3-12 8:47,3300,2453.6803038194444,194.48491210917604,0.4445177956152022,26.114670948485244,0.005384114583333334,0.40839118242783223,12.2,74,1017.1,7.74,2.19,78,0.75,0.185,4.459999999999999
2020-3-12 8:47,3300,2792.3346397569444,225.31386932280734,0.44204277651132196,31.174083027593337,0.005430772569444444,0.39616262425108933,12.2,74,1017.1,7.74,2.24,81,0.88,0.18,4.459999999999999
2020-3-12 8:47,3300,1677.6998524305557,128.91916883680085,0.4422690304051428,17.715230324309154,0.005942925347222222,0.3420999072372004,12.2,74,1017.1,7.74,2.25,84,0.99,0.179,4.459999999999999
2020-3-12 8:47,3300,2727.036799045139,214.33268925534364,0.44804192398720943,16.34748100580796,0.006054688,0.26933589494825705,12.2,74,1017.1,7.74,2.22,86,1.04,0.182,4.459999999999999
2020-3-12 8:48,3400,1063.7154730902778,81.2342437065866,0.4337368601517739,17.765091668193342,0.0054177517361111115,0.3667827648420479,12.2,74,1017.1,7.74,2.18,85,0.99,0.186,4.459999999999999
2020-3-12 8:48,3400,2949.0109244791665,231.0833970232174,0.44508358892271593,16.85048372936734,0.005862630208333333,0.2552565784994553,12.2,74,1017.1,7.74,2.16,87,1.05,0.188,4.459999999999999
2020-3-12 8:48,3500,2070.616775173611,161.91666775172547,0.4400969284991085,18.289670431973786,0.0054481336805555555,0.4045424708946079,12.2,74,1017.1,7.74,2.24,89,1.15,0.18,4.459999999999999
2020-3-12 8:48,3500,2585.9339214409724,193.33208940887334,0.4357940080969168,19.253827027967795,0.006252170138888889,0.4107968792551743,12.2,74,1017,7.74,2.25,91,1.22,0.179,4.459999999999999
2020-3-12 8:49,3500,2619.4264019097222,201.0746066345215,0.4374754185608565,17.778217721686342,0.005543619791666667,0.3275241310934096,12.2,74,1017,7.74,2.12,90,1.12,0.192,4.459999999999999
2020-3-12 8:49,3500,2186.6067925347224,163.0514449866778,0.43562123779784506,19.330345937878533,0.006179470486111111,0.40604650479983656,12.2,74,1017,7.74,1.99,88,0.99,0.20500000000000002,4.459999999999999
2020-3-12 8:49,3500,2476.5974652777777,192.8286150779618,0.4407452345501613,17.428539755457663,0.005827907986111111,0.32345589937363833,12.2,74,1017,7.74,1.92,87,0.93,0.21200000000000002,4.459999999999999
2020-3-12 8:49,3500,2700.372813,209.97997391847207,0.44187615218584275,21.090819342290786,0.007459852430555556,0.3398410139229303,12.2,71,1017,7.14,1.89,84,0.83,0.16500000000000004,5.06
2020-3-12 8:50,3500,2627.7717925347224,202.50217229478153,0.4389016352967171,20.222927197437702,0.006965060763888889,0.3411907126565904,12.2,71,1017,7.14,1.93,82,0.79,0.161,5.06
2020-3-12 8:50,3500,2706.7109461805558,208.787481552688,0.43985160754930225,19.876558207654693,0.007290581597222222,0.3220738442946623,12.2,71,1017,7.14,1.98,80,0.74,0.15600000000000003,5.06
2020-3-12 8:50,3500,2708.29626953125,206.65881510280562,0.4386437612912661,19.943284219459528,0.007403428819444445,0.32403133084831154,12.2,71,1017,7.14,1.96,80,0.73,0.158,5.06
2020-3-12 8:50,3400,2762.1202821180555,210.90416341131586,0.43950368701653963,20.391693949197638,0.007917751736111112,0.32007193372140524,12.3,73,1017,7.64,1.88,82,0.76,0.198,4.660000000000001
2020-3-12 8:51,3400,2743.865295138889,210.51687716764755,0.4386334520541907,20.50062661021853,0.007737630208333333,0.33011612796160134,12.3,73,1017,7.64,1.85,83,0.78,0.20099999999999998,4.660000000000001
2020-3-12 8:51,3400,2808.5402105034723,212.90823459201266,0.43787720223948884,20.30444814297197,0.007998047,0.32096312465958604,12.3,73,1017,7.64,1.78,85,0.81,0.208,4.660000000000001
2020-3-12 8:51,3500,2767.888849826389,210.19274190435414,0.43683686107911707,19.912885166550165,0.007698567708333334,0.333140042041122,12.3,73,1017,7.64,1.67,89,0.86,0.219,4.660000000000001
2020-3-12 8:51,3500,2793.7222265625,209.88706163126622,0.4360770420841173,20.83350521022669,0.008169487847222223,0.32846412888071896,12.3,72,1017,7.44,1.73,91,0.94,0.19633333333333333,4.86
2020-3-12 8:52,3500,2826.948279079861,211.82183159077493,0.43617346010918745,20.785371220846162,0.00829318576388889,0.31429148369417215,12.3,72,1017,7.44,1.78,94,1.04,0.19133333333333333,4.86
2020-3-12 8:52,3500,2854.5567100694443,216.70465277739635,0.43764693167319085,21.202887517761944,0.008675130208333333,0.31724611502587147,12.3,72,1017,7.44,1.73,97,1.09,0.19633333333333333,4.86
2020-3-12 8:52,3500,2881.753810763889,213.8610590276082,0.434533880498518,21.236273453973368,0.008825954861111112,0.3123194869961874,12.3,72,1017,7.44,1.69,98,1.08,0.20033333333333334,4.86
2020-3-12 8:52,3500,2863.648767361111,210.198662109176,0.43267127674651373,20.837427828977532,0.008664279513888888,0.30206764876089326,12.4,71,1017.1,7.33,1.71,101,1.17,0.18033333333333335,5.07
2020-3-12 8:53,3500,2878.8341970486113,209.9881434405751,0.4318987380741923,20.9949782605225,0.009320746527777778,0.31170156760620915,12.4,71,1017.1,7.33,1.76,105,1.29,0.17533333333333334,5.07
2020-3-12 8:53,3500,2920.6638411458334,215.80278536828945,0.43329127887645696,21.527707003706972,0.009278428819444445,0.3160056976783769,12.4,71,1017.1,7.33,1.83,109,1.42,0.16833333333333333,5.07
2020-3-12 8:53,3500,2918.7227647569443,214.91419921667298,0.43326778504044555,21.519822547677407,0.009326172,0.31577980324074073,12.4,71,1017.1,7.33,1.89,107,1.42,0.16233333333333333,5.07
2020-3-12 8:53,3500,2992.7373046875,218.14312933948193,0.4330662167444645,21.999692625372912,0.009723307291666667,0.31298591537309367,12.6,71,1017.1,7.52,1.82,108,1.39,0.16666666666666666,5.08
2020-3-12 8:54,3500,2931.952266,217.41439995480647,0.433836581760453,21.438662333546244,0.009380425347222223,0.32265651382080607,12.6,71,1017.1,7.52,1.68,108,1.29,0.18066666666666667,5.08
2020-3-12 8:54,3600,2964.208576388889,218.95089951818852,0.4343269413519106,21.70519960986691,0.009737413194444445,0.315252331835512,12.6,71,1017.1,7.52,1.61,107,1.21,0.18766666666666665,5.08
2020-3-12 8:54,3600,2927.864396701389,214.4046994227834,0.4322833979008936,21.340594792560502,0.009403211805555556,0.32449763837826795,12.6,71,1017.1,7.52,1.64,104,1.18,0.18466666666666667,5.08
2020-3-12 8:54,3600,2949.4097265625,217.56798068490556,0.4332508520110651,21.723091170281926,0.009571397569444445,0.31440340328839866,12.8,71,1017.1,7.72,1.69,100,1.13,0.177,5.080000000000001
2020-3-12 8:55,3600,2879.0155164930557,210.6663509033474,0.43108029236965917,21.16658603718837,0.009437934027777779,0.3264767241966231,12.8,71,1017.1,7.72,1.7,95,1.02,0.176,5.080000000000001
2020-3-12 8:55,3500,2933.632808159722,213.73642143802883,0.4314797645874521,21.331805214280724,0.009736328,0.3238811317061547,12.8,71,1017.1,7.72,1.76,91,0.96,0.16999999999999998,5.080000000000001
2020-3-12 8:55,3500,2869.915876736111,210.50209957885613,0.43153227029094804,21.27887588188622,0.009397786458333333,0.33461477907135073,12.8,71,1017.1,7.72,1.78,90,0.94,0.16799999999999998,5.080000000000001
2020-3-12 8:55,3500,2861.275407986111,209.5100303819397,0.4318838285366259,21.2491230736712,0.009561631944444444,0.33670026126770153,12.8,70,1017.1,7.51,1.81,90,0.96,0.14833333333333332,5.290000000000001
2020-3-12 8:56,3500,2875.340941840278,211.24461371520243,0.4317420007491104,21.20256553878119,0.009583333333333333,0.33170325691040303,12.8,70,1017.1,7.51,1.89,93,1.08,0.14033333333333334,5.290000000000001
2020-3-12 8:56,3600,2902.9226801215277,211.32893120560703,0.43225971956211473,21.012298684426295,0.009287109,0.3254097434980937,12.8,70,1017.1,7.51,1.96,94,1.15,0.1333333333333333,5.290000000000001
2020-3-12 8:56,3600,3165.562599826389,234.54364038457868,0.4439381218870148,21.159819070943517,0.011269531,0.32668538092320265,12.8,70,1017.1,7.51,1.93,97,1.21,0.1363333333333333,5.290000000000001
2020-3-12 8:56,3600,3247.324752604167,240.0538129264926,0.4450574434967721,21.046030888934943,0.011456163194444445,0.31347426045070803,12.8,69,1017.1,7.3,1.85,98,1.19,0.1443333333333333,5.500000000000001
2020-3-12 8:57,3600,3221.426931423611,236.67478081550126,0.44361094787801303,21.167111333491494,0.011384548611111111,0.31259774986383443,12.8,69,1017.1,7.3,1.8,100,1.2,0.14933333333333332,5.500000000000001
2020-3-12 8:57,3600,3216.9291493055557,238.6460438313614,0.4451768991877522,21.371495867759993,0.011340060763888889,0.3136061665985839,12.8,69,1017.1,7.3,1.74,100,1.17,0.15533333333333332,5.500000000000001
2020-3-12 8:57,3600,3239.1223654513888,238.14207031249515,0.4439957006642419,21.284006860738568,0.011427951388888889,0.31258354183687365,12.8,69,1017.1,7.3,1.73,102,1.2,0.15633333333333332,5.500000000000001
2020-3-12 8:57,3600,3296.1691276041665,241.7459798176978,0.44454202053900993,21.410189320198743,0.011525607638888888,0.30895621000136164,12.7,69,1017.1,7.2,1.65,101,1.13,0.16566666666666668,5.499999999999999
2020-3-12 8:58,3600,3224.842813,237.0355479353152,0.4447983592778083,21.5243350114998,0.011503906,0.3173141893041939,12.7,69,1017.1,7.2,1.61,97,1.01,0.16966666666666666,5.499999999999999
2020-3-12 8:58,3600,3318.8876432291668,243.52036024267406,0.44528645739416584,21.527429524560795,0.011826172,0.30962006825299565,12.7,69,1017.1,7.2,1.57,94,0.92,0.17366666666666666,5.499999999999999
2020-3-12 8:58,3600,3279.402907986111,241.90466795963238,0.44505259497736316,21.46154670496051,0.011487630208333334,0.3109295002723312,12.7,69,1017.1,7.2,1.54,91,0.84,0.17666666666666667,5.499999999999999
2020-3-12 8:58,3600,3328.5739453125,244.615869140426,0.44639087431634406,21.66615276688224,0.011693793402777777,0.3077253370098039,12.8,68,1017.1,7.09,1.53,89,0.79,0.17633333333333331,5.710000000000001
2020-3-12 8:59,3600,3347.787478298611,245.77335283291666,0.4455308764437284,21.777502153857963,0.01173611111111111,0.30564637374046844,12.8,68,1017.1,7.09,1.56,87,0.76,0.1733333333333333,5.710000000000001
2020-3-12 8:59,3600,3338.582673611111,246.52567489450237,0.44631434153545996,21.917519423809505,0.011984592013888889,0.30904529633033767,12.8,68,1017.1,7.09,1.53,86,0.72,0.17633333333333331,5.710000000000001
2020-3-12 8:59,3600,3322.9627213541667,244.26157660576024,0.4464737202546597,21.794127199465745,0.011534288194444445,0.3124206878063725,12.8,68,1017.1,7.09,1.54,87,0.75,0.1753333333333333,5.710000000000001
2020-3-12 8:59,3600,3337.092712673611,246.40504991070307,0.44746808969877466,21.946923147214054,0.012118055555555556,0.31576690580746186,12.7,67,1017.1,6.78,1.52,85,0.69,0.17866666666666667,5.919999999999999
2020-3-12 9:00,3600,3308.5462803819446,243.0811284639147,0.4471060437836534,21.95920840592371,0.011880425347222221,0.3134928810934096,12.7,67,1017.1,6.78,1.44,84,0.63,0.18666666666666668,5.919999999999999
2020-3-12 9:00,3600,3329.391206597222,246.5404589835168,0.4473193922438928,21.926516286879895,0.011827256944444444,0.31210619212962964,12.7,67,1017.1,6.78,1.44,86,0.68,0.18666666666666668,5.919999999999999
2020-3-12 9:00,3600,3319.6819574652777,243.72535480920183,0.4455166488390305,22.011330708765794,0.011702473958333333,0.3129852941176471,12.7,67,1017.1,6.78,1.52,89,0.78,0.17866666666666667,5.919999999999999
2020-3-12 9:00,3600,3337.171987847222,245.75341254266684,0.4466951759165667,22.011177792368052,0.01188259548611111,0.31501250170206974,12.8,68,1017.1,7.09,1.55,94,0.91,0.1743333333333333,5.710000000000001
2020-3-12 9:01,3600,3292.0352473958333,242.1559732832155,0.4461962371542492,21.886106019357666,0.012007378472222222,0.3169390871800109,12.8,68,1017.1,7.09,1.51,96,0.93,0.17833333333333332,5.710000000000001
2020-3-12 9:01,3600,3348.8331901041665,248.38284396462984,0.44684804106740333,21.88801701995226,0.011843532986111112,0.32133736723856204,12.8,68,1017.1,7.09,1.51,96,0.93,0.17833333333333332,5.710000000000001
2020-3-12 9:01,3700,3277.5283680555553,243.05503904719885,0.4467707412308072,21.766051007064064,0.012176649305555556,0.32501405058551197,12.8,68,1017.1,7.09,1.5,94,0.88,0.17933333333333332,5.710000000000001
2020-3-12 9:01,3700,3306.787248263889,242.73635742153485,0.4462736181481007,21.79179697710369,0.011954210069444445,0.32402605017701525,13,70,1017.1,7.7,1.57,96,0.97,0.16966666666666666,5.3
2020-3-12 9:02,3700,3254.5438151041667,239.50818467353423,0.4452126012557868,21.56878951140555,0.011873914930555556,0.33005167909177563,13,70,1017.1,7.7,1.65,96,1.01,0.16166666666666668,5.3
2020-3-12 9:02,3700,3340.7594748263887,246.37355468719855,0.4471081019593242,21.763084758639113,0.012194010416666666,0.320684176708878,13,70,1017.1,7.7,1.67,95,1,0.15966666666666668,5.3
2020-3-12 9:02,3700,3307.3700694444447,245.9951920570268,0.4468649290387077,21.692688186234516,0.011715494791666666,0.31986217064950984,13,70,1017.1,7.7,1.6,93,0.91,0.16666666666666666,5.3
2020-3-12 9:02,3600,3338.4823307291667,247.99289279513889,0.4484645185917844,21.820244996124813,0.011863064236111111,0.3181188214869281,13,67,1017.2,7.07,1.54,89,0.79,0.17266666666666666,5.93
2020-3-12 9:03,3600,3311.5266015625,244.25350260337075,0.44733925178709216,21.6588586327422,0.011738281,0.3211322593273421,13,67,1017.2,7.07,1.65,88,0.82,0.16166666666666668,5.93
2020-3-12 9:03,3600,3320.5472005208335,244.73186197916192,0.4472564330033656,21.745862092355015,0.011708984,0.3216542543232571,13,67,1017.2,7.07,1.74,88,0.87,0.15266666666666667,5.93
2020-3-12 9:03,3600,3274.2791796875,240.65238932121653,0.4458366112102726,21.69387829618269,0.01163302951388889,0.31959160539215686,13,67,1017.2,7.07,1.89,88,0.94,0.1376666666666667,5.93
2020-3-12 9:03,3600,3324.624448784722,244.94240451350734,0.4468017900590591,21.759302279286754,0.011891276041666666,0.3200723762595316,13.1,68,1017.2,7.38,1.99,88,1,0.12633333333333333,5.72
2020-3-12 9:04,3600,3294.2424869791666,241.5130023864169,0.44627913561525206,21.719524177934506,0.011755642361111112,0.320744344873366,13.1,68,1017.2,7.38,2.11,89,1.09,0.11433333333333334,5.72
2020-3-12 9:04,3700,3316.2243272569444,244.4938639287301,0.446810187977091,21.77447761329377,0.011519097222222222,0.32346280977668845,13.1,68,1017.2,7.38,2.17,90,1.15,0.10833333333333334,5.72
2020-3-12 9:04,3700,3298.4875564236113,243.6222395814496,0.4468207490197183,21.691373059868592,0.01164279513888889,0.3224984170751634,13.1,68,1017.2,7.38,2.25,90,1.19,0.10033333333333333,5.72
2020-3-12 9:04,3700,3298.0103515625,244.37220702728928,0.4478861681652289,21.66441823936571,0.011754557291666667,0.32617300687636164,13,68,1017.1,7.28,2.29,92,1.28,0.09766666666666667,5.72
2020-3-12 9:05,3700,3249.7065711805553,240.43168944379903,0.4463727449998318,21.664312384375883,0.011397569444444445,0.32919063606345317,13,68,1017.1,7.28,2.22,93,1.27,0.10466666666666666,5.72
2020-3-12 9:05,3700,3246.85685546875,241.79334958727694,0.4474557445416907,21.59244444572444,0.011797960069444445,0.33407661441312636,13,68,1017.1,7.28,2.16,96,1.33,0.11066666666666666,5.72
2020-3-12 9:05,3700,3262.162651909722,240.5435514253111,0.4461357662270462,21.49669133792788,0.011714409722222222,0.3262982111247276,13,68,1017.1,7.28,2.07,99,1.36,0.11966666666666669,5.72
2020-3-12 9:05,3600,3304.711818576389,243.92774847991262,0.4464891328373712,21.595026944513556,0.011802300347222221,0.32991424121732027,12.9,66,1017.2,6.75,1.96,100,1.31,0.132,6.15
2020-3-12 9:06,3600,3257.464743923611,240.81009440052242,0.446569869952763,21.543895379503507,0.011652560763888889,0.32642120693763615,12.9,66,1017.2,6.75,1.86,100,1.24,0.14199999999999996,6.15
2020-3-12 9:06,3600,3292.9888975694444,243.08963216017622,0.4459055231093645,21.480675897502056,0.011742621527777778,0.32637858711192813,12.9,66,1017.2,6.75,1.8,100,1.2,0.14799999999999996,6.15
2020-3-12 9:06,3600,3283.188020833333,244.1882736538911,0.44757819024417633,21.590738045352126,0.011757813,0.32592793436819173,12.9,66,1017.2,6.75,1.77,100,1.18,0.15099999999999997,6.15
2020-3-12 9:06,3700,3263.2971788194445,241.64488281202892,0.4464055907848104,21.608660332220374,0.011800130208333334,0.3292342047930283,12.9,67,1017.2,6.97,1.75,98,1.12,0.153,5.930000000000001
2020-3-12 9:07,3700,3246.4474565972223,239.74016166380773,0.44617977479228177,21.412538564158197,0.011835938,0.3264684819240196,12.9,67,1017.2,6.97,1.71,95,1.03,0.157,5.930000000000001
2020-3-12 9:07,3700,3259.647619357639,242.69842771934108,0.44669342762616454,21.373911353309754,0.011840277777777778,0.3230914777369281,12.9,67,1017.2,6.97,1.66,92,0.93,0.162,5.930000000000001
2020-3-12 9:07,3700,3231.3533203125,240.4155891874232,0.4465361878972305,21.441851771145135,0.011782769097222222,0.32976421228213504,12.9,67,1017.2,6.97,1.62,89,0.83,0.16599999999999998,5.930000000000001
2020-3-12 9:07,3700,3236.4650564236113,240.25288302889106,0.44644444291197044,21.56409021445213,0.011954210069444445,0.3312746502246732,12.9,67,1017.2,6.97,1.64,90,0.87,0.164,5.930000000000001
2020-3-12 9:08,3700,3199.4460503472224,238.0834244692014,0.44617787070589776,21.351860915205812,0.011768663194444445,0.3334618864038671,12.9,67,1017.2,6.97,1.71,91,0.93,0.157,5.930000000000001
2020-3-12 9:08,3700,3254.798381076389,242.59171874863898,0.4470700252052512,21.205310964897887,0.012071397569444444,0.32569305725762526,12.9,67,1017.2,6.97,1.76,92,0.99,0.152,5.930000000000001
2020-3-12 9:08,3700,3242.312074652778,240.46609048950634,0.44584317425279696,21.35937369028551,0.011763237847222222,0.3207799989787582,12.9,67,1017.2,6.97,1.73,93,0.99,0.155,5.930000000000001
2020-3-12 9:08,3700,3281.5725303819445,241.34682834198443,0.44592193128574137,21.38836099647399,0.011611328,0.32049369383169934,13,67,1017.1,7.07,1.73,95,1.04,0.15366666666666667,5.93
2020-3-12 9:09,3700,3226.1506749131945,237.514947912706,0.44450336184701367,21.38248416737825,0.011631944444444445,0.3231888659109477,13,67,1017.1,7.07,1.82,96,1.12,0.14466666666666667,5.93
2020-3-12 9:09,3700,3254.579652777778,240.11516058989633,0.44526377851721843,21.388314077160018,0.011589626736111112,0.3236456290849673,13,67,1017.1,7.07,1.91,98,1.23,0.13566666666666666,5.93
2020-3-12 9:09,3700,3231.1599696180556,239.2641438801507,0.44555984628818096,21.40632253071313,0.011320529513888889,0.3250555853417756,13,67,1017.1,7.07,1.94,99,1.28,0.13266666666666665,5.93
2020-3-12 9:09,3800,3221.9380078125,238.4527484803835,0.4457252549724232,21.395862794502214,0.011386719,0.324737145118464,13.1,67,1017.1,7.16,1.99,96,1.22,0.12633333333333333,5.9399999999999995
2020-3-12 9:10,3800,3179.9509114583334,234.85517468643062,0.44409490067589513,21.369445407648065,0.011214192708333333,0.324725090209695,13.1,67,1017.1,7.16,1.96,95,1.18,0.12933333333333333,5.9399999999999995
2020-3-12 9:10,3800,3198.063090277778,238.15787326371938,0.44480519073114105,21.407160114803478,0.011136067708333334,0.3280672019675926,13.1,67,1017.1,7.16,1.92,93,1.1,0.13333333333333336,5.9399999999999995
2020-3-12 9:10,3800,3126.1802039930553,229.78065211006333,0.44231260238023024,21.369972738747087,0.011340060763888889,0.330146105664488,13.1,67,1017.1,7.16,1.97,90,1.05,0.12833333333333333,5.9399999999999995
2020-3-12 9:10,3700,3188.643519965278,234.21093641491998,0.4426215420290863,21.36986345011163,0.011579861111111112,0.3293989098243464,13.2,67,1017.1,7.26,2.03,89,1.04,0.12100000000000002,5.9399999999999995
2020-3-12 9:11,3700,3157.987261284722,232.46991427951264,0.4424276230668709,21.411164448102447,0.011115451388888888,0.3308334609885621,13.2,67,1017.1,7.26,2.01,89,1.04,0.12300000000000003,5.9399999999999995
2020-3-12 9:11,3700,3162.6407335069443,234.66878146701262,0.44318449568925905,21.40565034333538,0.011176215277777778,0.3335777122480937,13.2,67,1017.1,7.26,1.99,88,0.99,0.125,5.9399999999999995
2020-3-12 9:11,3700,3105.422204861111,228.8217914346188,0.44094772740961313,21.343229064906904,0.011552734,0.33532179755582786,13.2,67,1017.1,7.26,1.97,86,0.92,0.127,5.9399999999999995
2020-3-12 9:11,3700,3125.7064127604167,230.38637043742318,0.4419716711794804,21.32795123825199,0.011343315972222223,0.33555628319035946,13.3,67,1017.1,7.35,1.97,87,0.95,0.12566666666666665,5.950000000000001
2020-3-12 9:12,3700,3093.956584201389,228.8114550763342,0.44158368302007783,21.217932846200597,0.011048177083333333,0.336390318627451,13.3,67,1017.1,7.35,2.05,86,0.96,0.11766666666666667,5.950000000000001
2020-3-12 9:12,3700,3121.6032986111113,230.7819108068665,0.442514652531316,21.213295690821482,0.011606987847222222,0.3348608600558279,13.3,67,1017.1,7.35,2.13,86,1,0.10966666666666666,5.950000000000001
2020-3-12 9:12,3700,3068.2052951388887,225.04670355900893,0.44050694512055594,21.154976963858886,0.011182725694444444,0.3371950444240196,13.3,67,1017.1,7.35,2.16,85,0.98,0.10666666666666665,5.950000000000001
2020-3-12 9:13,3700,3067.6025282118057,226.8495779078908,0.4415390866635408,21.025341177357248,0.011233723958333334,0.33727415662445537,13.3,67,1017.1,7.35,2.19,83,0.93,0.10366666666666666,5.950000000000001
2020-3-12 9:13,3700,2959.6047482638887,219.97099283003504,0.4409792349423056,20.299663528169603,0.010780164930555556,0.3385575852736928,13.3,67,1017.1,7.35,2.2,83,0.93,0.10266666666666663,5.950000000000001
2020-3-12 9:13,3600,1996.4765755208334,147.46732517792387,0.4298026234984664,23.547473494846045,0.005358072916666666,0.376054585375817,13.3,67,1017.1,7.35,2.17,83,0.92,0.10566666666666666,5.950000000000001
2020-3-12 9:13,3600,2371.1495399305554,187.65752056587004,0.4445408101209011,24.660367119151754,0.005235460069444444,0.3749723413671024,13.3,66,1017.1,7.13,2.16,82,0.88,0.10666666666666665,6.170000000000001
2020-3-12 9:14,3600,2443.4980859375,190.3232551965596,0.44440130966201813,25.237563060405698,0.005368923611111111,0.3779055138548475,13.3,66,1017.1,7.13,2.06,83,0.87,0.11666666666666664,6.170000000000001
2020-3-12 9:14,3600,2365.994722222222,184.8098306368604,0.4446031847735014,24.112454900911157,0.005257161458333334,0.36733863953567536,13.3,66,1017.1,7.13,2.02,87,0.98,0.12066666666666664,6.170000000000001
2020-3-12 9:14,3600,2335.547969,179.3008333278892,0.441438342478946,23.957036464701112,0.005380859,0.3725523088575708,13.3,66,1017.1,7.13,2.02,94,1.19,0.12066666666666664,6.170000000000001
2020-3-12 9:14,3700,2470.069294704861,193.89055767377215,0.4422387937821479,25.873927172128518,0.005302734,0.40869801879084966,13.3,66,1017.2,7.13,1.99,100,1.33,0.12366666666666665,6.170000000000001
2020-3-12 9:15,3700,2402.8024696180555,186.87465350279516,0.4411991047840262,25.32645097569759,0.005383029513888889,0.4000117698120915,13.3,66,1017.2,7.13,1.95,104,1.41,0.12766666666666668,6.170000000000001
2020-3-12 9:15,3700,2384.9733116319444,186.6282910141827,0.44390672708848267,25.09659111867994,0.0052463107638888885,0.3946682878880719,13.3,66,1017.2,7.13,1.95,108,1.5,0.12766666666666668,6.170000000000001
2020-3-12 9:15,3800,2404.344661458333,189.20659134575055,0.445239037823045,24.813696216254222,0.005338541666666667,0.3884252025462963,13.3,66,1017.2,7.13,1.99,114,1.65,0.12366666666666665,6.170000000000001
2020-3-12 9:15,3800,2391.8555078125,186.38210061728398,0.4419206972803853,25.51497660508457,0.005241970486111111,0.38760028169253813,13.4,67,1017.2,7.45,1.98,119,1.73,0.12333333333333334,5.95
2020-3-12 9:16,3800,2438.7608854166665,188.53544270833333,0.4427118252676457,25.585649933921747,0.005323350694444445,0.38025731889978215,13.4,67,1017.2,7.45,2.03,124,1.86,0.11833333333333335,5.95
2020-3-12 9:16,3800,2391.1983897569444,187.94200410978414,0.4452019568718925,25.01363576166504,0.0052549913194444445,0.3847916496459695,13.4,67,1017.2,7.45,2.07,125,1.9,0.11433333333333334,5.95
2020-3-12 9:16,3800,2397.9695052083334,187.14821478381577,0.44280109952448693,24.565881166809994,0.005334201388888889,0.3929436700027233,13.4,67,1017.2,7.45,2.09,121,1.86,0.11233333333333334,5.95
2020-3-12 9:16,3800,2487.5481727430556,198.64453768445702,0.44169279028055947,28.260560731277046,0.005304904513888889,0.40188203380310455,13.5,66,1017.2,7.33,2.15,120,1.9,0.10500000000000001,6.17
2020-3-12 9:17,3800,2525.437188,198.80274196488065,0.4426286535346959,25.90545176111981,0.005290798611111111,0.41483153764978214,13.5,66,1017.2,7.33,2.17,122,1.95,0.10300000000000001,6.17
2020-3-12 9:17,3900,2456.2147352430557,192.3660611933908,0.4416708551211385,26.7367670452865,0.005189887152777778,0.4010874268110022,13.5,66,1017.2,7.33,2.17,122,1.95,0.10300000000000001,6.17
2020-3-12 9:17,3900,2507.274782986111,194.834309831365,0.44096072127035396,26.82922670839929,0.005301649305555556,0.3983865017361111,13.5,66,1017.2,7.33,2.24,121,1.99,0.09599999999999997,6.17
2020-3-12 9:17,3900,2507.300355902778,196.85219943566855,0.44032000984696074,27.388885670445525,0.005220269097222222,0.4177268348311547,13.6,64,1017.2,6.97,2.24,121,2,0.09466666666666665,6.63
2020-3-12 9:18,3900,2443.7494270833336,191.8811143118953,0.44228572637521546,26.303619959617524,0.005301649305555556,0.3789729796432462,13.6,64,1017.2,6.97,2.17,120,1.92,0.10166666666666668,6.63
2020-3-12 9:18,3900,2460.4068793402776,195.18497394836805,0.442673997445527,26.632087817953927,0.0052788628472222225,0.4092196861383442,13.6,64,1017.2,6.97,2.11,121,1.88,0.10766666666666669,6.63
2020-3-12 9:18,3900,2482.8318793402777,195.1722200519138,0.44360547888658347,25.485919803778796,0.0053211805555555556,0.38690135654956426,13.6,64,1017.2,6.97,2.04,124,1.86,0.11466666666666667,6.63
2020-3-12 9:18,3900,2464.9401909722224,193.37493055555086,0.4432696304438379,26.39268273359401,0.005253906,0.39693523624727667,13.6,65,1017.2,7.2,2.03,124,1.86,0.1156666666666667,6.3999999999999995
2020-3-12 9:19,3900,2481.357013888889,187.66394408402505,0.43796827579321834,26.340254993839334,0.005359157986111111,0.3801809002246732,13.6,65,1017.2,7.2,2.02,125,1.86,0.11666666666666667,6.3999999999999995
2020-3-12 9:19,3900,2536.0195703125,200.701730685499,0.43947938959856175,29.014372013487765,0.005245225694444445,0.41557074652777776,13.6,65,1017.2,7.2,2.02,124,1.85,0.11666666666666667,6.3999999999999995
2020-3-12 9:19,3900,2419.536187065972,186.71330617216952,0.4406260783525658,26.16185329614672,0.005319010416666666,0.37279800262118734,13.6,65,1017.2,7.2,1.96,124,1.79,0.12266666666666667,6.3999999999999995
2020-3-12 9:19,3900,2344.5851909722223,182.0073675252232,0.4415694977997303,24.348206495327574,0.005299479166666667,0.3821871127791394,13.6,63,1017.2,6.75,1.89,123,1.72,0.12966666666666668,6.85
2020-3-12 9:20,3900,2508.253322482639,194.14712875870597,0.4392108576084103,26.225768337786775,0.005311414930555556,0.42592081546160127,13.6,63,1017.2,6.75,1.85,122,1.67,0.13366666666666666,6.85
2020-3-12 9:20,3900,2391.1206727430554,186.5374880565113,0.4421174941319367,24.39414880821141,0.005234375,0.3735837248093682,13.6,63,1017.2,6.75,1.82,120,1.61,0.13666666666666666,6.85
2020-3-12 9:20,3800,2517.184240451389,194.84232383890048,0.4410534679110689,25.3188499324947,0.005232204861111111,0.4232989089733115,13.6,63,1017.2,6.75,1.78,114,1.48,0.14066666666666666,6.85
2020-3-12 9:20,3800,2452.098511284722,193.63135089896753,0.44306500994430337,25.992371992699358,0.005256076388888889,0.3984447678376906,13.6,64,1017.2,6.97,1.65,112,1.34,0.15366666666666667,6.63
2020-3-12 9:21,3800,2439.5407204861112,190.99076694132359,0.4442931476654151,24.16737088254515,0.005390625,0.3790528492647059,13.6,64,1017.2,6.97,1.57,107,1.18,0.16166666666666665,6.63
2020-3-12 9:21,3800,2421.397894965278,188.18727321520083,0.4399616099966838,25.290082251420774,0.005274522569444444,0.40169953363289757,13.6,64,1017.2,6.97,1.46,104,1.05,0.17266666666666666,6.63
2020-3-12 9:21,3800,2450.00625,194.70397782727932,0.44212045083300106,24.834419254060933,0.005335286458333333,0.4220467345792484,13.6,64,1017.2,6.97,1.4,102,0.97,0.17866666666666667,6.63
2020-3-12 9:21,3800,2356.1354427083334,181.46863172700557,0.4411236815254083,24.31554812925033,0.0052940538194444445,0.36634176708877997,13.7,64,1017.2,7.07,1.5,102,1.04,0.16733333333333333,6.629999999999999
2020-3-12 9:22,3900,2430.9088932291666,190.05742815954417,0.4407832500027055,24.966809922983092,0.005292969,0.4234465294798475,13.7,64,1017.2,7.07,1.58,101,1.08,0.15933333333333333,6.629999999999999
2020-3-12 9:22,3900,2316.8986197916665,176.11039278240438,0.4353734422632674,25.877618019400703,0.0052940538194444445,0.41624809368191723,13.7,64,1017.2,7.07,1.69,100,1.13,0.14833333333333334,6.629999999999999
2020-3-12 9:22,3900,2425.2608289930554,185.4817566871348,0.43947379404134423,24.57755650925994,0.005330946180555555,0.39461580456835516,13.7,64,1017.2,7.07,1.82,103,1.29,0.13533333333333333,6.629999999999999
2020-3-12 9:22,3900,2506.300230034722,198.39634982621934,0.4435156250660373,25.607365782762333,0.0052311197916666665,0.4148840294798475,13.9,64,1017.2,7.26,1.86,104,1.34,0.12866666666666665,6.640000000000001
2020-3-12 9:23,3900,2468.2954210069443,191.1020225269412,0.44118275317351474,25.602131944009425,0.005256076388888889,0.3981728919866558,13.9,64,1017.2,7.26,1.92,108,1.47,0.12266666666666667,6.640000000000001
2020-3-12 9:23,3900,2282.4633289930557,177.07064776238215,0.44272493480249286,24.499780753988723,0.005202907986111111,0.3859130114719499,13.9,64,1017.2,7.26,1.99,113,1.63,0.11566666666666665,6.640000000000001
2020-3-12 9:23,3900,2498.4715082465277,193.63967990323167,0.43951928166150056,26.578834789028846,0.005313585069444444,0.4172038866761983,13.9,64,1017.2,7.26,2.1,115,1.76,0.10466666666666666,6.640000000000001
2020-3-12 9:23,3900,2337.7183984375,178.89889814630084,0.4389080946700034,24.78816793572843,0.005171440972222222,0.39264509293300653,13.9,63,1017.2,7.03,2.03,116,1.73,0.11166666666666668,6.87
2020-3-12 9:24,3900,2423.260755208333,192.6384494242245,0.4458421036827998,24.982716102825396,0.005362413194444445,0.3806376974400872,13.9,63,1017.2,7.03,1.96,117,1.68,0.11866666666666666,6.87
2020-3-12 9:24,4000,2510.3362413194445,194.73478285000652,0.44188332604589137,25.822942410606466,0.005315755208333333,0.4016778577750545,13.9,63,1017.2,7.03,1.89,118,1.64,0.12566666666666668,6.87
2020-3-12 9:24,4000,2404.5028515625,186.48370523520458,0.4428395213910581,25.391637130217305,0.005330946180555555,0.39391842405364924,13.9,63,1017.2,7.03,1.79,118,1.55,0.13566666666666666,6.87
2020-3-12 9:24,4000,2448.1174956597224,190.54262369563733,0.4439497416407138,25.00165600236282,0.005295138888888889,0.3969802730119825,13.9,63,1017.2,7.03,1.74,119,1.53,0.14066666666666666,6.87
2020-3-12 9:25,4000,2324.034683159722,183.15386367331493,0.44425429678373124,24.053419923703927,0.0053363715277777776,0.39349295768654685,13.9,63,1017.2,7.03,1.69,117,1.45,0.14566666666666667,6.87
2020-3-12 9:25,4000,2275.5795399305557,174.58473415699592,0.4423922162081655,24.079786866009403,0.005230034722222222,0.3890775505514706,13.9,63,1017.2,7.03,1.62,111,1.3,0.15266666666666664,6.87
2020-3-12 9:25,4000,2344.9188368055557,185.52255419333656,0.4479107065379656,23.37158510712827,0.005308159722222222,0.35799454486655774,13.9,63,1017.2,7.03,1.59,106,1.19,0.15566666666666665,6.87
2020-3-12 9:25,3900,2453.5662630208335,187.80764861421818,0.4399558896320156,25.428773998425555,0.0052159288194444445,0.40939778220315903,14,62,1017.2,6.9,1.65,104,1.19,0.14833333333333334,7.1
2020-3-12 9:26,3900,2391.2987196180557,185.33586368807573,0.4449182649211755,24.36188129287732,0.005366753472222222,0.38566128812636163,14,62,1017.2,6.9,1.77,101,1.21,0.1363333333333333,7.1
2020-3-12 9:26,3900,2492.920434027778,192.2610926641948,0.44103570759003635,26.025898911204767,0.0052039930555555555,0.40983849060457517,14,62,1017.2,6.9,1.85,99,1.22,0.12833333333333333,7.1
2020-3-12 9:26,3900,2511.8170052083333,196.3989811019792,0.44235352937186767,25.65017513424383,0.005339626736111111,0.41243054279003266,14,62,1017.2,6.9,1.95,97,1.23,0.11833333333333335,7.1
2020-3-12 9:26,3900,2375.6342100694446,184.07554138791005,0.44462355170220513,24.61631016532391,0.005339626736111111,0.3642894156794662,14.2,64,1017.3,7.55,2.09,95,1.26,0.10166666666666668,6.6499999999999995
2020-3-12 9:27,3900,2421.446641,190.644065683378,0.44568187875918847,25.193852089322203,0.0052191840277777775,0.37743204486655774,14.2,64,1017.3,7.55,2.17,93,1.25,0.09366666666666668,6.6499999999999995
2020-3-12 9:27,3800,2300.3952690972224,180.53135517990566,0.44365322446311944,25.22440277313939,0.005211588541666667,0.38236217064950984,14.2,64,1017.3,7.55,2.25,95,1.35,0.08566666666666667,6.6499999999999995
2020-3-12 9:27,3800,2497.2316623263887,196.30995326424946,0.44226980287999396,25.695734867578892,0.005244141,0.4165238672726035,14.2,64,1017.3,7.55,2.2,95,1.32,0.09066666666666665,6.6499999999999995
2020-3-12 9:27,3800,2402.1453472222224,189.08707682291666,0.44575862279740985,24.017737199032688,0.005186631944444444,0.3743741191789216,14.2,64,1017.3,7.55,2.13,93,1.22,0.09766666666666668,6.6499999999999995
2020-3-12 9:28,3800,2420.575078,191.77923502106728,0.44725822275748056,26.8741610948593,0.005342881944444444,0.3746158683959695,14.2,64,1017.3,7.55,2.09,93,1.2,0.10166666666666668,6.6499999999999995
2020-3-12 9:28,3900,2488.3490147569446,197.39775388447322,0.44424978027388057,25.468778313698973,0.0052159288194444445,0.3827250008510349,14.2,64,1017.3,7.55,2.05,93,1.17,0.10566666666666669,6.6499999999999995
2020-3-12 9:28,3900,2472.220208333333,193.03978931560746,0.44097281916307846,25.328866717740365,0.005264756944444444,0.40800284245642704,14.2,64,1017.3,7.55,2.02,94,1.19,0.10866666666666666,6.6499999999999995
2020-3-12 9:28,3900,2346.021501736111,179.96129556895602,0.4378522671761337,24.608267381599738,0.005241970486111111,0.4061263191040305,14.1,63,1017.3,7.22,1.97,95,1.18,0.115,6.88
2020-3-12 9:29,3900,2453.1330034722223,191.38350241389796,0.4414923238553544,23.21081389147411,0.005364583333333333,0.3879734094158497,14.1,63,1017.3,7.22,2.01,97,1.26,0.11100000000000003,6.88
2020-3-12 9:29,3900,2488.1213411458334,197.67005750370612,0.4406242488292644,26.325050973547214,0.0052853732638888885,0.42719048287717865,14.1,63,1017.3,7.22,2,95,1.2,0.112,6.88
2020-3-12 9:29,3900,2464.6144010416665,194.95569117311905,0.44153693324447824,27.597820523534157,0.005299479166666667,0.44135599639161216,14.1,63,1017.3,7.22,2.05,95,1.23,0.10700000000000003,6.88
2020-3-12 9:29,3900,2553.290998263889,206.58097547245623,0.4429329120080232,25.433252135708642,0.005237630208333333,0.39070426538671027,14.2,64,1017.2,7.55,2.13,97,1.34,0.09766666666666668,6.6499999999999995
2020-3-12 9:30,3900,2320.4377907986113,182.87874114763704,0.4448508319779799,21.261747608842583,0.0052853732638888885,0.3683694257216776,14.2,64,1017.2,7.55,2.13,96,1.31,0.09766666666666668,6.6499999999999995
2020-3-12 9:30,3900,2345.823302951389,180.78053384624994,0.4439686786072437,23.97389391065325,0.005218098958333334,0.36008714171432465,14.2,64,1017.2,7.55,2.14,95,1.29,0.09666666666666665,6.6499999999999995
2020-3-12 9:30,3900,2488.5706163194445,192.3968282769934,0.439836406758516,26.346652059005812,0.005206163194444445,0.41549268961056646,14.2,64,1017.2,7.55,2.15,95,1.3,0.09566666666666668,6.6499999999999995
2020-3-12 9:30,3900,2327.299844,181.49499341362375,0.44249723263866747,23.84633185076039,0.005190972222222222,0.41697602209286494,14.2,63,1017.2,7.32,2.12,92,1.19,0.09866666666666665,6.879999999999999
2020-3-12 9:31,3900,2297.217969,178.76058040548136,0.44339467512518027,24.00238514090099,0.005284288194444445,0.39218192572167754,14.2,63,1017.2,7.32,2.1,90,1.11,0.10066666666666667,6.879999999999999
2020-3-12 9:31,3900,2373.651736111111,188.04477646529105,0.44563038071140276,25.18680384043395,0.005235460069444444,0.36560581767429196,14.2,63,1017.2,7.32,2.11,91,1.15,0.09966666666666668,6.879999999999999
2020-3-12 9:31,3900,2568.596406,204.49206159121195,0.4443698244814349,24.54358032373955,0.005286458333333333,0.35894305725762526,14.2,63,1017.2,7.32,2.15,93,1.23,0.09566666666666668,6.879999999999999
2020-3-12 9:31,3900,2495.3067100694443,195.4765863703221,0.4420685158340165,24.267928130496323,0.005279947916666666,0.3414171177151416,14.2,63,1017.2,7.32,2.17,94,1.28,0.09366666666666668,6.879999999999999
2020-3-12 9:32,3900,2629.6800694444446,203.91832244616862,0.4389752428202884,27.867943603162296,0.0052788628472222225,0.3794774092796841,14.2,63,1017.2,7.32,2.18,96,1.34,0.09266666666666665,6.879999999999999
2020-3-12 9:32,3900,2632.207439236111,205.58250533105243,0.43913508588717937,27.179806293206052,0.0052159288194444445,0.35957014654820263,14.2,63,1017.2,7.32,2.14,99,1.4,0.09666666666666665,6.879999999999999
2020-3-12 9:32,3900,2561.2890147569447,205.61649843973112,0.44294042938039135,24.870975827762305,0.005347222222222222,0.3780850694444444,14.2,63,1017.2,7.32,2.18,101,1.49,0.09266666666666665,6.879999999999999
2020-3-12 9:32,3900,2724.4938888888887,212.11038845406514,0.43946872289213507,23.958220716966125,0.005281032986111111,0.34570472920070805,14.2,63,1017.2,7.32,2.23,104,1.6,0.08766666666666667,6.879999999999999
2020-3-12 9:33,3900,2387.2744986979164,188.5870365797149,0.44111845131461996,24.30059198778123,0.0052126736111111115,0.43290317350898694,14.2,63,1017.2,7.32,2.17,108,1.66,0.09366666666666668,6.879999999999999
2020-3-12 9:33,3900,2408.244605034722,191.12131934948204,0.4355325510060134,25.444189832202508,0.005248480902777778,0.45096494587418295,14.2,63,1017.2,7.32,2.17,114,1.8,0.09366666666666668,6.879999999999999
2020-3-12 9:33,3900,2557.8247265625,204.5411903015879,0.4449474141783039,21.036062059432332,0.005250651041666667,0.37391254765795207,14.2,63,1017.2,7.32,2.16,115,1.81,0.09466666666666666,6.879999999999999
2020-3-12 9:33,3900,2643.551349826389,207.31424045108744,0.43999149160589873,23.993296761707594,0.0052430555555555555,0.3523061257489107,14.2,61,1017.2,6.85,2.13,115,1.78,0.09766666666666668,7.35
2020-3-12 9:34,3900,2481.078107638889,197.6336100219433,0.4478852250870755,21.389710078556785,0.005378689236111111,0.30487885518790847,14.2,61,1017.2,6.85,2.08,115,1.74,0.10266666666666666,7.35
2020-3-12 9:34,3900,3088.2749305555553,245.72845806684015,0.4438052056610307,24.482518140313534,0.005249565972222222,0.3665217864923747,14.2,61,1017.2,6.85,2.05,114,1.7,0.10566666666666669,7.35
2020-3-12 9:34,3900,2961.8702256944443,242.82519961875155,0.4476732774718627,26.997695259089678,0.005328776041666667,0.3779060542619826,14.2,61,1017.2,6.85,1.95,112,1.58,0.11566666666666668,7.35
2020-3-12 9:34,3900,2506.7454817708335,196.57408311452858,0.44010720271359627,23.850547649544946,0.005339626736111111,0.3967193201933551,14.2,63,1017.3,7.32,1.87,111,1.49,0.12366666666666666,6.879999999999999
2020-3-12 9:35,3800,3006.2441015625,244.43739672907967,0.4474126855534875,25.68034718287631,0.005290798611111111,0.4104249982979303,14.2,63,1017.3,7.32,1.79,109,1.39,0.13166666666666668,6.879999999999999
2020-3-12 9:35,3800,3061.8543402777777,243.2707009548611,0.44565467520673774,22.0094228754441,0.005784505208333333,0.34011028560729845,14.2,63,1017.3,7.32,1.73,103,1.22,0.1376666666666667,6.879999999999999
2020-3-12 9:35,3800,3212.1441536458333,262.1532920198746,0.4496222039398273,23.052069084488803,0.005675998263888889,0.3758701448461329,14.2,63,1017.3,7.32,1.67,104,1.2,0.1436666666666667,6.879999999999999
2020-3-12 9:35,3800,2554.438298611111,205.1322547740748,0.4430261745147982,23.283428983825146,0.0052126736111111115,0.42302774373638347,14.2,62,1017.3,7.09,1.62,104,1.16,0.14866666666666667,7.109999999999999
2020-3-12 9:36,3900,2798.535746527778,227.5027678430333,0.4466878967922888,23.60915022061628,0.005329861111111111,0.4377110949414488,14.2,62,1017.3,7.09,1.66,105,1.21,0.1446666666666667,7.109999999999999
2020-3-12 9:36,3900,2449.321293402778,193.29856553818968,0.43014011223407417,30.926636595617,0.005292969,0.4500766016476035,14.2,62,1017.3,7.09,1.79,110,1.41,0.13166666666666668,7.109999999999999
2020-3-12 9:36,3900,2817.996641,231.74353835904043,0.44744176107179173,26.036401460023647,0.005316840277777778,0.39836894488698255,14.2,62,1017.3,7.09,1.88,116,1.6,0.12266666666666667,7.109999999999999
2020-3-12 9:36,4000,2454.3316883680554,193.61367294608107,0.4402453630632644,24.89417233081032,0.005308159722222222,0.4074394701456972,14.2,61,1017.3,6.85,1.98,123,1.8,0.11266666666666668,7.35
2020-3-12 9:37,4000,2676.1263802083336,216.26533403137577,0.4448535201219081,22.841747491034624,0.005310329861111111,0.3861538075299564,14.2,61,1017.3,6.85,2.13,128,2,0.09766666666666668,7.35
2020-3-12 9:37,4000,2611.6308680555558,207.27707790746686,0.44000684836221304,25.993144211099622,0.005211588541666667,0.3887462299155774,14.2,61,1017.3,6.85,2.18,136,2.13,0.09266666666666665,7.35
2020-3-12 9:37,4100,2884.422816840278,251.89763996288048,0.4508345178005804,28.005289804343295,0.005184461805555556,0.4310843035130719,14.2,61,1017.3,6.85,2.11,140,2.09,0.09966666666666668,7.35
2020-3-12 9:37,4100,2266.7066927083333,180.05962239187258,0.4419591668120823,23.969861892260436,0.005240885416666666,0.3671433993736383,14.4,62,1017.2,7.28,1.99,144,1.99,0.10899999999999999,7.12
2020-3-12 9:38,4100,2530.3283984375,197.988953855345,0.44217643200731604,24.693567481781095,0.005365668402777778,0.39731364038671024,14.4,62,1017.2,7.28,1.84,150,1.84,0.12399999999999999,7.12
2020-3-12 9:38,4100,2425.1182725694443,190.80006617199817,0.4403988599631789,24.339170826908763,0.005189887152777778,0.3939594141476035,14.4,62,1017.2,7.28,1.6,150,1.6,0.148,7.12
2020-3-12 9:38,4100,2522.135177951389,197.45481617504987,0.438501509040569,26.350938596321694,0.005310329861111111,0.4386908190359477,14.4,62,1017.2,7.28,1.34,146,1.34,0.17400000000000002,7.12
2020-3-12 9:38,4100,2440.65240234375,190.382890611771,0.44052803023879444,25.324728816749072,0.005279947916666666,0.4152209712009804,14.4,61,1017.2,7.04,1.12,143,1.12,0.19599999999999998,7.36
2020-3-12 9:39,4100,2307.5465190972222,179.68494015206113,0.4405570472900674,23.941150272348914,0.005361328,0.39837041292211334,14.4,61,1017.2,7.04,1.01,138,0.99,0.207,7.36
2020-3-12 9:39,4100,2309.163120659722,178.87788736672925,0.4416431660431045,23.6543490210201,0.005341797,0.3730309223515795,14.4,61,1017.2,7.04,1,133,0.97,0.208,7.36
2020-3-12 9:39,4100,2467.5622612847224,191.40877494887238,0.44083215127606784,26.23199248018241,0.005339626736111111,0.424462307666122,14.4,61,1017.2,7.04,1.09,131,1.04,0.19899999999999998,7.36
2020-3-12 9:39,4100,2343.6258854166667,178.86871524912522,0.43761360959983964,25.96353988609973,0.0052126736111111115,0.39973988970588237,14.4,60,1017.2,6.8,1.25,129,1.18,0.18300000000000002,7.6000000000000005
2020-3-12 9:40,4100,2494.2583289930553,195.29622504320378,0.44373164112214974,25.78505731175287,0.005353732638888889,0.39517554296023966,14.4,60,1017.2,6.8,1.38,126,1.28,0.17,7.6000000000000005
2020-3-12 9:40,4100,2351.5233051215278,182.22368815084272,0.4439275831221048,24.201576762338135,0.005202907986111111,0.3680831035539216,14.4,60,1017.2,6.8,1.45,125,1.34,0.163,7.6000000000000005
2020-3-12 9:40,4100,2505.2978515625,196.38840477790367,0.44285892716207537,26.124878585690666,0.005343967013888889,0.4041833809912854,14.4,60,1017.2,6.8,1.55,129,1.46,0.153,7.6000000000000005
2020-3-12 9:40,4100,2411.9455685763887,187.57934024213148,0.4426847263796762,25.53487149252001,0.005268012152777778,0.38829473890250543,14.4,61,1017.1,7.04,1.63,131,1.56,0.14500000000000002,7.36
2020-3-12 9:41,4000,2405.0291927083335,187.99396700065995,0.4438235999003727,25.192284078899377,0.005378689236111111,0.39405083656726575,14.4,61,1017.1,7.04,1.6,133,1.55,0.148,7.36
2020-3-12 9:41,4000,2381.290138888889,184.14799696044443,0.4422476142510132,24.922925116288567,0.005262586805555556,0.3814011693218954,14.4,61,1017.1,7.04,1.61,133,1.56,0.147,7.36
2020-3-12 9:41,4000,2439.949331597222,191.79911566826036,0.44589601337924595,24.324886340268478,0.0053211805555555556,0.37146697133714596,14.4,61,1017.1,7.04,1.61,133,1.55,0.147,7.36
2020-3-12 9:41,4000,2371.204136284722,185.37273974592298,0.4442851495526499,24.55001420722299,0.0052430555555555555,0.37683888208061,14.5,61,1017.1,7.13,1.61,128,1.51,0.14566666666666664,7.37
2020-3-12 9:42,4000,2407.8645659722224,188.79479272766005,0.4448788974250822,24.32324751302447,0.005334201388888889,0.3821521309912854,14.5,61,1017.1,7.13,1.58,123,1.43,0.14866666666666664,7.37
2020-3-12 9:42,4000,2429.2628515625,191.15747395831457,0.44391894331670184,25.62473235404974,0.005228949652777778,0.3971000646786493,14.5,61,1017.1,7.13,1.58,116,1.34,0.14866666666666664,7.37
2020-3-12 9:42,4000,2408.431657986111,187.52698350241852,0.44114530179639944,25.45216449170386,0.005307074652777778,0.39744120200163396,14.5,61,1017.1,7.13,1.61,108,1.23,0.14566666666666664,7.37
2020-3-12 9:42,4000,2447.421332465278,190.3051746943898,0.44250909341995326,25.294919462956575,0.005234375,0.39957849945533774,14.5,61,1017.1,7.13,1.61,99,1.06,0.14566666666666664,7.37
2020-3-12 9:43,4000,2315.9470052083334,186.1588997383778,0.4542092715714561,23.3386278925696,0.005272352430555556,0.33374254067946624,14.5,61,1017.1,7.13,1.67,97,1.05,0.13966666666666666,7.37
2020-3-12 9:43,4000,2494.1906293402776,193.54194335440067,0.4427452278423546,22.011265236427224,0.0052582465277777775,0.3282522041802832,14.5,61,1017.1,7.13,1.65,97,1.04,0.14166666666666666,7.37
2020-3-12 9:43,4000,2367.0420963541665,183.73774197048493,0.4442716230486566,23.11482843204762,0.005259331597222222,0.3534130327478214,14.5,61,1017.1,7.13,1.64,96,1.01,0.14266666666666666,7.37
2020-3-12 9:43,4000,2272.6359548611113,181.25936197886534,0.444077475277624,22.553054305421885,0.005206163194444445,0.41227111417483664,14.5,60,1017.2,6.9,1.7,98,1.1,0.13666666666666666,7.6
2020-3-12 9:44,4000,2422.965842013889,193.57811405831328,0.44387672591963484,23.173495632385364,0.005389539930555556,0.43610669849537037,14.5,60,1017.2,6.9,1.83,101,1.25,0.12366666666666665,7.6
2020-3-12 9:44,4100,2239.937504340278,173.75286783839917,0.4421458897928096,23.478720113737594,0.005245225694444445,0.4060966818150871,14.5,60,1017.2,6.9,1.99,106,1.48,0.10766666666666666,7.6
2020-3-12 9:44,4100,2456.372981770833,192.12226881953936,0.4395977104518259,31.142879180395894,0.005389539930555556,0.4008634727328431,14.5,60,1017.2,6.9,2.17,109,1.68,0.08966666666666667,7.6
2020-3-12 9:44,4100,2652.5791536458332,207.90968641441128,0.4425265987207449,24.102032854368385,0.005403645833333333,0.3416658156318083,14.7,61,1017.2,7.32,2.35,113,1.92,0.06899999999999999,7.379999999999999
2020-3-12 9:45,4100,2642.570646701389,208.619851340813,0.442120227144855,23.404363156645843,0.005543619791666667,0.3638876676538671,14.7,61,1017.2,7.32,2.5,114,2.07,0.054000000000000006,7.379999999999999
2020-3-12 9:45,4100,2650.6083984375,205.91828992737192,0.43968588604870323,21.486085930975765,0.006281467013888889,0.3353086618327886,14.7,61,1017.2,7.32,2.58,113,2.11,0.046000000000000006,7.379999999999999
2020-3-12 9:45,4100,2780.7101519097223,218.7055457822058,0.44051486749138896,24.749171022669547,0.006468098958333333,0.34913048917483663,14.7,61,1017.2,7.32,2.6,114,2.16,0.044,7.379999999999999
2020-3-12 9:45,4100,2777.315564236111,215.72704969598163,0.43894731466425213,21.43554047732678,0.006500651041666666,0.3229202963303377,14.7,61,1017.2,7.32,2.53,116,2.15,0.05100000000000003,7.379999999999999
2020-3-12 9:46,4100,2887.415,220.56058485169464,0.43771341992337864,21.304073021747396,0.007949219,0.3435710869417211,14.7,61,1017.2,7.32,2.44,118,2.12,0.06000000000000001,7.379999999999999
2020-3-12 9:46,4100,2875.535603298611,219.81604274111046,0.4371594146832044,21.761311022412468,0.008218315972222221,0.3341527267156863,14.7,61,1017.2,7.32,2.39,120,2.11,0.06499999999999999,7.379999999999999
2020-3-12 9:46,4100,2953.422369791667,224.49042643177242,0.43710006651435446,22.114571880039904,0.00878689236111111,0.3240305095996732,14.7,61,1017.2,7.32,2.26,123,2.05,0.07800000000000001,7.379999999999999
2020-3-12 9:46,4100,2914.8253862847223,218.84984700435004,0.4354171553124319,22.350457453799397,0.00887478298611111,0.33084614140795204,14.7,60,1017.2,7.08,2.14,125,1.97,0.08999999999999998,7.619999999999999
2020-3-12 9:47,4100,2969.415134548611,222.94305226672023,0.4356577193069465,22.194359536889177,0.008847656,0.32237502553104574,14.7,60,1017.2,7.08,2,123,1.82,0.104,7.619999999999999
2020-3-12 9:47,4100,2912.5936024305556,216.6028689235688,0.43312952327282084,21.872985522461615,0.008959418402777778,0.32481715941584965,14.7,60,1017.2,7.08,1.94,123,1.75,0.11,7.619999999999999
2020-3-12 9:47,4100,2981.3634852430555,223.36306206559078,0.43559466545362047,22.240304763779555,0.008905164930555556,0.3186272722630719,14.7,60,1017.2,7.08,1.88,123,1.7,0.116,7.619999999999999
2020-3-12 9:47,4100,2942.9229557291665,219.16941948781772,0.43395702151217996,22.076157748580385,0.008998480902777778,0.32176694835920483,14.7,60,1017.1,7.08,1.79,119,1.56,0.125,7.619999999999999
2020-3-12 9:48,4100,3006.465993923611,225.63137803818975,0.43512185032316797,22.31482945953749,0.009576822916666667,0.3201140259055011,14.7,60,1017.1,7.08,1.79,117,1.53,0.125,7.619999999999999
2020-3-12 9:48,4100,2991.469809027778,220.3633159690386,0.4324130850027481,22.341632869233415,0.009220920138888889,0.31585265607979307,14.7,60,1017.1,7.08,1.7,117,1.46,0.134,7.619999999999999
2020-3-12 9:48,4100,3005.8253038194443,225.83981119761526,0.43473174744890297,22.69037248278656,0.009751519097222222,0.3249663926334423,14.7,60,1017.1,7.08,1.75,115,1.47,0.129,7.619999999999999
2020-3-12 9:48,4100,2939.522126736111,218.82679361880156,0.43184607262672303,22.804786364495083,0.009250217013888888,0.3352898114106754,14.9,62,1017.1,7.75,1.85,112,1.49,0.11633333333333332,7.15
2020-3-12 9:49,4100,2982.7291015625,222.7493739139404,0.43233380171237196,22.84287928007245,0.009746094,0.33441544543164486,14.9,62,1017.1,7.75,1.97,109,1.53,0.10433333333333332,7.15
2020-3-12 9:49,4100,2988.8501692708332,222.511488713394,0.4331335553687383,22.370000154367037,0.009567057291666667,0.3289255344498911,14.9,62,1017.1,7.75,2.06,108,1.58,0.09533333333333331,7.15
2020-3-12 9:49,4100,3032.6697699652777,226.04863389742695,0.433337371066019,22.519896990425615,0.009038628472222223,0.32036087707652505,14.9,62,1017.1,7.75,2.24,107,1.69,0.0773333333333333,7.15
2020-3-12 9:49,4100,2436.1124110243054,183.99275371974903,0.4394794968753741,20.297814300073878,0.005659722222222222,0.41387874455337686,15,61,1017.1,7.61,2.37,108,1.82,0.06299999999999999,7.39
2020-3-12 9:50,4100,3493.9866102430556,280.12478284270543,0.4488988179774727,20.340878447554864,0.006042751736111111,0.30997253710511985,15,61,1017.1,7.61,2.35,108,1.8,0.06499999999999999,7.39
2020-3-12 9:50,4100,2271.1600043402777,167.2595083757931,0.4350621625876048,17.301966451025027,0.006259766,0.3468622259667756,15,61,1017.1,7.61,2.38,104,1.71,0.062000000000000006,7.39
2020-3-12 9:50,4100,2853.324689670139,230.04995299486583,0.44717778542114095,17.724655165932862,0.005359157986111111,0.29757504425381265,15,61,1017.1,7.61,2.37,99,1.55,0.06299999999999999,7.39
2020-3-12 9:50,4100,2106.084631076389,148.77144530209665,0.4270924353154867,19.79733469544055,0.009900173611111111,0.36108660130718956,15.2,62,1017,8.04,2.31,97,1.46,0.06899999999999999,7.16
2020-3-12 9:51,4100,2981.267497829861,237.15451588541657,0.444214661244887,18.431571682016713,0.006459418402777778,0.3400624021309913,15.2,62,1017,8.04,2.2,97,1.38,0.07999999999999997,7.16
2020-3-12 9:51,4100,1503.658732638889,103.74637152730686,0.41472853799065856,19.28301133398653,0.009327256944444445,0.38064753540305013,15.2,62,1017,8.04,2.21,96,1.36,0.079,7.16
2020-3-12 9:51,4100,3538.026469184028,275.59646622568755,0.44079381353690616,18.70921324166712,0.006356336805555555,0.24104589205473856,15.2,62,1017,8.04,2.13,92,1.19,0.08700000000000001,7.16
2020-3-12 9:51,4100,1423.6041623263889,106.93435438011899,0.4251771447528731,19.001739480722314,0.0067708333333333336,0.3945425049360022,15,59,1017,7.12,2.07,91,1.13,0.09300000000000001,7.88
2020-3-12 9:52,4100,2662.3834331597222,205.7698200072289,0.4442325114533213,20.2108603402611,0.007934027777777778,0.4015956435525599,15,59,1017,7.12,2.14,88,1.07,0.08599999999999998,7.88
2020-3-12 9:52,4100,2722.9703233506943,214.5144139105891,0.4442078172769702,18.138067913575853,0.005390625,0.31296173747276684,15,59,1017,7.12,2.22,89,1.14,0.07799999999999999,7.88
2020-3-12 9:52,4100,2686.334058159722,191.35673719584034,0.4375218275827519,20.831495154834375,0.010670572916666666,0.32661092388344226,15,59,1017,7.12,2.22,91,1.21,0.07799999999999999,7.88
2020-3-12 9:52,4100,2622.1600151909724,187.23583333105393,0.43614159182607,20.87405008120457,0.010588107638888889,0.32766138599537037,15,60,1017,7.37,2.2,93,1.26,0.07999999999999997,7.63
2020-3-12 9:53,4100,2617.0646223958333,187.63085503302207,0.43667204231555656,20.78218642584498,0.01042751736111111,0.33120764399509806,15,60,1017,7.37,2.13,97,1.34,0.08700000000000001,7.63
2020-3-12 9:53,4100,2637.181814236111,191.68678276810692,0.43507570924274486,20.829765827963424,0.010054253472222222,0.33663964205473856,15,60,1017,7.37,2,97,1.26,0.09999999999999999,7.63
2020-3-12 9:53,4100,2685.587482638889,195.27187716877782,0.43582763111993217,20.536230692156938,0.009865451388888889,0.3239413381672113,15,60,1017,7.37,1.93,99,1.26,0.107,7.63
2020-3-12 9:53,4100,2647.8389539930554,194.44571831114976,0.436526705043008,19.795125845993834,0.01016818576388889,0.33321269914215684,14.9,59,1017,7.03,1.94,97,1.22,0.10733333333333332,7.87
2020-3-12 9:54,4100,2636.874826388889,193.05298394040233,0.4361515169710286,19.06156303572935,0.01001193576388889,0.32870930351307187,14.9,59,1017,7.03,1.94,95,1.17,0.10733333333333332,7.87
2020-3-12 9:54,4100,2515.891775173611,189.84356011171596,0.43912587478193227,18.566752023001,0.008844401041666667,0.33788442521105666,14.9,59,1017,7.03,1.95,92,1.09,0.10633333333333334,7.87
2020-3-12 9:54,4100,2618.9548697916666,192.15147020296533,0.43559219809539657,19.150373066164942,0.009482422,0.32955661934912855,14.9,59,1017,7.03,2.02,91,1.1,0.09933333333333332,7.87
2020-3-12 9:54,4100,2517.9826736111113,192.6881510303592,0.44005936716597177,19.30600794705637,0.007791883680555556,0.3443057002314815,15,60,1017,7.37,2.1,89,1.08,0.09,7.63
2020-3-12 9:55,4100,2520.6379210069445,191.13797742885546,0.43962087593029237,18.593991815840873,0.008229166666666666,0.31798981736791937,15,60,1017,7.37,2.26,84,0.99,0.07400000000000001,7.63
2020-3-12 9:55,4100,2430.4558506944445,182.43645615045995,0.4384207565178751,17.906429592287523,0.008269314236111111,0.329561465992647,15,60,1017,7.37,2.37,86,1.11,0.06299999999999999,7.63
2020-3-12 9:55,4100,2386.984830729167,184.11503255072228,0.4414297946352371,18.326825214854882,0.006863064236111111,0.34435845162717865,15,60,1017,7.37,2.49,86,1.17,0.050999999999999976,7.63
2020-3-12 9:55,4100,2369.094865451389,185.716489799828,0.44670162523997486,19.423303960323274,0.006199001736111111,0.35131177662037033,15,59,1017,7.12,2.55,87,1.24,0.04500000000000001,7.88
2020-3-12 9:56,4200,2322.6208723958334,181.76888454844166,0.4457430497602176,22.328904218427052,0.005708550347222222,0.34388380395561,15,59,1017,7.12,2.5,90,1.33,0.049999999999999996,7.88
2020-3-12 9:56,4200,2575.6853602430556,206.63554904483743,0.44301876748638824,27.69915775805489,0.005449219,0.3596838533156318,15,59,1017,7.12,2.43,91,1.32,0.05699999999999998,7.88
2020-3-12 9:56,4200,2637.083511284722,212.64163953432504,0.4444352205627448,29.53994292904813,0.005572916666666667,0.3598758425245098,15,59,1017,7.12,2.29,90,1.21,0.071,7.88
2020-3-12 9:56,4300,2784.979505208333,224.3347070148562,0.4442068769292018,32.467696613471574,0.005378689236111111,0.3630233311206427,15,60,1017,7.37,2.18,89,1.12,0.08199999999999998,7.63
2020-3-12 9:57,4300,2815.658784722222,230.22834850056498,0.445305833592756,32.21606679518959,0.005352647569444444,0.37616240723720046,15,60,1017,7.37,2.04,90,1.08,0.096,7.63
2020-3-12 9:57,4300,2842.9333420138887,226.8996419269655,0.44370348691407346,31.468144198667865,0.005261501736111111,0.3611315870098039,15,60,1017,7.37,1.89,94,1.11,0.11100000000000002,7.63
2020-3-12 9:57,4300,2806.7444791666667,226.0171614332363,0.44362231133918645,29.866921105705813,0.005289713541666667,0.374824525122549,15,60,1017,7.37,1.66,97,1.05,0.134,7.63
2020-3-12 9:57,4300,2874.5106944444447,232.1686165364572,0.44504541031366784,31.827840054456313,0.005319010416666666,0.35870186546840954,15.1,59,1017,7.22,1.43,99,0.94,0.157,7.88
2020-3-12 9:58,4300,2762.696753472222,222.98391917044563,0.4460301214184845,30.58708314360416,0.005482855902777778,0.37434168198529416,15.1,59,1017,7.22,1.36,100,0.91,0.16399999999999998,7.88
2020-3-12 9:58,4300,2860.9958159722223,229.26696397531302,0.4450358584471326,31.446928792218216,0.005365668402777778,0.3614400318287037,15.1,59,1017,7.22,1.37,101,0.94,0.163,7.88
2020-3-12 9:58,4300,2815.2979383680554,226.98382593733706,0.44555625991117553,30.422788152489943,0.005412326388888889,0.3600638871868192,15.1,59,1017,7.22,1.43,103,1.01,0.157,7.88
2020-3-12 9:58,4300,2656.6574696180555,216.95807508559997,0.4464343432720704,26.81129532084509,0.005434027777777778,0.36932920581427015,15.2,59,1017,7.31,1.43,107,1.08,0.157,7.89
2020-3-12 9:59,4300,2661.1613368055555,213.62406225302902,0.44598436693009536,24.452194521552556,0.005452473958333333,0.3910322499659586,15.2,59,1017,7.31,1.4,109,1.09,0.16,7.89
2020-3-12 9:59,4300,2665.4754947916667,213.0868499423262,0.44377827420646626,26.148502862520626,0.005351563,0.38600962945942263,15.2,59,1017,7.31,1.41,105,1.03,0.159,7.89
2020-3-12 9:59,4300,2631.5891015625,213.83500642458608,0.445999785204918,24.932759575588175,0.005402560763888889,0.40175765505855116,15.2,59,1017,7.31,1.52,103,1.08,0.148,7.89
2020-3-12 9:59,4300,2512.890182291667,200.41099606582733,0.44174581288242853,25.294851624687514,0.005323350694444445,0.41518219805283224,15.5,59,1017.1,7.6,1.72,104,1.23,0.128,7.9
2020-3-12 10:00,4300,2457.47486328125,198.45004724561431,0.44446515517169116,23.568438997413576,0.005419922,0.4337829946214597,15.5,59,1017.1,7.6,1.78,107,1.34,0.122,7.9
2020-3-12 10:00,4300,2326.261323784722,184.2518250868009,0.44490820273886933,23.262117018019364,0.005260416666666667,0.40826382931644883,15.5,59,1017.1,7.6,1.93,110,1.52,0.107,7.9
2020-3-12 10:00,4300,2188.1894813368053,172.4873521835846,0.4426098500105514,22.733585772454003,0.005404730902777778,0.40808602685866013,15.5,59,1017.1,7.6,2.01,113,1.65,0.09900000000000002,7.9
2020-3-12 10:00,4400,2307.1254036458336,181.0310232203436,0.44174523716362063,24.826119968455394,0.005328776041666667,0.3937958069512527,15.6,58,1017.1,7.44,2.16,118,1.87,0.08399999999999999,8.16
2020-3-12 10:01,4500,2994.5872352430556,235.47525282084027,0.43945960624455227,30.239645851829277,0.005452473958333333,0.3698293802764161,15.6,58,1017.1,7.44,2.3,123,2.09,0.07000000000000002,8.16
2020-3-12 10:01,4600,3002.198168402778,233.4881336788555,0.4414963854173455,21.334625480242487,0.005485026041666666,0.3031457141884532,15.6,58,1017.1,7.44,2.47,129,2.33,0.052999999999999985,8.16
2020-3-12 10:01,4600,2785.6673046875,221.34213867125217,0.44017856837485936,27.745187544122643,0.005372178819444445,0.4229570993327887,15.6,58,1017.1,7.44,2.61,132,2.51,0.03900000000000001,8.16
2020-3-12 10:01,4700,2846.883224826389,225.74095052083334,0.4399867565145577,27.744738950301972,0.0052549913194444445,0.40166565819035943,15.6,57,1017,7.19,2.62,133,2.54,0.037999999999999985,8.41
2020-3-12 10:02,4600,2819.9615321180554,220.77545134179383,0.4411471048986227,26.40634134457262,0.005335286458333333,0.403008395458878,15.6,57,1017,7.19,2.67,135,2.6,0.03300000000000001,8.41
2020-3-12 10:02,4600,2900.4925260416667,228.99086914028476,0.44015654084716954,27.44612889892286,0.005253906,0.3876352124183007,15.6,57,1017,7.19,2.54,138,2.5,0.04599999999999999,8.41
2020-3-12 10:02,4600,2899.7848307291665,228.8547352355203,0.4418153980057166,24.998234857572562,0.005298394097222222,0.37619656777641614,15.6,57,1017,7.19,2.43,141,2.41,0.05699999999999998,8.41
2020-3-12 10:02,4600,2793.152209201389,221.337998021433,0.4402526674516911,27.433697908678912,0.005233289930555556,0.41045969073393246,15.6,56,1017,6.93,2.26,141,2.25,0.07400000000000001,8.67
2020-3-12 10:03,4600,2804.8746354166665,223.0891178369298,0.44099401730756727,27.114966017362384,0.005248480902777778,0.4121707984409041,15.6,56,1017,6.93,2.11,144,2.1,0.08900000000000001,8.67
2020-3-12 10:03,4500,2683.252868923611,213.23841796874524,0.4422241121485938,25.92495389981689,0.005218098958333334,0.4074480783632898,15.6,56,1017,6.93,1.97,148,1.97,0.103,8.67
2020-3-12 10:03,4500,2720.243628472222,216.01031683514913,0.4415353981610536,25.212087953305414,0.005232204861111111,0.38867252178649236,15.6,56,1017,6.93,1.83,151,1.83,0.11699999999999998,8.67
2020-3-12 10:03,4500,2661.4688932291665,211.81124023434552,0.44402034758743425,24.315466789535883,0.005208333333333333,0.3849999063861656,15.5,56,1017,6.84,1.78,153,1.77,0.122,8.66
2020-3-12 10:04,4500,2817.557604166667,222.53392357464068,0.44258287443609085,25.78052500344166,0.005355902777777778,0.3998795232502724,15.5,56,1017,6.84,1.66,154,1.65,0.134,8.66
2020-3-12 10:04,4500,2797.973598090278,217.37953667531772,0.44024730591452566,25.933417470474975,0.0052463107638888885,0.3872648250272331,15.5,56,1017,6.84,1.57,156,1.55,0.143,8.66
2020-3-12 10:04,4500,2709.101150173611,213.72139864984092,0.44283556167776594,25.134182123629877,0.005340711805555555,0.39335141356889974,15.5,56,1017,6.84,1.59,156,1.57,0.141,8.66
2020-3-12 10:04,4500,2595.6667664930555,205.8981087239477,0.44395497777201365,24.82690913792837,0.005347222222222222,0.39980508748638344,15.6,57,1017,7.19,1.59,158,1.57,0.141,8.41
2020-3-12 10:05,4500,2744.6388628472223,215.11120659699142,0.4409723923249507,26.574135425084364,0.005402560763888889,0.40594752519063176,15.6,57,1017,7.19,1.65,153,1.64,0.135,8.41
2020-3-12 10:05,4500,2648.081019965278,207.5037163610564,0.44152219720772806,25.66443008181804,0.005233289930555556,0.39702260774101306,15.6,57,1017,7.19,1.69,150,1.68,0.131,8.41
2020-3-12 10:05,4500,2708.5250737847223,214.46753579710847,0.44218843380345757,25.678882956306687,0.005365668402777778,0.40572489021650326,15.6,57,1017,7.19,1.61,149,1.61,0.13899999999999998,8.41
2020-3-12 10:05,4500,2621.817925347222,204.4911306114621,0.441279673610598,24.773418532344284,0.005300564236111111,0.3997076397399238,15.8,57,1017,7.38,1.52,150,1.52,0.148,8.420000000000002
2020-3-12 10:06,4500,2801.3404947916665,221.33623371661034,0.4436224525429119,25.731101208677686,0.0054210069444444444,0.3871817810457516,15.8,57,1017,7.38,1.49,149,1.49,0.151,8.420000000000002
2020-3-12 10:06,4500,2722.4498046875,214.0927105002887,0.4428302054368372,25.345989016640516,0.005326605902777778,0.38376446333741826,15.8,57,1017,7.38,1.54,148,1.54,0.146,8.420000000000002
2020-3-12 10:06,4600,2801.912344,223.9223632809485,0.4442563296794476,25.70355187101997,0.005429688,0.3791725515727124,15.8,57,1017,7.38,1.56,148,1.56,0.144,8.420000000000002
2020-3-12 10:06,4600,2729.5763845486113,215.9721050129454,0.44309012937231507,25.00923068987262,0.005315755208333333,0.38461652369281046,16,58,1017.1,7.82,1.63,148,1.63,0.137,8.18
2020-3-12 10:07,4700,2726.3312630208334,215.99483723788327,0.4440968914710094,24.42015027308129,0.005361328,0.3837010399645969,16,58,1017.1,7.82,1.68,148,1.68,0.132,8.18
2020-3-12 10:07,4800,2800.9846267361113,222.83543835851876,0.441796195184359,27.748571668765237,0.005325520833333333,0.3889446316721133,16,58,1017.1,7.82,1.71,151,1.71,0.129,8.18
2020-3-12 10:07,4900,2969.549331597222,236.54355901353162,0.4410425147964049,28.75083588245355,0.005356987847222223,0.3655812908496732,16,58,1017.1,7.82,1.75,153,1.74,0.125,8.18
2020-3-12 10:07,5000,2861.038480902778,230.29985350313405,0.4424523829665323,27.50264054624802,0.0052549913194444445,0.363826273999183,16.3,57,1017.1,7.85,1.71,152,1.71,0.129,8.450000000000001
2020-3-12 10:08,5000,2854.954184027778,228.55560216784897,0.4448379847989534,26.608495544659164,0.005434027777777778,0.3757818372140523,16.3,57,1017.1,7.85,1.67,153,1.66,0.133,8.450000000000001
2020-3-12 10:08,5000,2651.607595486111,210.60328992602967,0.44467303169414335,26.37841485247693,0.005361328,0.3914481677219499,16.3,57,1017.1,7.85,1.58,153,1.57,0.142,8.450000000000001
2020-3-12 10:08,5000,2689.8007118055557,210.32071055491772,0.44242949169783174,27.919062671701468,0.005476345486111111,0.4115181525735294,16.3,57,1017.1,7.85,1.46,154,1.45,0.154,8.450000000000001
2020-3-12 10:08,5000,2476.489353298611,196.2404131886694,0.4446774029808194,26.77241494097943,0.005356987847222223,0.39880502791394334,16.5,55,1017.1,7.52,1.31,158,1.3,0.169,8.98
2020-3-12 10:09,5000,2489.5389713541667,198.89863377473506,0.44572670735771963,27.31189786301938,0.005418836805555555,0.40458760552832246,16.5,55,1017.1,7.52,1.22,160,1.19,0.17800000000000002,8.98
2020-3-12 10:09,5000,2487.375954861111,196.6103580591837,0.44484954262385606,25.933623576878595,0.005455729166666667,0.3973613153594771,16.5,55,1017.1,7.52,1.14,159,1.12,0.186,8.98
2020-3-12 10:09,5000,2576.4167078993055,205.51284722116256,0.4436528615747051,25.898752609835324,0.005410156,0.43239242919389975,16.5,55,1017.1,7.52,1.22,159,1.2,0.17800000000000002,8.98
2020-3-12 10:09,5000,2549.9689713541666,199.23186957413347,0.44440588608424464,26.317521791682044,0.0054448784722222225,0.41387914879493465,16.6,54,1017.1,7.34,1.47,159,1.45,0.153,9.260000000000002
2020-3-12 10:10,5000,2460.5869053819442,193.31473398886666,0.4444784665101709,25.514649694605477,0.005320095486111111,0.4054118881059368,16.6,54,1017.1,7.34,1.67,160,1.63,0.133,9.260000000000002
2020-3-12 10:10,5000,2475.3484157986113,193.82689778640074,0.44521789718061255,25.373035442926394,0.005342881944444444,0.40210575810185184,16.6,54,1017.1,7.34,1.76,157,1.74,0.124,9.260000000000002
2020-3-12 10:10,5000,2502.192973090278,197.25238497751022,0.44270370820338467,26.712883702565367,0.005384114583333334,0.41601164215686276,16.6,54,1017.1,7.34,1.88,155,1.86,0.112,9.260000000000002
2020-3-12 10:10,5000,2507.515564236111,200.03445958048505,0.44373774381407943,27.842146241876872,0.005371094,0.3841980570874183,16.7,53,1017.1,7.17,2.12,150,2.12,0.08799999999999998,9.53
2020-3-12 10:11,4900,2512.3563541666667,198.426411647786,0.44260638549384984,27.289232718234114,0.005429688,0.3986110643041939,16.7,53,1017.1,7.17,2.29,146,2.29,0.071,9.53
2020-3-12 10:11,4900,2489.774479166667,194.3934179687312,0.44137017263717204,27.22584742398677,0.005453559027777778,0.39173215379901966,16.7,53,1017.1,7.17,2.35,144,2.35,0.06499999999999999,9.53
2020-3-12 10:11,4900,2487.2724913194443,195.26531900889086,0.44306779239350735,26.42575542472401,0.005366753472222222,0.38607584422657953,16.7,53,1017.1,7.17,2.3,142,2.28,0.07000000000000002,9.53
2020-3-12 10:11,4900,2462.3604557291665,191.97241861964915,0.44186221343017695,26.66583251300781,0.005423177083333334,0.38901110600490196,16.5,52,1017.1,6.7,2.24,143,2.23,0.07599999999999997,9.8
2020-3-12 10:12,4900,2426.7737890625,191.10156141430767,0.44388510674713966,26.519901000314842,0.005392795138888889,0.3836684453295207,16.5,52,1017.1,6.7,2.26,144,2.25,0.07400000000000001,9.8
2020-3-12 10:12,4900,2806.3025824652777,221.1893120512033,0.438932063041495,29.022908996401064,0.005358072916666666,0.3755686614923747,16.5,52,1017.1,6.7,2.38,147,2.38,0.062000000000000006,9.8
2020-3-12 10:12,5000,2807.162443576389,222.34890167552334,0.43814058747493306,28.28535016219579,0.005407986111111111,0.3716882361451525,16.5,52,1017.1,6.7,2.44,149,2.44,0.056,9.8
2020-3-12 10:12,5000,2724.8606727430556,215.34254988305364,0.4406664448722369,25.86943753233887,0.005423177083333334,0.39705430453431373,16.7,56,1017.1,7.97,2.37,151,2.36,0.06299999999999999,8.73
2020-3-12 10:13,5000,2663.8859592013887,208.5170984941647,0.4407325774666228,26.151887681502927,0.005287543402777778,0.407183900122549,16.7,56,1017.1,7.97,2.36,154,2.34,0.06400000000000002,8.73
2020-3-12 10:13,5000,2627.251154513889,205.0038090323449,0.44059522056106887,26.38848153354044,0.005330946180555555,0.4081229873025599,16.7,56,1017.1,7.97,2.45,156,2.43,0.05499999999999998,8.73
2020-3-12 10:13,5000,2674.8562934027777,210.30871198973375,0.440302806258907,26.840132284598532,0.005310329861111111,0.40388181678921564,16.7,56,1017.1,7.97,2.55,159,2.51,0.04500000000000001,8.73
2020-3-12 10:13,5000,2724.9134765625,213.94356547150323,0.4399224570833981,27.415764435969614,0.005308159722222222,0.39819233813316995,17,55,1017.1,7.99,2.59,159,2.54,0.041000000000000016,9.01
2020-3-12 10:14,5000,2771.413064236111,218.22739254910397,0.44088075758122847,27.674217895296824,0.005397135416666666,0.3879825112336601,17,55,1017.1,7.99,2.58,158,2.54,0.041999999999999996,9.01
2020-3-12 10:14,5000,2800.185391,219.7759277313127,0.43906337212442736,27.86658314586666,0.005365668402777778,0.3833049045138889,17,55,1017.1,7.99,2.55,158,2.52,0.04500000000000001,9.01
2020-3-12 10:14,5000,2814.2229123263887,221.758056624508,0.4402672244857709,27.758956243792465,0.005394965277777778,0.3796813299972767,17,55,1017.1,7.99,2.56,161,2.49,0.04399999999999999,9.01
2020-3-12 10:14,5000,2793.899084201389,222.27242295987048,0.440350535493686,27.53619806443598,0.005371094,0.38002829265386706,16.9,52,1017.2,7.08,2.58,163,2.49,0.041999999999999996,9.819999999999999
2020-3-12 10:15,4900,2770.977638888889,219.11145941696049,0.4410595193170339,27.39240943222638,0.005366753472222222,0.37935601341230935,16.9,52,1017.2,7.08,2.59,164,2.48,0.041000000000000016,9.819999999999999
2020-3-12 10:15,4900,2772.8606510416666,219.45385633678666,0.44097543689855356,27.530753919113707,0.0053244357638888885,0.3797997217116013,16.9,52,1017.2,7.08,2.51,166,2.38,0.04900000000000002,9.819999999999999
2020-3-12 10:15,4900,2795.9910243055556,220.51356987639534,0.44020080592789795,27.612411927303526,0.005377604166666667,0.3794526526756536,16.9,52,1017.2,7.08,2.44,166,2.32,0.056,9.819999999999999
2020-3-12 10:15,4900,2765.320425347222,218.55051974826276,0.4411365612915141,27.04732383001434,0.005412326388888889,0.3840589299087691,16.9,53,1017.2,7.35,2.37,165,2.27,0.06299999999999999,9.549999999999999
2020-3-12 10:16,4900,2768.3177734375,220.4100195297241,0.4432004341987803,27.072980616799512,0.005362413194444445,0.38465940733932463,16.9,53,1017.2,7.35,2.23,167,2.11,0.077,9.549999999999999
2020-3-12 10:16,4900,2717.1661458333333,214.0165342830659,0.4416938134609969,26.361105720161245,0.005416666666666667,0.38534169475081703,16.9,53,1017.2,7.35,2.04,163,1.97,0.096,9.549999999999999
2020-3-12 10:16,4900,2727.686449652778,215.26822699334417,0.44122333224305865,26.741125003499363,0.005383029513888889,0.39203497753267974,16.9,53,1017.2,7.35,1.94,158,1.92,0.106,9.549999999999999
2020-3-12 10:16,4900,2751.0085633680555,215.5690646701342,0.4410527885730031,26.980694250233224,0.005374348958333333,0.3974708946078432,16.9,53,1017.1,7.35,1.96,152,1.96,0.104,9.549999999999999
2020-3-12 10:17,4900,2731.5552039930553,214.80259982320516,0.4399702931238148,27.568045266190527,0.005326605902777778,0.397372289453976,16.9,53,1017.1,7.35,2.05,144,2.05,0.09500000000000001,9.549999999999999
2020-3-12 10:17,5000,2719.9826953125,212.1603786892256,0.4399795132397567,27.01300855902141,0.005295138888888889,0.3836615944989107,16.9,53,1017.1,7.35,2.13,137,2.09,0.08700000000000001,9.549999999999999
2020-3-12 10:17,5000,2705.633438,213.763792317613,0.44066959010516554,26.742243515739254,0.005288628472222222,0.38271771599264703,16.9,53,1017.1,7.35,2.2,131,2.1,0.07999999999999997,9.549999999999999
2020-3-12 10:17,4900,2676.258763020833,209.26390299069334,0.44034782000370615,26.146810113752217,0.005356987847222223,0.38737704673883444,17.1,54,1017.1,7.81,2.36,126,2.19,0.06400000000000002,9.290000000000003
2020-3-12 10:18,4900,2703.1673828125,211.92258028969482,0.44143251854390303,26.17859501532569,0.005371094,0.3924523760893246,17.1,54,1017.1,7.81,2.55,121,2.27,0.04500000000000001,9.290000000000003
2020-3-12 10:18,4900,2708.3560546875,211.36168726023803,0.4393609834931767,26.614982704710823,0.005351563,0.40376912700844225,17.1,54,1017.1,7.81,2.71,118,2.34,0.029,9.290000000000003
2020-3-12 10:18,4900,2722.5039583333332,213.01178493188817,0.4406097509088101,26.77074485752314,0.005337456597222222,0.4021790492238562,17.1,54,1017.1,7.81,2.82,116,2.39,0.018000000000000016,9.290000000000003
2020-3-12 10:18,4900,2693.131822916667,212.83132161446562,0.4422163613187166,26.146540310497766,0.005366753472222222,0.39982144437636163,17.1,54,1017.1,7.81,2.94,116,2.49,0.006000000000000005,9.290000000000003
2020-3-12 10:19,4900,2768.1091145833334,218.09063042500696,0.4408042004497665,27.420812561771278,0.005403645833333333,0.40018821912445535,17.1,54,1017.1,7.81,2.95,117,2.53,0.004999999999999982,9.290000000000003
2020-3-12 10:19,4900,2725.7686328125,213.04466688325553,0.4395695228832419,26.65611811999842,0.005399305555555556,0.3905950265522876,17.1,54,1017.1,7.81,2.96,119,2.59,0.0040000000000000036,9.290000000000003
2020-3-12 10:19,4900,2744.2088020833335,214.77015190915236,0.439088721309532,26.95067955463078,0.005351563,0.38902802032271244,17.1,54,1017.1,7.81,2.93,120,2.59,0.006999999999999984,9.290000000000003
2020-3-12 10:19,4800,2740.7442317708333,214.32794379337327,0.4398714105790172,26.81254154679627,0.005346137152777777,0.3907235413262527,17.1,53,1017,7.54,2.72,122,2.45,0.02799999999999998,9.560000000000002
2020-3-12 10:20,4800,2741.8459635416666,216.56272677753472,0.44131055768786454,27.15599493649737,0.005348307291666667,0.3966360166462418,17.1,53,1017,7.54,2.56,122,2.3,0.04399999999999999,9.560000000000002
2020-3-12 10:20,4800,2717.305217013889,211.95490993485512,0.44042466601022445,26.970305630226846,0.005359157986111111,0.3992998451116558,17.1,53,1017,7.54,2.43,124,2.22,0.05699999999999998,9.560000000000002
2020-3-12 10:20,4800,2714.8929557291667,211.03343966501026,0.4390323328849614,27.18483220839836,0.005397135416666666,0.40603447967728756,17.1,53,1017,7.54,2.46,126,2.28,0.054000000000000006,9.560000000000002
2020-3-12 10:20,4800,2747.6419835069446,216.48221354149712,0.44097758243687246,27.465753646406554,0.005343967013888889,0.4051129238153595,17,53,1017,7.45,2.4,126,2.22,0.06000000000000001,9.55
2020-3-12 10:21,4800,2771.158281,216.72224066777986,0.43960640407183543,27.28055004446513,0.005431857638888889,0.40382433789488015,17,53,1017,7.45,2.37,127,2.21,0.06299999999999999,9.55
2020-3-12 10:21,4800,2731.262200520833,214.8743576371888,0.440306193490279,26.961803425792272,0.005361328,0.4026287402982026,17,53,1017,7.45,2.34,127,2.18,0.06600000000000002,9.55
2020-3-12 10:21,4800,2728.762243923611,212.37861435569363,0.43859368914156177,26.631841300192136,0.005352647569444444,0.4023082235498366,17,53,1017,7.45,2.34,125,2.15,0.06600000000000002,9.55
2020-3-12 10:21,4800,2745.611896701389,216.78543836798025,0.44020869547693225,27.240140207800778,0.0054058159722222224,0.40233039300789764,17,53,1017,7.45,2.44,122,2.2,0.056,9.55
2020-3-12 10:22,4700,2751.5215538194443,217.19128036920992,0.44075239041062436,27.197156967407555,0.005340711805555555,0.40327985004765793,17,53,1017,7.45,2.57,120,2.27,0.04300000000000002,9.55
2020-3-12 10:22,4700,2742.397465277778,217.28818033811672,0.44080873478223376,27.41340139939054,0.005363498263888889,0.4006455822780501,17,53,1017,7.45,2.72,117,2.33,0.02799999999999998,9.55
2020-3-12 10:22,4700,2735.861323784722,216.02618164036005,0.440150707209748,27.110224991625614,0.005401475694444445,0.4024218792551743,17,53,1017,7.45,2.68,116,2.27,0.03199999999999999,9.55
2020-3-12 10:22,4700,2740.261245659722,216.74858723957863,0.4406829739202404,27.23010743114933,0.005363498263888889,0.4041609477124183,17.1,54,1017,7.81,2.59,114,2.15,0.041000000000000016,9.290000000000003
2020-3-12 10:23,4800,2724.9592100694445,212.47650933145474,0.44034143180738766,26.84124720603101,0.005347222222222222,0.3926788109340959,17.1,54,1017,7.81,2.48,111,1.98,0.052,9.290000000000003
2020-3-12 10:23,4800,2699.7501041666665,210.21202582159043,0.44069593178983496,26.766781140973706,0.005262586805555556,0.39501559095860567,17.1,54,1017,7.81,2.42,109,1.88,0.058,9.290000000000003
2020-3-12 10:23,4800,2722.825134548611,214.54225910881422,0.44004271804884854,27.182442864317427,0.005315755208333333,0.40114670138888886,17.1,54,1017,7.81,2.32,109,1.8,0.068,9.290000000000003
2020-3-12 10:23,4800,2723.7121180555555,213.96400065103106,0.4409908549671325,27.381660496512705,0.005353732638888889,0.4033864506740196,17.1,54,1017,7.81,2.26,110,1.78,0.07400000000000001,9.290000000000003
2020-3-12 10:24,4800,2782.460842013889,219.73056422931066,0.4412058884052642,27.704509217014916,0.005434027777777778,0.4027308602260348,17.1,54,1017,7.81,2.23,107,1.68,0.077,9.290000000000003
2020-3-12 10:24,4800,2767.2561154513887,217.93333658851228,0.44059738304343987,27.518364556764237,0.005349392361111111,0.397471592456427,17.1,54,1017,7.81,2.16,106,1.6,0.08399999999999999,9.290000000000003
2020-3-12 10:24,4800,2763.426657986111,217.69475583978226,0.44033424540059124,27.32380578958963,0.005384114583333334,0.3937357664419935,17.1,54,1017,7.81,2.06,106,1.53,0.09399999999999999,9.290000000000003
2020-3-12 10:24,4800,2744.8401649305556,217.83819227159296,0.4411406794807867,26.68906904982594,0.005380859,0.3880898607706971,17.2,53,1017,7.63,1.95,105,1.43,0.10500000000000001,9.57
2020-3-12 10:25,4700,2748.6679774305558,215.5847851537587,0.44016832150480223,26.86918869408023,0.005341797,0.3894704350490196,17.2,53,1017,7.63,1.95,103,1.38,0.10500000000000001,9.57
2020-3-12 10:25,4700,2707.683498263889,211.41582356728338,0.4394447442947896,26.79355187890809,0.005327690972222222,0.39097883050789756,17.2,53,1017,7.63,1.96,100,1.31,0.104,9.57
2020-3-12 10:25,4700,2769.094688,218.18926866251624,0.44053768061776655,27.470750320077354,0.0053244357638888885,0.40383553751361656,17.2,53,1017,7.63,2.04,99,1.34,0.096,9.57
2020-3-12 10:25,4800,2726.995954861111,217.26167426087068,0.4415736783337404,27.401340533765058,0.005416666666666667,0.401106562329793,17.7,56,1016.9,8.91,2.05,98,1.32,0.09500000000000001,8.79
2020-3-12 10:26,4800,2775.2927170138887,219.30043402720796,0.4420730682711542,27.516889848348395,0.005388454861111111,0.40337565955201526,17.7,56,1016.9,8.91,2.01,101,1.37,0.09900000000000002,8.79
2020-3-12 10:26,4900,2712.797886284722,211.93049262150893,0.440214538522672,27.533629411587576,0.005363498263888889,0.40221015880310457,17.7,56,1016.9,8.91,1.98,102,1.38,0.10200000000000001,8.79
2020-3-12 10:26,5000,2760.2890711805558,215.6410177939333,0.4405312468584882,27.634652566948894,0.005327690972222222,0.40081181917211334,17.7,56,1016.9,8.91,2.04,102,1.42,0.096,8.79
2020-3-12 10:26,5000,2710.081167534722,215.99073675621761,0.4438588680942644,26.686584913327764,0.005404730902777778,0.39477868412990197,17.7,51,1016.9,7.54,2.13,101,1.45,0.08700000000000001,10.16
2020-3-12 10:27,5000,2742.1570616319445,216.15473740448655,0.4408392692707868,27.708901116549576,0.005328776041666667,0.40326107196350763,17.7,51,1016.9,7.54,2.18,101,1.49,0.08199999999999998,10.16
2020-3-12 10:27,5000,2679.9006640625,210.61065212600022,0.4405356853577632,27.094844330766037,0.005244141,0.39611326848447714,17.7,51,1016.9,7.54,2.23,101,1.52,0.077,10.16
2020-3-12 10:27,4900,2691.0329079861112,208.98060004196043,0.4385227677012931,27.057873297293128,0.005234375,0.3976098600898693,17.7,51,1016.9,7.54,2.2,100,1.47,0.07999999999999997,10.16
2020-3-12 10:27,5000,2672.2652083333332,208.85370117113916,0.4393044558312746,27.01083616070465,0.005307074652777778,0.3954396148216231,17.7,52,1016.9,7.82,2.27,101,1.55,0.073,9.879999999999999
2020-3-12 10:28,5000,2690.0217317708334,212.44593418832343,0.4419550344532296,26.445969066868205,0.0053125,0.3918286228553921,17.7,52,1016.9,7.82,2.36,102,1.64,0.06400000000000002,9.879999999999999
2020-3-12 10:28,5000,2705.472009548611,214.32821397561904,0.44171588423029945,27.16879104478921,0.005308159722222222,0.3993426479098584,17.7,52,1016.9,7.82,2.41,105,1.76,0.05899999999999998,9.879999999999999
2020-3-12 10:28,5000,2732.2622569444443,214.11259437419636,0.44070159640557444,27.095523225250155,0.005323350694444445,0.39918637663398693,17.7,52,1016.9,7.82,2.37,108,1.81,0.06299999999999999,9.879999999999999
2020-3-12 10:28,5000,2720.6788585069444,214.24838324170523,0.44101223224556213,27.36484677086408,0.005350477430555556,0.39713429755582785,17.8,52,1016.9,7.92,2.33,112,1.89,0.06699999999999999,9.88
2020-3-12 10:29,5000,2686.005338541667,211.32473189619907,0.44168870250234676,26.730633746608166,0.005370008680555555,0.3999891790917756,17.8,52,1016.9,7.92,2.25,116,1.91,0.075,9.88
2020-3-12 10:29,5000,2673.729027777778,210.9323003471798,0.4405980337578725,27.341838577266245,0.0052191840277777775,0.39939997787309367,17.8,52,1016.9,7.92,2.26,119,1.98,0.07400000000000001,9.88
2020-3-12 10:29,5000,2725.313472222222,214.72330945427038,0.44096599790286617,27.084946685078233,0.005358072916666666,0.3946476417824074,17.8,52,1016.9,7.92,2.4,123,2.18,0.06000000000000001,9.88
2020-3-12 10:29,5000,2666.636641,208.5167187262594,0.44037435679237513,26.724773820452665,0.005233289930555556,0.3832372259667756,17.8,51,1016.9,7.63,2.38,126,2.21,0.062000000000000006,10.170000000000002
2020-3-12 10:30,5000,2700.718355034722,214.6007617155664,0.4421360914080676,26.767683351369584,0.005313585069444444,0.38675029786220044,17.8,51,1016.9,7.63,2.42,128,2.28,0.058,10.170000000000002
2020-3-12 10:30,5000,2664.614314236111,208.25504665795648,0.4412529188738254,26.96495628167428,0.005238715277777778,0.3845460707720588,17.8,51,1016.9,7.63,2.57,129,2.43,0.04300000000000002,10.170000000000002
2020-3-12 10:30,5000,2695.611822916667,213.45302948596625,0.4406000615119886,27.18894005387869,0.005317925347222223,0.39677141203703703,17.8,51,1016.9,7.63,2.62,130,2.49,0.037999999999999985,10.170000000000002
2020-3-12 10:30,5000,2669.5709244791665,211.56077148431737,0.44247868783771105,26.88343365410466,0.0052159288194444445,0.38527883731617646,17.9,51,1016.9,7.73,2.79,129,2.64,0.020999999999999998,10.169999999999998
2020-3-12 10:31,5000,2729.253051215278,212.9733170567724,0.4409531620705006,27.02644905665091,0.005326605902777778,0.3890836397058824,17.9,51,1016.9,7.73,2.95,131,2.82,0.004999999999999982,10.169999999999998
2020-3-12 10:31,5000,2704.6573567708333,212.98518554653464,0.44024601745284486,27.46477624489649,0.005259331597222222,0.39168345332924837,17.9,51,1016.9,7.73,3.06,136,2.99,0,10.169999999999998
2020-3-12 10:31,5000,2710.4656770833335,213.6024088507334,0.44048692531401384,26.91344924783644,0.005289713541666667,0.39016206682325705,17.9,51,1016.9,7.73,3.11,139,3.08,0,10.169999999999998
2020-3-12 10:31,5000,2715.2181640625,214.31446940041886,0.4409193803453879,27.176033418571194,0.005380859,0.3943304483251634,18,49,1016.8,7.24,3.22,142,3.2,0,10.76
2020-3-12 10:32,5000,2728.673498263889,214.5116590673553,0.4417227906972189,26.88099872134788,0.005365668402777778,0.38955852566721133,18,49,1016.8,7.24,3.27,146,3.27,0,10.76
2020-3-12 10:32,5000,2682.566306423611,210.43358506852132,0.4400883589913767,27.13199145324328,0.005304904513888889,0.3944201516544118,18,49,1016.8,7.24,3.19,151,3.19,0,10.76
2020-3-12 10:32,5000,2715.4069791666666,213.0256043664426,0.4406659358470351,26.93466638094088,0.005303819444444444,0.3904525931032135,18,49,1016.8,7.24,3.2,153,3.19,0,10.76
2020-3-12 10:32,5000,2726.5420833333333,214.7790646701389,0.4411293323708832,27.137957911623293,0.005343967013888889,0.3907132140182462,18.1,48,1016.8,7.03,3.12,155,3.1,0,11.07
2020-3-12 10:33,5000,2678.1958203125,210.02639755249024,0.44209812860181963,26.63481712151129,0.005332031,0.3880636488970588,18.1,48,1016.8,7.03,3,155,2.98,0,11.07
2020-3-12 10:33,5000,2667.2952387152777,207.8817317689496,0.44079002810304857,26.780805228541137,0.005296223958333333,0.389408203,18.1,48,1016.8,7.03,2.88,151,2.87,0.01200000000000001,11.07
2020-3-12 10:33,5000,2652.860941840278,208.38914049987324,0.4407307706100387,26.510626308246593,0.005334201388888889,0.38909513718681915,18.1,48,1016.8,7.03,2.71,150,2.7,0.029,11.07
2020-3-12 10:33,5000,2678.515217013889,209.45159179404808,0.4403770676994903,26.88318842749133,0.005338541666666667,0.39223023897058823,17.9,47,1016.8,6.54,2.58,149,2.58,0.041999999999999996,11.36
2020-3-12 10:34,5000,2723.017638888889,214.40908961375555,0.44121586436903903,27.357671942082384,0.005383029513888889,0.39718878931781043,17.9,47,1016.8,6.54,2.57,149,2.57,0.04300000000000002,11.36
2020-3-12 10:34,6000,2722.272534722222,212.39167100506066,0.4402261587730916,27.328108179935604,0.005353732638888889,0.3984359681372549,17.9,47,1016.8,6.54,2.64,148,2.64,0.03599999999999998,11.36
2020-3-12 10:34,6000,2723.914496527778,213.60154296867458,0.440939480610376,27.106925382885986,0.005333116319444445,0.39477635229438995,17.9,47,1016.8,6.54,2.61,150,2.61,0.03900000000000001,11.36
2020-3-12 10:34,6000,2696.922907986111,212.5077711840548,0.4418374996467145,26.55350202349576,0.005393880208333333,0.3903561963848039,17.9,47,1016.8,6.54,2.54,152,2.53,0.04599999999999999,11.36
2020-3-12 10:35,6000,2695.7233767361113,214.142135412706,0.4432869779560635,26.51166324746454,0.005359157986111111,0.38820805674700437,17.9,47,1016.8,6.54,2.52,153,2.52,0.048,11.36
2020-3-12 10:35,5000,2659.698793402778,208.0627766886099,0.44112916313699535,26.656831840052245,0.005271267361111111,0.39035392837690636,17.9,47,1016.8,6.54,2.59,154,2.58,0.041000000000000016,11.36
2020-3-12 10:35,5000,2730.4299392361113,213.05967661840666,0.4388001199429009,27.575496938959116,0.005345052083333334,0.4034134157135076,17.9,47,1016.8,6.54,2.72,154,2.71,0.02799999999999998,11.36
2020-3-12 10:35,5000,2713.055190972222,214.51029079859225,0.4416501559067525,27.284575876482698,0.005348307291666667,0.3963767446214597,18,47,1016.9,6.63,2.79,154,2.78,0.020999999999999998,11.370000000000001
2020-3-12 10:36,5000,2788.490169270833,217.64607963559072,0.4407032334878204,27.387473846736167,0.005399305555555556,0.39161491949210236,18,47,1016.9,6.63,2.77,150,2.77,0.022999999999999996,11.370000000000001
2020-3-12 10:36,6000,2723.9129600694446,215.38143446157483,0.4418024162293573,27.192158349090466,0.005388454861111111,0.3930930691721133,18,47,1016.9,6.63,2.76,149,2.75,0.02400000000000002,11.370000000000001
2020-3-12 10:36,6000,2724.3121918402776,214.9874663569122,0.44174214648514476,26.92049566317798,0.005345052083333334,0.3911368038534858,18,47,1016.9,6.63,2.91,146,2.9,0.008999999999999985,11.370000000000001
2020-3-12 10:36,6000,2727.540412326389,212.95137152770246,0.4413148793431821,26.742211714028315,0.005415581597222222,0.38841524118327886,18.2,47,1016.9,6.82,3,145,3,0,11.379999999999999
2020-3-12 10:37,6000,2686.9972005208333,211.0064268490814,0.44003686363813604,26.886856688232484,0.005368923611111111,0.3906712069376362,18.2,47,1016.9,6.82,3.17,145,3.17,0,11.379999999999999
2020-3-12 10:37,6000,2668.8103819444445,206.0916558154023,0.43884880769261425,26.596227112357347,0.005304904513888889,0.38872776245915036,18.2,47,1016.9,6.82,3.21,145,3.2,0,11.379999999999999
2020-3-12 10:37,6000,2685.7808333333332,211.117306841245,0.43956871857298024,26.94579590874072,0.005328776041666667,0.3934757880582789,18.2,47,1016.9,6.82,3.27,144,3.26,0,11.379999999999999
2020-3-12 10:37,6000,2698.713923611111,211.21901801214221,0.44040337712997785,27.223689367096775,0.005281032986111111,0.3938110319648693,18.2,47,1016.9,6.82,3.36,144,3.35,0,11.379999999999999
2020-3-12 10:38,6000,2720.4895095486113,215.46737370525878,0.44206371898770774,26.811807627315773,0.005358072916666666,0.3945109400531046,18.2,47,1016.9,6.82,3.39,145,3.39,0,11.379999999999999
2020-3-12 10:38,6000,2726.2585069444444,214.96277994784128,0.44185073336786435,27.29787909591462,0.005346137152777777,0.3938969354234749,18.2,47,1016.9,6.82,3.42,144,3.41,0,11.379999999999999
2020-3-12 10:38,6000,2728.6937803819446,214.7530293809679,0.4400155765350518,27.36956553058772,0.005358072916666666,0.40177910539215683,18.2,47,1016.9,6.82,3.21,141,3.18,0,11.379999999999999
2020-3-12 10:38,6000,2696.809709201389,211.42614795916052,0.44029771206606094,27.356726007218434,0.005445963541666667,0.40059133731617647,18.2,46,1016.9,6.51,3.2,140,3.17,0,11.69
2020-3-12 10:39,6000,2740.2146397569445,215.6548740867145,0.4414683119234576,27.442786927658936,0.005353732638888889,0.40104433466094774,18.2,46,1016.9,6.51,3.05,138,3.01,0,11.69
2020-3-12 10:39,6000,2693.537947048611,211.60170355855684,0.44090806780976105,27.27615362065539,0.005275607638888889,0.40099945108251633,18.2,46,1016.9,6.51,2.89,137,2.84,0.010999999999999987,11.69
2020-3-12 10:39,6000,2667.904340277778,209.2847189275848,0.443030927546578,25.95866605052019,0.005398220486111111,0.37472143501497823,18.2,46,1016.9,6.51,2.63,136,2.57,0.037000000000000005,11.69
2020-3-12 10:39,6000,2729.038454861111,213.83846569703655,0.4397338536807493,27.45019761289156,0.005368923611111111,0.4025446793300653,18.1,46,1016.8,6.41,2.45,136,2.4,0.05499999999999998,11.690000000000001
2020-3-12 10:40,6000,2728.5393272569445,213.7535232026736,0.44008185662857424,26.970504057687176,0.005311414930555556,0.39247107758033767,18.1,46,1016.8,6.41,2.29,138,2.26,0.071,11.690000000000001
2020-3-12 10:40,5000,2697.9742838541665,214.68879340275896,0.4406302840020166,27.46970424930015,0.005314670138888889,0.3922981175108932,18.1,46,1016.8,6.41,2.09,140,2.07,0.09100000000000001,11.690000000000001
2020-3-12 10:40,5000,2715.374431423611,215.0491969482236,0.4404223955157464,26.90715884313269,0.005371094,0.38785476664624186,18.1,46,1016.8,6.41,2.13,148,2.13,0.08700000000000001,11.690000000000001
2020-3-12 10:40,5000,2678.0652864583335,210.9245203993009,0.440647509849148,26.245200505326206,0.005400391,0.38594317214733115,18.1,47,1016.8,6.73,2.06,156,2.04,0.09399999999999999,11.370000000000001
2020-3-12 10:41,5000,2735.344704861111,215.28469184016004,0.4412824320471803,26.613115804409304,0.005341797,0.3841565648828976,18.1,47,1016.8,6.73,2.01,165,1.92,0.09900000000000002,11.370000000000001
2020-3-12 10:41,5000,2689.577578,209.22030381838493,0.4396753583153115,26.46067568594244,0.005361328,0.3883146488630174,18.1,47,1016.8,6.73,2.01,169,1.87,0.09900000000000002,11.370000000000001
2020-3-12 10:41,5000,2732.809574652778,213.5638941397196,0.4398401342050069,26.710028529582754,0.005390625,0.38585110294117647,18.1,47,1016.8,6.73,2.16,174,1.94,0.08399999999999999,11.370000000000001
2020-3-12 10:41,5000,2710.6244010416667,212.57500651041192,0.4408946717101113,26.613125054434274,0.005393880208333333,0.38936956614242924,18.4,47,1016.8,7,2.24,176,1.98,0.07599999999999997,11.399999999999999
2020-3-12 10:42,5000,2687.549839409722,212.63703124992475,0.442236977572769,26.405970461346296,0.005370008680555555,0.3888800466367103,18.4,47,1016.8,7,2.36,174,2.12,0.06400000000000002,11.399999999999999
2020-3-12 10:42,5000,2698.817894965278,211.7008376736064,0.4402406544864057,26.81323118989721,0.005356987847222223,0.38601132727396514,18.4,47,1016.8,7,2.53,173,2.29,0.04700000000000002,11.399999999999999
2020-3-12 10:42,5000,2697.4787717013887,212.13596137060475,0.4408579582363439,26.244545855443654,0.005342881944444444,0.3836297998366013,18.4,47,1016.8,7,2.67,167,2.53,0.03300000000000001,11.399999999999999
2020-3-12 10:42,5000,2695.0483984375,211.87259440104052,0.4408430701296463,26.3886993943306,0.005375434027777778,0.3842536594498911,18.5,46,1016.8,6.78,2.77,160,2.71,0.022999999999999996,11.719999999999999
2020-3-12 10:43,5000,2669.5915277777776,209.23169487835446,0.44129122459539366,26.32464753204792,0.005337456597222222,0.3920911160471133,18.5,46,1016.8,6.78,2.84,153,2.83,0.016000000000000014,11.719999999999999
2020-3-12 10:43,5000,2636.404609,205.9267415353269,0.43999985727858965,26.12667297288786,0.005284288194444445,0.3897648335375817,18.5,46,1016.8,6.78,2.93,151,2.93,0.006999999999999984,11.719999999999999
2020-3-12 10:43,5000,2664.9823307291667,207.9851399583875,0.44095164143064597,26.009113983915068,0.005314670138888889,0.38605255991285403,18.5,46,1016.8,6.78,2.82,148,2.82,0.018000000000000016,11.719999999999999
2020-3-12 10:43,5000,2649.2725,208.4095247358911,0.44184201826194003,26.13170784273563,0.005347222222222222,0.3935072806032135,18.5,46,1016.8,6.78,2.79,151,2.79,0.020999999999999998,11.719999999999999
2020-3-12 10:44,5000,2682.2310807291665,211.62316075877322,0.4422954240636845,26.05610301184321,0.005399305555555556,0.39763626770152505,18.5,46,1016.8,6.78,2.79,155,2.77,0.020999999999999998,11.719999999999999
2020-3-12 10:44,5000,2703.665082465278,211.2754633215905,0.4406724797410094,26.494080682811003,0.005375434027777778,0.39072347749863834,18.5,46,1016.8,6.78,2.78,159,2.73,0.02200000000000002,11.719999999999999
2020-3-12 10:44,5000,2725.1671961805555,213.59450411732874,0.44088217063137625,26.33937420732678,0.005372178819444445,0.38901887169798477,18.5,46,1016.8,6.78,2.73,161,2.66,0.027000000000000003,11.719999999999999
2020-3-12 10:44,5000,2642.8659201388887,209.19368706592985,0.44256993264927824,26.016147137004474,0.005374348958333333,0.387283479711329,18.4,46,1016.8,6.69,2.68,165,2.56,0.03199999999999999,11.709999999999997
2020-3-12 10:45,5000,2696.9198177083335,211.56001408380456,0.4423614687219064,26.10702154595464,0.005375434027777778,0.3913134233728214,18.4,46,1016.8,6.69,2.73,168,2.56,0.027000000000000003,11.709999999999997
2020-3-12 10:45,5000,2670.158516,208.10567490603125,0.43941230618194327,26.30626197814196,0.005353732638888889,0.39852554381127453,18.4,46,1016.8,6.69,2.74,170,2.54,0.025999999999999978,11.709999999999997
2020-3-12 10:45,6000,2689.477417534722,209.0061837899373,0.4393675988085805,26.578922849067965,0.005341797,0.4062487277028867,18.4,46,1016.8,6.69,2.74,171,2.52,0.025999999999999978,11.709999999999997
2020-3-12 10:45,6000,2634.9307118055553,207.01778971302238,0.4413663789216426,25.85722494263858,0.005313585069444444,0.38504960682189543,18.7,46,1016.8,6.97,2.66,167,2.51,0.03399999999999998,11.73
2020-3-12 10:46,6000,2706.5964149305555,215.1130349345632,0.44423334643309437,26.15573859774613,0.005387369791666667,0.3867009889025054,18.7,46,1016.8,6.97,2.56,160,2.5,0.04399999999999999,11.73
2020-3-12 10:46,6000,2616.027656,205.51748372089614,0.44334881465183995,25.91147617962165,0.005299479166666667,0.39441027539488016,18.7,46,1016.8,6.97,2.5,154,2.49,0.049999999999999996,11.73
2020-3-12 10:46,6000,2707.200759548611,212.96170030268792,0.44306157773850463,26.646728331209225,0.005385199652777777,0.398361051538671,18.7,46,1016.8,6.97,2.49,150,2.49,0.050999999999999976,11.73
2020-3-12 10:46,6000,2688.1311067708334,210.48427951341785,0.4423394677694005,26.507604324700115,0.005373263888888889,0.40844850813589323,18.8,46,1016.7,7.06,2.46,148,2.46,0.054000000000000006,11.740000000000002
2020-3-12 10:47,6000,2671.615169270833,209.0571213097736,0.44137609298763836,26.579972898601458,0.005360243055555556,0.39804564950980387,18.8,46,1016.7,7.06,2.38,147,2.38,0.062000000000000006,11.740000000000002
2020-3-12 10:47,6000,2634.444709201389,205.8283615414466,0.44143437425311005,26.3143332535415,0.005253906,0.3952047419662309,18.8,46,1016.7,7.06,2.22,144,2.22,0.07799999999999999,11.740000000000002
2020-3-12 10:47,6000,2691.7582725694447,212.30996852447961,0.44183755484965925,26.841510169078663,0.0053125,0.40328324567674295,18.8,46,1016.7,7.06,2.25,142,2.24,0.075,11.740000000000002
2020-3-12 10:47,6000,2630.318203,206.4952712670598,0.4421764303504444,26.560533051447663,0.005230034722222222,0.4000759165645425,18.9,47,1016.7,7.46,2.4,138,2.36,0.06000000000000001,11.439999999999998
2020-3-12 10:48,6000,2688.938394097222,213.04113486357795,0.4437992643438711,25.79437147897066,0.005378689236111111,0.38239326746323526,18.9,47,1016.7,7.46,2.44,137,2.4,0.056,11.439999999999998
2020-3-12 10:48,6000,2681.430329861111,210.2017068136132,0.44182066936717435,26.09760947414262,0.005439453,0.3894445125272331,18.9,47,1016.7,7.46,2.35,136,2.3,0.06499999999999999,11.439999999999998
2020-3-12 10:48,6000,2685.7052213541665,211.37847330723397,0.44245095291549946,26.033453781020043,0.005381944444444444,0.3849208495029956,18.9,47,1016.7,7.46,2.34,133,2.26,0.06600000000000002,11.439999999999998
2020-3-12 10:48,6000,2612.5569878472224,207.99568033853114,0.44295777293665684,25.79110496198245,0.005322266,0.386798143041939,18.9,46,1016.6,7.15,2.38,129,2.25,0.062000000000000006,11.749999999999998
2020-3-12 10:49,6000,2713.1846744791665,213.59119248113635,0.442379206580564,26.44522908097059,0.005389539930555556,0.39891888786764707,18.9,46,1016.6,7.15,2.55,128,2.39,0.04500000000000001,11.749999999999998
2020-3-12 10:49,6000,2680.3730946180553,212.77056857638422,0.4428829547642309,26.003631459334066,0.005328776041666667,0.36917052185457516,18.9,46,1016.6,7.15,2.77,129,2.61,0.022999999999999996,11.749999999999998
2020-3-12 10:49,6000,2699.7718012152777,211.60777121543885,0.44046424583745986,26.122897140266154,0.005315755208333333,0.39693087894880175,18.9,46,1016.6,7.15,2.89,131,2.77,0.010999999999999987,11.749999999999998
2020-3-12 10:49,6000,2686.2892317708333,212.13391167534593,0.44234602710677345,26.347717818888608,0.005394965277777778,0.40810709422657954,18.7,45,1016.6,6.65,2.84,134,2.76,0.016000000000000014,12.049999999999999
2020-3-12 10:50,6000,2660.0596397569443,210.36515187882299,0.44235386019892603,26.297902098828118,0.005341797,0.40753099468954246,18.7,45,1016.6,6.65,2.82,139,2.79,0.018000000000000016,12.049999999999999
2020-3-12 10:50,6000,2638.514223090278,208.61400498199345,0.4425908599765391,26.134450928905842,0.0052582465277777775,0.4005169866557734,18.7,45,1016.6,6.65,2.96,142,2.94,0.0040000000000000036,12.049999999999999
2020-3-12 10:50,6000,2659.003355034722,208.0924413384332,0.4410480348753186,26.19573618636539,0.005393880208333333,0.40970242289624187,18.7,45,1016.6,6.65,3.11,146,3.11,0,12.049999999999999
2020-3-12 10:50,6000,2660.752417534722,211.01868815094633,0.44267901595797,26.686083707480787,0.0053125,0.4085710954520697,18.7,47,1016.6,7.28,3.27,148,3.27,0,11.419999999999998
2020-3-12 10:51,6000,2684.0246310763887,211.53077645128042,0.4424343238951381,25.924906725972477,0.005403645833333333,0.4019510229438998,18.7,47,1016.6,7.28,3.21,147,3.21,0,11.419999999999998
2020-3-12 10:51,6000,2653.7434201388887,208.40265190700944,0.44160834503371643,26.429797268763213,0.005308159722222222,0.4052854243259804,18.7,47,1016.6,7.28,3.13,147,3.13,0,11.419999999999998
2020-3-12 10:51,6000,2689.834370659722,210.15439453101914,0.44013655944623625,26.574478058499338,0.005426432291666667,0.4020435091571351,18.7,47,1016.6,7.28,3.05,145,3.04,0,11.419999999999998
2020-3-12 10:51,6000,2656.768550347222,208.48134331529408,0.4415155844358533,26.20395327405174,0.005313585069444444,0.4010188376565904,18.9,45,1016.5,6.83,3.04,144,3.03,0,12.069999999999999
2020-3-12 10:52,6000,2718.449331597222,213.01568248593256,0.44168279422929696,26.357320449134566,0.005385199652777777,0.40470966945806097,18.9,45,1016.5,6.83,3.06,139,3.02,0,12.069999999999999
2020-3-12 10:52,5000,2465.866271701389,192.3076181451292,0.4417895672450306,21.72131490959117,0.005371094,0.40450186802151417,18.9,45,1016.5,6.83,3.02,137,2.96,0,12.069999999999999
2020-3-12 10:52,5000,35.36192274305556,1.775021701388889,0.26204762800556997,1.6251472186918443,0,0.9884816219022331,18.9,45,1016.5,6.83,2.91,136,2.84,0.008999999999999985,12.069999999999999
2020-3-12 10:52,5000,2444.0516297743056,188.1333734759284,0.44203231183377895,21.863224384965047,0.005427517361111111,0.41183603962418297,18.9,46,1016.5,7.15,2.72,136,2.66,0.02799999999999998,11.749999999999998
2020-3-12 10:53,5000,4503.354661458333,358.67647658410584,0.4548100042112261,18.325097788554075,0.005370008680555555,0.24494353383714595,18.9,46,1016.5,7.15,2.79,137,2.74,0.020999999999999998,11.749999999999998
2020-3-12 10:53,5000,3078.1627495659723,236.49037397368636,0.4437963859868341,22.725094200077343,0.005479600694444444,0.37404753880718955,18.9,46,1016.5,7.15,2.96,139,2.92,0.0040000000000000036,11.749999999999998
2020-3-12 10:53,5000,4484.071586371528,355.8834004984536,0.4535100361973559,18.110910914192356,0.005322266,0.24716408377587146,18.9,46,1016.5,7.15,3.11,141,3.08,0,11.749999999999998
2020-3-12 10:53,5000,2447.3240538194445,191.6135080289946,0.44163164492713675,25.755864359048417,0.0053059895833333336,0.42109852430555555,19,46,1016.5,7.24,3.3,143,3.29,0,11.76
2020-3-12 10:54,5000,4052.3431770833336,322.0046545680669,0.4517046379048673,17.920529514994747,0.005501302083333334,0.2727164734817538,19,46,1016.5,7.24,3.43,149,3.42,0,11.76
2020-3-12 10:54,5000,2472.576723090278,192.97418836801313,0.4404779127178815,25.3454335650299,0.005365668402777778,0.42421052900326794,19,46,1016.5,7.24,3.51,155,3.49,0,11.76
2020-3-12 10:54,5000,5198.983155381944,410.4720580486613,0.4532375290851664,18.597342504483198,0.0055501302083333336,0.19001939508442264,19,46,1016.5,7.24,3.53,158,3.48,0,11.76
2020-3-12 10:54,5000,2529.188572048611,202.84464735240107,0.4430093703870603,24.90187098628629,0.005368923611111111,0.451134357128268,19,44,1016.5,6.6,3.55,163,3.43,0,12.4
2020-3-12 10:55,5000,2521.025256076389,196.22037326350738,0.4432698913175969,26.561262730869043,0.005402560763888889,0.40302087588507624,19,44,1016.5,6.6,3.42,166,3.25,0,12.4
2020-3-12 10:55,5000,2471.1918836805557,191.0144943542057,0.44210480092749044,25.983827911984573,0.005326605902777778,0.39424385127314815,19,44,1016.5,6.6,3.34,169,3.12,0,12.4
2020-3-12 10:55,6000,2465.6110329861112,191.85616856737377,0.44350992909320663,25.32430525199667,0.005384114583333334,0.38912740417347497,19,44,1016.5,6.6,3.23,171,2.98,0,12.4
2020-3-12 10:55,6000,2510.793828,195.76393553952704,0.44293680756837295,26.102600581625847,0.005308159722222222,0.39819951235702616,18.9,42,1016.5,5.84,3.07,173,2.79,0,13.059999999999999
2020-3-12 10:56,6000,2540.144487847222,198.48059135953991,0.44371024517007207,26.568489880624163,0.005355902777777778,0.4004647799223856,18.9,42,1016.5,5.84,2.94,171,2.71,0.006000000000000005,13.059999999999999
2020-3-12 10:56,6000,2399.1870225694443,187.8098003469915,0.44398063102865404,25.436984339877828,0.005313585069444444,0.3871072091162854,18.9,42,1016.5,5.84,2.9,174,2.6,0.010000000000000007,13.059999999999999
2020-3-12 10:56,6000,2430.585894097222,191.15535370956226,0.4446922477157862,25.260845515278294,0.005316840277777778,0.38223555368327883,18.9,42,1016.5,5.84,2.9,178,2.51,0.010000000000000007,13.059999999999999
2020-3-12 10:56,6000,2458.470290798611,192.87285481769786,0.4445146181410203,25.523433630126057,0.005247395833333333,0.3909038245506536,19,43,1016.5,6.27,2.9,180,2.46,0.010000000000000007,12.73
2020-3-12 10:57,6000,2440.182751736111,190.8408940678302,0.4445813767909632,25.72598970810644,0.005349392361111111,0.3979797709014161,19,43,1016.5,6.27,2.83,181,2.37,0.01699999999999999,12.73
2020-3-12 10:57,6000,2462.006232638889,191.8952776432696,0.44208518455380774,25.80526398217865,0.005183376736111111,0.4088081299360022,19,43,1016.5,6.27,2.63,184,2.13,0.037000000000000005,12.73
2020-3-12 10:57,6000,2461.840681423611,192.23225470648867,0.44307516229916866,25.800697935026225,0.0052549913194444445,0.40561491098175384,19,43,1016.5,6.27,2.46,187,1.91,0.054000000000000006,12.73
2020-3-12 10:57,6000,2417.611918402778,187.52416442056813,0.4428803023179566,25.096168721073962,0.005190972222222222,0.390813287207244,19,43,1016.5,6.27,2.42,190,1.79,0.058,12.73
2020-3-12 10:58,6000,2372.6457421875,185.405934209554,0.4446138974606239,24.008551342103342,0.005304904513888889,0.38563331886574076,19,43,1016.5,6.27,2.46,194,1.71,0.054000000000000006,12.73
2020-3-12 10:58,6000,2400.946731770833,187.32740776381198,0.4438362565010776,24.853358871108394,0.005284288194444445,0.4029356660198802,19,43,1016.5,6.27,2.4,195,1.63,0.06000000000000001,12.73
2020-3-12 10:58,6000,2430.5827647569445,191.14637259560917,0.4442867487431809,24.942285232823764,0.005339626736111111,0.40398459201388887,19,43,1016.5,6.27,2.36,195,1.61,0.06400000000000002,12.73
2020-3-12 10:58,6000,2355.5466189236113,185.99000650497243,0.4461689166574289,24.34921153787418,0.0052669270833333335,0.3934933619281046,19,42,1016.5,5.93,2.39,195,1.63,0.060999999999999985,13.07
2020-3-12 10:59,6000,2393.6194010416666,187.54705728996652,0.4449393128293449,24.776765175747425,0.005364583333333333,0.38870284841367103,19,42,1016.5,5.93,2.53,197,1.66,0.04700000000000002,13.07
2020-3-12 10:59,6000,2370.5199696180557,185.98668282289748,0.4455607869082917,24.699045840812687,0.005206163194444445,0.3947041802832244,19,42,1016.5,5.93,2.62,197,1.72,0.037999999999999985,13.07
2020-3-12 10:59,6000,2450.9191493055555,191.01684353080915,0.443587401870878,25.532297123871054,0.005308159722222222,0.39892579401552286,19,42,1016.5,5.93,2.7,196,1.81,0.029999999999999978,13.07
2020-3-12 10:59,6000,2401.691345486111,188.7225043360393,0.4441453495691697,25.176826718823516,0.005310329861111111,0.40327525445942264,19,43,1016.5,6.27,2.65,197,1.74,0.03500000000000001,12.73
2020-3-12 11:00,6000,2392.2922526041666,187.6111947,0.4445383833703255,24.88360184400203,0.005262586805555556,0.39126286339188454,19,43,1016.5,6.27,2.57,197,1.69,0.04300000000000002,12.73
2020-3-12 11:00,6000,2389.725568576389,185.6348958331026,0.4425123307534332,25.089846220631667,0.005210503472222222,0.4064327299496187,19,43,1016.5,6.27,2.5,197,1.64,0.049999999999999996,12.73
2020-3-12 11:00,6000,2373.3130555555554,186.80766166084075,0.4441789878542897,24.799830968075465,0.005299479166666667,0.39390341179874727,19,43,1016.5,6.27,2.53,197,1.66,0.04700000000000002,12.73
2020-3-12 11:00,6000,2292.7646397569442,180.87644531157693,0.4462479857739493,24.096271123743854,0.005245225694444445,0.36963785488153594,19,42,1016.5,5.93,2.56,198,1.64,0.04399999999999999,13.07
2020-3-12 11:01,6000,2414.582573784722,188.15163839257787,0.44651693521807306,23.59474462454043,0.005398220486111111,0.3410490834354575,19,42,1016.5,5.93,2.53,197,1.66,0.04700000000000002,13.07
2020-3-12 11:01,6000,2537.803342013889,200.0808418918138,0.44385587340113264,27.25238035963849,0.005272352430555556,0.3736809087350218,19,42,1016.5,5.93,2.54,197,1.67,0.04599999999999999,13.07
2020-3-12 11:01,6000,2939.5888975694443,235.21541633843307,0.4416219473287093,33.31158535043027,0.0053211805555555556,0.4128523071555011,19,42,1016.5,5.93,2.56,198,1.64,0.04399999999999999,13.07
2020-3-12 11:01,6000,2621.596719,210.33294484116823,0.4421633961158665,26.82029918853649,0.005308159722222222,0.4302892284517974,18.9,42,1016.5,5.84,2.51,200,1.55,0.04900000000000002,13.059999999999999
2020-3-12 11:02,6000,2852.731719,229.50743476761718,0.44387946421386465,29.104048431255755,0.005354817708333333,0.4365630148760893,18.9,42,1016.5,5.84,2.43,202,1.43,0.05699999999999998,13.059999999999999
2020-3-12 11:02,6000,2580.0787760416665,198.5743586026403,0.4370568105003647,27.56828483307807,0.005260416666666667,0.4315409645629085,18.9,42,1016.5,5.84,2.4,205,1.3,0.06000000000000001,13.059999999999999
2020-3-12 11:02,6000,2485.4392404513887,196.4390201821962,0.44469068433181275,25.965413283576353,0.005342881944444444,0.3829529675585512,18.9,42,1016.5,5.84,2.13,211,0.97,0.08700000000000001,13.059999999999999
2020-3-12 11:02,6000,2596.118645833333,202.4818576024186,0.4417852475590141,27.22219336809277,0.005253906,0.40860730698529407,18.9,41,1016.5,5.49,1.89,215,0.74,0.11100000000000002,13.409999999999998
2020-3-12 11:03,6000,2458.0037152777777,191.6588313672277,0.4452839448616361,25.283236690887428,0.005248480902777778,0.387874825537854,18.9,41,1016.5,5.49,1.68,220,0.52,0.132,13.409999999999998
2020-3-12 11:03,6000,2389.703594,187.93503356297705,0.44422141834557616,25.344600333270872,0.005263672,0.393552223754085,18.9,41,1016.5,5.49,1.52,226,0.32,0.148,13.409999999999998
2020-3-12 11:03,6000,2431.338980034722,187.68640189442107,0.44187757903660574,25.974014118500204,0.005223524305555556,0.3981711558755447,18.9,41,1016.5,5.49,1.36,228,0.24,0.16399999999999998,13.409999999999998
2020-3-12 11:03,6000,2495.6219921875,195.56142361110633,0.44342723055660815,26.491637822302422,0.005211588541666667,0.4147426640795207,18.9,42,1016.5,5.84,1.3,228,0.23,0.16999999999999998,13.059999999999999
2020-3-12 11:04,6000,2514.8597005208335,195.331845695014,0.44279097597508915,26.27920340836309,0.005326605902777778,0.40100044253812633,18.9,42,1016.5,5.84,1.3,226,0.27,0.16999999999999998,13.059999999999999
2020-3-12 11:04,6000,2521.7534678819443,195.22630967880897,0.44078086883338574,26.948283623664842,0.0052940538194444445,0.41124902556508713,18.9,42,1016.5,5.84,1.41,221,0.41,0.159,13.059999999999999
2020-3-12 11:04,6000,2565.2780815972224,199.07476127861872,0.44162745453384383,26.903305943353267,0.005383029513888889,0.40778819869961874,18.9,42,1016.5,5.84,1.7,213,0.72,0.13,13.059999999999999
2020-3-12 11:04,6000,2484.3650260416666,193.2297764750164,0.441621739732673,26.60742671766481,0.005287543402777778,0.4038527199074074,19.2,43,1016.5,6.45,1.84,206,0.98,0.11599999999999999,12.75
2020-3-12 11:05,7000,2527.2306119791665,196.73087997783975,0.44294325531015044,26.540861848562795,0.005303819444444444,0.4080555215141612,19.2,43,1016.5,6.45,2.2,196,1.47,0.07999999999999997,12.75
2020-3-12 11:05,7000,2515.4820442708333,194.36262586805083,0.44237552346051373,26.81027631227608,0.005207248263888889,0.4069818899782135,19.2,43,1016.5,6.45,2.47,185,1.97,0.052999999999999985,12.75
2020-3-12 11:05,7000,2485.520334201389,194.78551323453993,0.44292398986386233,26.343630456994152,0.005354817708333333,0.40520879289215683,19.2,43,1016.5,6.45,2.75,177,2.41,0.024999999999999998,12.75
2020-3-12 11:05,7000,2482.475112847222,193.84730902754703,0.4429859259228367,26.385274458731203,0.005247395833333333,0.40625213609749455,19.4,42,1016.5,6.29,3.05,170,2.83,0,13.11
2020-3-12 11:06,7000,2508.885256076389,195.4211599123908,0.4434202200333515,26.43519124339347,0.005410156,0.4057491957720588,19.4,42,1016.5,6.29,3.17,165,3.03,0,13.11
2020-3-12 11:06,7000,2509.079141,197.1003645818075,0.4436698251208904,26.65545972617868,0.005317925347222223,0.40627325452750546,19.4,42,1016.5,6.29,3.15,161,3.07,0,13.11
2020-3-12 11:06,7000,2520.5885980902776,197.6650954713421,0.4437015237346659,26.560465056471724,0.005384114583333334,0.4054508867783225,19.4,42,1016.5,6.29,3.18,159,3.12,0,13.11
2020-3-12 11:06,7000,2521.727734,196.47999891364847,0.44400083504283877,26.769951147973444,0.005335286458333333,0.40559286917892157,19.4,40,1016.4,5.59,3.31,158,3.26,0,13.809999999999999
2020-3-12 11:07,7000,2499.4427647569446,193.9812684359974,0.44241150002414736,26.636521977248417,0.005343967013888889,0.405078839869281,19.4,40,1016.4,5.59,3.2,157,3.16,0,13.809999999999999
2020-3-12 11:07,7000,2489.457573784722,195.29385091119343,0.4434287276522448,26.703261473641042,0.005301649305555556,0.4046485566448802,19.4,40,1016.4,5.59,3.14,156,3.11,0,13.809999999999999
2020-3-12 11:07,7000,2503.7256380208332,197.62554685448538,0.4440485086539442,26.554305722748406,0.005351563,0.4032829861111111,19.4,40,1016.4,5.59,3.14,155,3.11,0,13.809999999999999
2020-3-12 11:07,7000,2470.4509114583334,194.65129660946764,0.4441470380723917,26.48285167424882,0.005234375,0.4029733753744553,19.2,39,1016.4,5.05,2.97,154,2.95,0.00299999999999998,14.149999999999999
2020-3-12 11:08,7000,2510.7271354166664,195.4678373980475,0.4432856488705129,26.361494845039985,0.005364583333333333,0.3971415951797385,19.2,39,1016.4,5.05,2.95,153,2.94,0.004999999999999982,14.149999999999999
2020-3-12 11:08,7000,2485.8043793402776,192.79919378186327,0.4418926135980339,26.389958415915476,0.005281032986111111,0.39972148182189543,19.2,39,1016.4,5.05,3.03,154,3.02,0,14.149999999999999
2020-3-12 11:08,7000,2522.4264626736112,196.5706421573592,0.4435238510395935,26.508121160279057,0.005356987847222223,0.40118889144199343,19.2,39,1016.4,5.05,2.99,153,2.98,0.0009999999999999788,14.149999999999999
2020-3-12 11:08,7000,2498.977005208333,197.0855349339508,0.443631504680779,26.517631197679407,0.005328776041666667,0.39870430368327886,19.2,40,1016.4,5.41,2.84,151,2.84,0.016000000000000014,13.79
2020-3-12 11:09,7000,2540.3162369791667,199.61641165977647,0.44460720027191614,26.637242270334884,0.005367838541666667,0.3993348226443355,19.2,40,1016.4,5.41,2.75,152,2.74,0.024999999999999998,13.79
2020-3-12 11:09,7000,2475.842699652778,194.19709845761435,0.4436899635426399,26.61696699192373,0.005253906,0.3975634786900871,19.2,40,1016.4,5.41,2.52,154,2.51,0.048,13.79
2020-3-12 11:09,7000,2505.5189539930557,196.8939257744496,0.4434443894908292,26.664562444571857,0.005430772569444444,0.3980420241013072,19.2,40,1016.4,5.41,2.22,158,2.18,0.07799999999999999,13.79
2020-3-12 11:09,7000,2477.9391319444444,195.08375538677527,0.44422031893682307,26.406407593195276,0.005350477430555556,0.3968826720792483,19.2,40,1016.4,5.41,2.06,163,1.99,0.09399999999999999,13.79
2020-3-12 11:10,7000,2484.9040321180555,195.65285253222308,0.44477491672230496,26.35655286008777,0.005341797,0.39654453039896514,19.2,40,1016.4,5.41,1.95,165,1.86,0.10500000000000001,13.79
2020-3-12 11:10,7000,2474.6578645833333,194.02937064794847,0.44419451550387073,26.652122110662688,0.005279947916666666,0.3994899620438453,19.2,40,1016.4,5.41,1.85,168,1.74,0.11499999999999999,13.79
2020-3-12 11:10,7000,2496.0216666666665,196.54937499603935,0.4430779848522546,26.79642059521867,0.005333116319444445,0.39823280909586056,19.2,40,1016.4,5.41,1.82,170,1.69,0.118,13.79
2020-3-12 11:10,7000,2481.562526041667,196.93589518226224,0.44546453912190603,26.768460629375664,0.005319010416666666,0.3957957175925926,19.3,40,1016.3,5.5,2.01,171,1.85,0.09900000000000002,13.8
2020-3-12 11:11,7000,2508.4641493055556,195.63427299262145,0.4431337342346882,26.788191354484848,0.005388454861111111,0.39279540696486925,19.3,40,1016.3,5.5,2.24,171,2.07,0.07599999999999997,13.8
2020-3-12 11:11,7000,2474.5804427083335,195.09327799469628,0.4432342518685624,26.668954398938,0.005263672,0.39375563810593683,19.3,40,1016.3,5.5,2.59,169,2.42,0.041000000000000016,13.8
2020-3-12 11:11,7000,2513.076627604167,196.34915798580968,0.44312867973913517,26.757260574165738,0.005329861111111111,0.39307077631399784,19.3,40,1016.3,5.5,2.94,164,2.83,0.006000000000000005,13.8
2020-3-12 11:11,7000,2485.7468359375,195.46592664918788,0.44349823180807124,26.629983394022688,0.005310329861111111,0.3975495515046296,19.5,40,1016.3,5.68,3.21,157,3.17,0,13.82
2020-3-12 11:12,7000,2516.701547309028,197.62021158675094,0.4434974323781869,26.907904534447084,0.005454644097222222,0.396113587622549,19.5,40,1016.3,5.68,3.42,154,3.4,0,13.82
2020-3-12 11:12,7000,2490.518580729167,195.74080186630883,0.4440451329502212,26.48170351455127,0.005313585069444444,0.39201264637799565,19.5,40,1016.3,5.68,3.56,153,3.55,0,13.82
2020-3-12 11:12,7000,2496.1095616319444,197.4241590550635,0.44445644397025535,26.527708695703065,0.005383029513888889,0.39170638871868196,19.5,40,1016.3,5.68,3.72,154,3.7,0,13.82
2020-3-12 11:12,7000,2475.235490451389,193.5694335935192,0.4431236538953454,26.58124642123288,0.005354817708333333,0.39007699312363836,19.6,41,1016.3,6.13,3.81,156,3.77,0,13.470000000000002
2020-3-12 11:13,7000,2489.4622395833335,195.40836479873533,0.4446230027013291,26.44357298633451,0.005375434027777778,0.38834441380718954,19.6,41,1016.3,6.13,3.78,159,3.71,0,13.470000000000002
2020-3-12 11:13,8000,2439.270859,191.52573242186446,0.4436042243022712,26.33799305459679,0.005256076388888889,0.38874143007897605,19.6,41,1016.3,6.13,3.75,164,3.6,0,13.470000000000002
2020-3-12 11:13,8000,2452.9699652777776,196.14883137958546,0.4454599768309267,26.11622247727697,0.005368923611111111,0.38758282696759255,19.6,41,1016.3,6.13,3.76,170,3.49,0,13.470000000000002
2020-3-12 11:13,8000,2464.5910243055555,193.35652126734232,0.4446216880896188,26.318282196565836,0.005296223958333333,0.3895331180215142,19.6,40,1016.3,5.77,3.76,176,3.32,0,13.830000000000002
2020-3-12 11:14,8000,2489.9700520833335,193.94803059853328,0.44402191873921926,26.187915364810827,0.005391710069444444,0.3899731030433007,19.6,40,1016.3,5.77,3.82,181,3.21,0,13.830000000000002
2020-3-12 11:14,9000,2442.776271701389,192.34190972220333,0.4442875332481922,26.020019173225137,0.005366753472222222,0.38791028390522875,19.6,40,1016.3,5.77,3.81,181,3.2,0,13.830000000000002
2020-3-12 11:14,9000,2499.4231770833335,195.09464191877584,0.44355088496571393,26.33043378744253,0.005419922,0.3874029437295751,19.6,40,1016.3,5.77,3.71,180,3.14,0,13.830000000000002
2020-3-12 11:14,9000,2507.2264366319446,196.3937792968173,0.4431182957492405,26.392329462452594,0.005354817708333333,0.39107747821350763,19.5,37,1016.4,4.57,3.52,179,3.02,0,14.93
2020-3-12 11:15,9000,2497.0890668402776,195.03513888058134,0.44376613366325346,26.18992323266142,0.005368923611111111,0.39709790305010895,19.5,37,1016.4,4.57,3.38,178,2.93,0,14.93
2020-3-12 11:15,9000,2566.1398133680555,200.24891384545674,0.44259167268022664,27.347665192940458,0.005320095486111111,0.4047901986315359,19.5,37,1016.4,4.57,3.32,177,2.9,0,14.93
2020-3-12 11:15,9000,2523.9978949652777,198.12587890519032,0.4430106339757633,26.639246726096125,0.005381944444444444,0.40442001548883444,19.5,37,1016.4,4.57,3.21,175,2.86,0,14.93
2020-3-12 11:15,9000,2539.368576388889,199.61401041659124,0.44357990418450466,27.247442445313116,0.005333116319444445,0.403875,19.6,37,1016.4,4.66,3.17,173,2.87,0,14.940000000000001
2020-3-12 11:16,8000,2521.0181727430554,196.10236436325718,0.4431878610951239,27.125703120476825,0.005391710069444444,0.39878461584286495,19.6,37,1016.4,4.66,3.07,172,2.8,0,14.940000000000001
2020-3-12 11:16,8000,2523.2479296875,198.65745008668785,0.44295548324005063,27.072351226885274,0.005298394097222222,0.39655489600354027,19.6,37,1016.4,4.66,3.04,171,2.8,0,14.940000000000001
2020-3-12 11:16,8000,2540.023980034722,198.7242502054746,0.4416397757670263,27.102235720117836,0.005387369791666667,0.4018933780977669,19.6,37,1016.4,4.66,3.11,169,2.9,0,14.940000000000001
2020-3-12 11:16,8000,2524.774848090278,199.20064887084962,0.4446211390427846,27.287982698812556,0.005351563,0.4028139339937364,19.7,38,1016.4,5.13,3.16,165,3.02,0,14.57
2020-3-12 11:17,8000,2518.433672,196.06930555042695,0.44246242262147106,27.111702006107357,0.005338541666666667,0.40201195703976034,19.7,38,1016.4,5.13,3.13,160,3.06,0,14.57
2020-3-12 11:17,8000,2495.0158072916665,195.9675705289947,0.4423009691073968,27.194067581054878,0.005292969,0.40374509803921566,19.7,38,1016.4,5.13,2.99,155,2.97,0.0009999999999999788,14.57
2020-3-12 11:17,8000,2519.4201171875,196.5022578909968,0.44179473099606,27.10934227344826,0.005345052083333334,0.4032447746459695,19.7,38,1016.4,5.13,2.85,152,2.84,0.014999999999999989,14.57
2020-3-12 11:17,8000,2483.7650043402778,195.65351345236982,0.44318139685986574,26.926059729727896,0.0052669270833333335,0.39917529616013075,19.6,38,1016.4,5.04,2.78,145,2.77,0.02200000000000002,14.560000000000002
2020-3-12 11:18,8000,2525.2119661458332,197.46640838027764,0.44353768959087214,26.98127233483812,0.005363498263888889,0.40049493208741826,19.6,38,1016.4,5.04,2.88,138,2.83,0.01200000000000001,14.560000000000002
2020-3-12 11:18,8000,2468.093107638889,195.03311406599917,0.44363943301384057,26.82784297146344,0.0052821180555555555,0.39551781641476036,19.6,38,1016.4,5.04,2.82,131,2.69,0.018000000000000016,14.560000000000002
2020-3-12 11:18,8000,2495.287344,196.29338863498896,0.44369215147880686,26.469571425131914,0.005370008680555555,0.3911404633033769,19.6,38,1016.4,5.04,2.68,126,2.48,0.03199999999999999,14.560000000000002
2020-3-12 11:18,8000,2484.7008246527776,196.53175238641694,0.44330806594426425,26.78378894904579,0.005301649305555556,0.3969194495506536,19.5,38,1016.4,4.95,2.69,126,2.49,0.031000000000000003,14.55
2020-3-12 11:19,8000,2510.729036458333,196.4643521957292,0.44335191335024265,26.878210377295982,0.005373263888888889,0.38752874795751635,19.5,38,1016.4,4.95,2.77,129,2.62,0.022999999999999996,14.55
2020-3-12 11:19,8000,2450.089448784722,192.4434830726858,0.4439262594427051,26.244315685566033,0.005330946180555555,0.3812145543981481,19.5,38,1016.4,4.95,2.94,130,2.79,0.006000000000000005,14.55
2020-3-12 11:19,8000,2490.945859,195.20227538565044,0.44425244895104665,26.15479157520019,0.005308159722222222,0.382431946997549,19.5,38,1016.4,4.95,3.21,129,3.03,0,14.55
2020-3-12 11:19,8000,2481.1726605902777,194.38538411288323,0.44402782622755776,26.62980979316314,0.005232204861111111,0.3913399926811002,19.4,39,1016.3,5.23,3.43,133,3.31,0,14.169999999999998
2020-3-12 11:20,8000,2497.3454557291666,196.01232421844867,0.4448551724605118,26.513201184383462,0.0054210069444444444,0.39262027250136167,19.4,39,1016.3,5.23,3.44,137,3.38,0,14.169999999999998
2020-3-12 11:20,8000,2389.251480034722,186.69544048823136,0.4444001557256901,25.739239526269582,0.005223524305555556,0.3926429142837691,19.4,39,1016.3,5.23,3.57,144,3.56,0,14.169999999999998
2020-3-12 11:20,8000,2422.2580121527776,193.82565969429965,0.4469517120128574,25.55007115345213,0.005365668402777778,0.38523572814542484,19.4,39,1016.3,5.23,3.67,149,3.67,0,14.169999999999998
2020-3-12 11:20,8000,2488.3334114583336,193.66179568467203,0.44229524836796597,26.97979184794079,0.0052311197916666665,0.40829887918709146,19.5,39,1016.3,5.32,3.74,151,3.74,0,14.18
2020-3-12 11:21,8000,2523.4075434027777,197.34990123785408,0.4440286320330277,26.52413634327253,0.005412326388888889,0.3984401807598039,19.5,39,1016.3,5.32,3.72,152,3.71,0,14.18
2020-3-12 11:21,8000,2488.2792100694446,194.79816622840036,0.44192978425353036,26.71481599635552,0.005279947916666666,0.4006935210716231,19.5,39,1016.3,5.32,3.67,153,3.66,0,14.18
2020-3-12 11:21,8000,2516.874900173611,195.70379339795525,0.4431295975588585,26.74190436730829,0.005388454861111111,0.3993771148216231,19.5,39,1016.3,5.32,3.56,160,3.48,0,14.18
2020-3-12 11:21,8000,2499.221076388889,196.30163845486112,0.4432864537012878,26.78846957919394,0.005303819444444444,0.4016596966911765,19.5,38,1016.2,4.95,3.33,167,3.15,0,14.55
2020-3-12 11:22,8000,2523.001016,197.15309786515294,0.4433061088476,26.82562111432216,0.005437282986111111,0.4040106975081699,19.5,38,1016.2,4.95,3.11,175,2.77,0,14.55
2020-3-12 11:22,8000,2503.185642361111,195.35721354162422,0.4425749058742073,26.859331487101628,0.005281032986111111,0.4053570772058823,19.5,38,1016.2,4.95,2.88,181,2.42,0.01200000000000001,14.55
2020-3-12 11:22,8000,2523.4275520833335,197.83443575258133,0.4423081670951241,27.075831317930025,0.005383029513888889,0.40425611894063185,19.5,38,1016.2,4.95,2.74,186,2.16,0.025999999999999978,14.55
2020-3-12 11:22,8000,2508.064479166667,196.84052841949347,0.44271962802086756,27.041721280853654,0.005328776041666667,0.40401338252314817,19.8,40,1016.2,5.95,2.52,188,1.93,0.048,13.850000000000001
2020-3-12 11:23,8000,2510.6222005208333,196.14060546818007,0.4434726935003425,27.20016754338713,0.005351563,0.4034317001974401,19.8,40,1016.2,5.95,2.35,191,1.72,0.06499999999999999,13.850000000000001
2020-3-12 11:23,8000,2485.7928515625,194.26908094617937,0.44214511457196326,27.124486939386895,0.005261501736111111,0.4023933185253268,19.8,40,1016.2,5.95,2.14,192,1.54,0.08599999999999998,13.850000000000001
2020-3-12 11:23,8000,2501.231558159722,195.70069878404414,0.44315787231195164,27.107233590484842,0.005340711805555555,0.4017449916598584,19.8,40,1016.2,5.95,1.97,188,1.51,0.103,13.850000000000001
2020-3-12 11:23,8000,2486.6597916666665,196.66448676214225,0.4435659948244129,26.973692683179788,0.005224609,0.3989440487132353,19.8,37,1016.2,4.84,1.87,184,1.51,0.11299999999999999,14.96
2020-3-12 11:24,8000,2517.8415885416666,196.16577906761165,0.44271297435567897,27.11137144690017,0.005445963541666667,0.39827825435729847,19.8,37,1016.2,4.84,1.76,187,1.37,0.124,14.96
2020-3-12 11:24,8000,2462.4966493055554,193.08066080630155,0.4441523123814567,26.664106898276902,0.005311414930555556,0.3934067436002179,19.8,37,1016.2,4.84,1.64,190,1.22,0.136,14.96
2020-3-12 11:24,8000,2501.3409635416665,198.73072482591792,0.4450400011932236,26.685842503261384,0.005386284722222222,0.391787313623366,19.8,37,1016.2,4.84,1.42,187,1.11,0.158,14.96
2020-3-12 11:24,8000,2482.9817491319445,194.84262803819445,0.4442179439141229,26.645973479983294,0.005327690972222222,0.3912792458129085,19.8,38,1016.1,5.22,1.47,180,1.25,0.153,14.580000000000002
2020-3-12 11:25,8000,2490.848567708333,195.127670348178,0.4438936025193601,26.63849167847257,0.005413411458333333,0.392176947167756,19.8,38,1016.1,5.22,1.54,173,1.39,0.146,14.580000000000002
2020-3-12 11:25,8000,2443.9648524305558,192.17532117975975,0.4440749128663329,26.56751262138772,0.005289713541666667,0.3909414743327887,19.8,38,1016.1,5.22,1.55,167,1.47,0.145,14.580000000000002
2020-3-12 11:25,8000,2470.1880989583333,194.26137478292839,0.44328679197872095,26.662297373339825,0.005379774305555555,0.38931575946350766,19.8,38,1016.1,5.22,1.59,161,1.55,0.141,14.580000000000002
2020-3-12 11:25,8000,2464.0776953125,193.59062608504004,0.4436656568448422,26.630862838224093,0.005316840277777778,0.39094438061683007,19.7,38,1016.1,5.13,1.71,154,1.7,0.129,14.57
2020-3-12 11:26,8000,2490.2467491319444,195.35138236850693,0.44508669637540255,26.461384524518444,0.005352647569444444,0.3914073095383987,19.7,38,1016.1,5.13,1.85,140,1.83,0.11499999999999999,14.57
2020-3-12 11:26,8000,2468.7027864583333,192.43931740485178,0.44390016352131373,26.506440828956272,0.005230034722222222,0.392876399952342,19.7,38,1016.1,5.13,1.98,130,1.89,0.10200000000000001,14.57
2020-3-12 11:26,8000,2464.878064236111,194.3305924122704,0.44364625234311383,26.609286839711555,0.005345052083333334,0.38882678887527233,19.7,38,1016.1,5.13,2.09,127,1.95,0.09100000000000001,14.57
2020-3-12 11:26,8000,2449.8775130208332,191.72053819440214,0.44437142921643213,26.290623604477947,0.005303819444444444,0.38590532237200437,19.8,39,1016.1,5.59,2.05,129,1.94,0.09500000000000001,14.21
2020-3-12 11:27,8000,2461.3585980902776,192.721327031424,0.4445737016300439,26.448065826020244,0.005281032986111111,0.3909133646514161,19.8,39,1016.1,5.59,1.98,128,1.86,0.10200000000000001,14.21
2020-3-12 11:27,8000,2431.1906814236113,190.66274196920406,0.4431327625422126,26.50649365503977,0.005196397569444444,0.3903101468886166,19.8,39,1016.1,5.59,2.02,130,1.92,0.09799999999999999,14.21
2020-3-12 11:27,8000,2469.433628472222,193.32322590334738,0.44327367571741105,26.341446631902503,0.0052973090277777775,0.3869660692401961,19.8,39,1016.1,5.59,2.09,128,1.96,0.09100000000000001,14.21
2020-3-12 11:27,8000,2441.8516927083333,192.3528428794532,0.44351133312461916,26.436079077072517,0.005205078,0.38975794441040307,19.7,38,1016.1,5.13,2.22,124,2.03,0.07799999999999999,14.57
2020-3-12 11:28,8000,2461.692517361111,192.28806422657425,0.44403539283630805,26.364965014185316,0.005352647569444444,0.3880713933142702,19.7,38,1016.1,5.13,2.35,121,2.09,0.06499999999999999,14.57
2020-3-12 11:28,8000,2431.870638020833,190.91740451218874,0.44421034091975203,26.1264544875014,0.005240885416666666,0.3865664488017429,19.7,38,1016.1,5.13,2.42,118,2.1,0.058,14.57
2020-3-12 11:28,8000,2460.941284722222,193.74806423066687,0.4441887118513149,26.195068575440086,0.005315755208333333,0.38841956444035947,19.7,38,1016.1,5.13,2.58,114,2.14,0.041999999999999996,14.57
2020-3-12 11:28,8000,2414.3327560763887,189.19936194433512,0.4442566852578561,25.810796022556733,0.005287543402777778,0.3856366591775599,19.8,40,1016.1,5.95,2.74,109,2.13,0.025999999999999978,13.850000000000001
2020-3-12 11:29,8000,2467.6384657118056,193.14853510029639,0.4434104210248918,26.23439113881966,0.005363498263888889,0.39115939882897605,19.8,40,1016.1,5.95,2.85,109,2.22,0.014999999999999989,13.850000000000001
2020-3-12 11:29,8000,2443.008884548611,190.6523426631399,0.44383914913383243,26.01293983818815,0.005256076388888889,0.3858878889229303,19.8,40,1016.1,5.95,2.91,105,2.13,0.008999999999999985,13.850000000000001
2020-3-12 11:29,8000,2459.5185633680558,193.40074975170447,0.4447353099674187,25.892667978702217,0.005330946180555555,0.38268569155092597,19.8,40,1016.1,5.95,2.87,106,2.13,0.012999999999999989,13.850000000000001
2020-3-12 11:29,8000,2474.7023958333334,194.96503146039117,0.4451812727591086,26.290158008158492,0.0052669270833333335,0.38748673662173205,19.7,38,1016.1,5.13,2.67,110,2.11,0.03300000000000001,14.57
2020-3-12 11:30,8000,2471.7521831597223,194.60280707134552,0.4449008829230411,26.13391170164448,0.005286458333333333,0.3856594626565904,19.7,38,1016.1,5.13,2.62,116,2.22,0.037999999999999985,14.57
2020-3-12 11:30,7000,2420.327105034722,189.8930805105409,0.444065076999296,26.24366714529144,0.005218098958333334,0.38699812772331155,19.7,38,1016.1,5.13,2.61,123,2.37,0.03900000000000001,14.57
2020-3-12 11:30,8000,2460.180998263889,192.58607530268787,0.4440635257570292,26.371323011719888,0.005303819444444444,0.3897469575503813,19.7,38,1016.1,5.13,2.66,129,2.52,0.03399999999999998,14.57
2020-3-12 11:30,8000,2432.1957335069446,194.0891590667996,0.4465245121705577,26.075095089406418,0.005253906,0.3883415500748911,19.6,40,1016.1,5.77,2.69,135,2.62,0.031000000000000003,13.830000000000002
2020-3-12 11:31,8000,2474.9196961805555,195.9192165759004,0.44570251761288776,26.322667390707867,0.005348307291666667,0.3900278628812636,19.6,40,1016.1,5.77,2.72,139,2.69,0.02799999999999998,13.830000000000002
2020-3-12 11:31,8000,2449.2404166666665,193.60922847956795,0.44516627170167705,26.16808915068231,0.0052278645833333335,0.3905480451729303,19.6,40,1016.1,5.77,2.69,142,2.68,0.031000000000000003,13.830000000000002
2020-3-12 11:31,8000,2487.330134548611,194.18584201371934,0.4426349468620572,26.51471588347226,0.005349392361111111,0.3929827154820261,19.6,40,1016.1,5.77,2.75,143,2.74,0.024999999999999998,13.830000000000002
2020-3-12 11:31,7000,2501.425824652778,197.14668185706893,0.44436966183758286,26.742127802252007,0.0052973090277777775,0.40044095945669933,19.7,39,1016.1,5.5,2.89,142,2.87,0.010999999999999987,14.2
2020-3-12 11:32,8000,2544.1982421875,198.2949804592131,0.44292937807729066,26.87902906632189,0.005349392361111111,0.40428188402096954,19.7,39,1016.1,5.5,2.94,137,2.89,0.006000000000000005,14.2
2020-3-12 11:32,8000,2516.552261284722,196.8644433593739,0.4436204267234991,26.934265654309332,0.005236545138888889,0.4043300696146514,19.7,39,1016.1,5.5,3.02,135,2.94,0,14.2
2020-3-12 11:32,8000,2520.676228298611,196.6678092426146,0.4428000107111641,26.79562221713298,0.005313585069444444,0.40326206767429196,19.7,39,1016.1,5.5,3.04,135,2.96,0,14.2
2020-3-12 11:32,7000,2508.2859157986113,195.58889538890222,0.4424601960208345,26.737764503233112,0.005322266,0.40407490808823526,19.7,40,1016.1,5.86,3.07,130,2.92,0,13.84
2020-3-12 11:33,7000,2547.1038107638888,197.89844397951754,0.44310058750661196,26.98000297012013,0.0053363715277777776,0.4049963575708061,19.7,40,1016.1,5.86,3.19,126,2.95,0,13.84
2020-3-12 11:33,7000,2501.647969,194.10776041478297,0.4429383129531476,26.907356455979667,0.005223524305555556,0.4043355715550109,19.7,40,1016.1,5.86,3.42,123,3.1,0,13.84
2020-3-12 11:33,7000,2512.4822743055556,196.36130859147056,0.4437211651250519,26.9900865190211,0.005320095486111111,0.40336949380446624,19.7,40,1016.1,5.86,3.62,121,3.22,0,13.84
2020-3-12 11:33,7000,2475.686506076389,192.82507920789246,0.4429379808141077,26.76265342954212,0.0052311197916666665,0.4001311700027233,19.9,41,1016,6.4,3.68,120,3.25,0,13.499999999999998
2020-3-12 11:34,7000,2499.5109982638887,195.72083441402165,0.444175787033093,26.75033881360866,0.005385199652777777,0.39882332516339875,19.9,41,1016,6.4,3.74,121,3.33,0,13.499999999999998
2020-3-12 11:34,7000,2481.949205729167,195.08417534629913,0.4453914993077613,26.707582020523894,0.005257161458333334,0.39699639586737473,19.9,41,1016,6.4,3.79,120,3.35,0,13.499999999999998
2020-3-12 11:34,7000,2498.8112543402776,196.56168076874422,0.4430530831594093,26.759870118658732,0.005356987847222223,0.3992756629561547,19.9,41,1016,6.4,3.76,118,3.25,0,13.499999999999998
2020-3-12 11:34,7000,2526.479917534722,197.8547580290889,0.44395446183927695,27.00793963853519,0.005362413194444445,0.4034712903390523,19.7,39,1016,5.5,3.65,121,3.25,0,14.2
2020-3-12 11:35,7000,2546.8581553819445,198.91729488330301,0.4430517535281818,27.027486166895738,0.005378689236111111,0.4035986604711329,19.7,39,1016,5.5,3.51,123,3.18,0,14.2
2020-3-12 11:35,7000,2491.0710373263887,195.55260850664308,0.44466038226101734,26.889394397235513,0.0052669270833333335,0.3983962290645425,19.7,39,1016,5.5,3.35,127,3.13,0,14.2
2020-3-12 11:35,7000,2515.9236762152777,197.1353157485857,0.44413289648362386,26.274958811919326,0.005365668402777778,0.3950460920479303,19.7,39,1016,5.5,3.14,128,2.95,0,14.2
2020-3-12 11:35,7000,2382.0277235243057,185.31499207503592,0.44434077331548427,25.44843849327558,0.005271267361111111,0.37839229302832245,19.6,41,1016,6.13,3.03,128,2.85,0,13.470000000000002
2020-3-12 11:36,7000,2526.364688,198.24675130116037,0.4466001557967207,25.578809812989395,0.0054481336805555555,0.3787066950912309,19.6,41,1016,6.13,3.03,128,2.84,0,13.470000000000002
2020-3-12 11:36,7000,2476.9397699652777,192.59526149955914,0.4428123027074182,26.70559813913064,0.0053211805555555556,0.395721839256536,19.6,41,1016,6.13,3.12,128,2.93,0,13.470000000000002
2020-3-12 11:36,7000,2443.2992664930557,193.448161442693,0.4460790333772085,25.903576380123493,0.005366753472222222,0.3863734043096405,19.6,41,1016,6.13,3.27,131,3.13,0,13.470000000000002
2020-3-12 11:36,7000,2415.833498263889,190.2882623925846,0.44509659920507877,26.389063512373262,0.0053092447916666665,0.3888795104847495,19.9,41,1016,6.4,3.48,132,3.35,0,13.499999999999998
2020-3-12 11:37,7000,2419.1199913194446,187.11186375596318,0.4412400040216902,26.37083944737598,0.005351563,0.39903981141067535,19.9,41,1016,6.4,3.7,131,3.54,0,13.499999999999998
2020-3-12 11:37,7000,2337.883823784722,181.89230143214922,0.4441126658106581,25.011595705885636,0.005265842013888889,0.37611443440223313,19.9,41,1016,6.4,4.01,129,3.79,0,13.499999999999998
2020-3-12 11:37,7000,2570.779318576389,205.76949521786617,0.4451946098644247,26.447263500952836,0.005338541666666667,0.4125538449754902,19.9,41,1016,6.4,4.29,132,4.12,0,13.499999999999998
2020-3-12 11:37,7000,2476.8799131944443,194.6833051132202,0.4438829073921154,26.45522043045296,0.005228949652777778,0.4044753370098039,19.9,41,1015.9,6.4,4.5,135,4.39,0,13.499999999999998
2020-3-12 11:38,7000,2434.213003472222,191.10897352350963,0.445533631362519,25.494780325529923,0.005396050347222223,0.37963526348039217,19.9,41,1015.9,6.4,4.56,137,4.48,0,13.499999999999998
2020-3-12 11:38,7000,2416.413580729167,190.24942473958336,0.4452202590261519,25.681981544696278,0.0052973090277777775,0.3901386293232571,19.9,41,1015.9,6.4,4.49,138,4.42,0,13.499999999999998
2020-3-12 11:38,7000,2510.9151866319444,196.21283732603925,0.44189042999761763,26.96009990254096,0.005328776041666667,0.4093560559640523,19.9,41,1015.9,6.4,4.32,137,4.24,0,13.499999999999998
2020-3-12 11:38,7000,2415.032113715278,191.00459958181384,0.44666578512903193,25.670389551350855,0.005334201388888889,0.38209953278186276,19.7,40,1015.9,5.86,4.33,135,4.22,0,13.84
2020-3-12 11:39,6000,2546.3820486111113,197.3319704390161,0.441514606771243,26.590422274464974,0.005457899305555555,0.4118641663262527,19.7,40,1015.9,5.86,4.28,135,4.17,0,13.84
2020-3-12 11:39,6000,2489.4766015625,194.46377276238226,0.4426561312795554,26.510536676567735,0.0053125,0.40448026024645967,19.7,40,1015.9,5.86,4.04,135,3.94,0,13.84
2020-3-12 11:39,6000,2515.3476258680557,197.69573648975395,0.44366025107866347,26.31873752645627,0.005356987847222223,0.4055084380106209,19.7,40,1015.9,5.86,3.89,134,3.77,0,13.84
2020-3-12 11:39,6000,2465.6447569444445,191.94763237677208,0.4433204602742016,25.78744583174962,0.0053125,0.3888813316993464,19.4,40,1015.9,5.59,3.69,132,3.55,0,13.809999999999999
2020-3-12 11:40,6000,2472.7722786458335,191.8180251511892,0.44322773302666857,25.730723607756858,0.005314670138888889,0.3851639518654684,19.4,40,1015.9,5.59,3.47,131,3.31,0,13.809999999999999
2020-3-12 11:40,6000,2434.9426519097224,190.62875866525437,0.44310382736720044,25.841667514379687,0.0052701822916666665,0.38747141373910676,19.4,40,1015.9,5.59,3.32,130,3.16,0,13.809999999999999
2020-3-12 11:40,6000,2474.6850868055553,193.74940429126949,0.4438590473901285,25.853316929577186,0.005320095486111111,0.3895696827342048,19.4,40,1015.9,5.59,3.33,129,3.15,0,13.809999999999999
2020-3-12 11:40,6000,2514.019982638889,196.2762651892721,0.44316698201968396,26.412030735605555,0.005363498263888889,0.4012005931712963,19.5,42,1015.9,6.38,3.21,128,3.02,0,13.120000000000001
2020-3-12 11:41,6000,2503.281875,195.68653210166173,0.44304011511971103,26.500798639958685,0.005465494791666667,0.40022637101715686,19.5,42,1015.9,6.38,3.13,127,2.92,0,13.120000000000001
2020-3-12 11:41,6000,2478.8327170138887,193.76326063206886,0.44291491421363366,26.094363786197448,0.005384114583333334,0.3888772637527233,19.5,42,1015.9,6.38,3.09,127,2.89,0,13.120000000000001
2020-3-12 11:41,7000,2477.9109027777777,193.15497284349868,0.44270328743347614,26.083326947744286,0.005358072916666666,0.3930460367306645,19.5,42,1015.9,6.38,2.91,124,2.66,0.008999999999999985,13.120000000000001
2020-3-12 11:41,7000,2493.918559027778,195.761312934023,0.44373556112189777,26.240799530116195,0.005384114583333334,0.3961714622480937,19.5,41,1015.9,6.04,2.73,125,2.52,0.027000000000000003,13.46
2020-3-12 11:42,7000,2496.675798611111,196.07182183031503,0.4428742452234357,26.291149555474433,0.005368923611111111,0.3943519284449891,19.5,41,1015.9,6.04,2.61,122,2.34,0.03900000000000001,13.46
2020-3-12 11:42,7000,2489.007109,195.65442708329087,0.443644862089237,26.214814944567454,0.005403645833333333,0.3950620149101307,19.5,41,1015.9,6.04,2.61,119,2.28,0.03900000000000001,13.46
2020-3-12 11:42,7000,2478.945177951389,194.9947450084815,0.44409827223155646,26.23177765546984,0.005392795138888889,0.3916421526075708,19.5,41,1015.9,6.04,2.59,116,2.2,0.041000000000000016,13.46
2020-3-12 11:42,7000,2480.4363064236113,193.53670138278537,0.44338963431176687,26.228416414064753,0.005388454861111111,0.39320794185729846,19.6,41,1015.8,6.13,2.52,116,2.14,0.048,13.470000000000002
2020-3-12 11:43,7000,2488.820234,193.8353993055132,0.44269693578649566,26.231467457130982,0.005319010416666666,0.3965852396514161,19.6,41,1015.8,6.13,2.58,116,2.19,0.041999999999999996,13.470000000000002
2020-3-12 11:43,7000,2495.997868923611,195.44239691840164,0.4433124136242321,26.313581744009618,0.0053092447916666665,0.40170886097494557,19.6,41,1015.8,6.13,2.67,118,2.31,0.03300000000000001,13.470000000000002
2020-3-12 11:43,7000,2484.6427994791666,196.258280146534,0.44406399687042225,26.310221817142068,0.005299479166666667,0.39788214443763614,19.6,41,1015.8,6.13,3.03,125,2.79,0,13.470000000000002
2020-3-12 11:43,7000,2489.2813411458333,196.2773220474055,0.4439568484587,26.3898460894463,0.005387369791666667,0.3978254655160675,19.9,41,1015.8,6.4,3.37,128,3.17,0,13.499999999999998
2020-3-12 11:44,7000,2511.679709201389,197.77728515519033,0.44320429516045556,26.48790004008005,0.005398220486111111,0.39976275275735296,19.9,41,1015.8,6.4,3.56,135,3.47,0,13.499999999999998
2020-3-12 11:44,8000,2480.8531770833333,193.7886816329003,0.44370386157768404,26.098185522888414,0.005390625,0.392142301538671,19.9,41,1015.8,6.4,3.65,143,3.64,0,13.499999999999998
2020-3-12 11:44,8000,2481.458020833333,192.46712239579094,0.4429720570791299,25.96509274418413,0.0054210069444444444,0.3885135740059913,19.9,41,1015.8,6.4,3.85,149,3.85,0,13.499999999999998
2020-3-12 11:44,8000,2449.5021527777776,192.72977322045668,0.443763373113659,25.76652841258622,0.005445963541666667,0.38841367527913945,20,39,1015.8,5.77,3.99,152,3.98,0,14.23
2020-3-12 11:45,9000,2513.5191753472222,195.35707349587784,0.44195984582422637,26.142688589189113,0.00546875,0.4050890480324074,20,39,1015.8,5.77,3.99,155,3.96,0,14.23
2020-3-12 11:45,9000,2488.4674522569444,192.21523003471748,0.44223982390110106,26.408324464181348,0.005381944444444444,0.40188594430827884,20,39,1015.8,5.77,4.1,157,4.05,0,14.23
2020-3-12 11:45,8000,2493.7792274305557,195.53230576728413,0.442523502425281,26.205609163861098,0.005381944444444444,0.4022829393041939,20,39,1015.8,5.77,4.02,157,3.97,0,14.23
2020-3-12 11:45,8000,2522.870607638889,197.129654947912,0.4422426182094255,26.6352231772525,0.005410156,0.40730112591911766,20.1,36,1015.8,4.71,4.04,157,3.99,0,15.39
2020-3-12 11:46,8000,2518.997478298611,197.00154404853419,0.4427761889253024,26.68237759055726,0.005406901041666667,0.40490474366830065,20.1,36,1015.8,4.71,4.19,157,4.14,0,15.39
2020-3-12 11:46,8000,2485.652478298611,194.3012055119538,0.4434326876627507,26.532215492528792,0.005396050347222223,0.4019352234817538,20.1,36,1015.8,4.71,4.26,157,4.21,0,15.39
2020-3-12 11:46,8000,2509.862855902778,198.42382703583218,0.44430676937780605,26.45431686072233,0.005389539930555556,0.39832178053513073,20.1,36,1015.8,4.71,4.11,156,4.07,0,15.39
2020-3-12 11:46,8000,2512.943672,196.99645073685693,0.44412270059993264,26.702131230417532,0.005403645833333333,0.4052761863425926,20.1,37,1015.8,5.11,3.99,155,3.96,0,14.990000000000002
2020-3-12 11:47,8000,2496.5006119791665,196.00186630813693,0.44352884148726346,26.472290264738035,0.005340711805555555,0.40204748348992375,20.1,37,1015.8,5.11,3.7,151,3.69,0,14.990000000000002
2020-3-12 11:47,8000,2504.131423611111,195.47504882812387,0.443193958307877,26.469991569935605,0.005292969,0.40292848754084964,20.1,37,1015.8,5.11,3.29,145,3.28,0,14.990000000000002
2020-3-12 11:47,8000,2495.3375824652776,194.46731769460047,0.4423931639542448,26.281392780244182,0.005307074652777778,0.4035185610702614,20.1,37,1015.8,5.11,3,140,2.97,0,14.990000000000002
2020-3-12 11:47,8000,2497.4974348958335,194.81002061487723,0.4435659897412505,26.673585101943946,0.0053211805555555556,0.4005787505106209,20,36,1015.8,4.62,2.69,138,2.65,0.031000000000000003,15.379999999999999
2020-3-12 11:48,8000,2467.3615581597223,194.11303818019817,0.44425696222702815,25.98438658488356,0.005303819444444444,0.39624102583741827,20,36,1015.8,4.62,2.36,137,2.32,0.06400000000000002,15.379999999999999
2020-3-12 11:48,8000,2491.2327777777778,195.42152235191134,0.4441318274391098,26.509669409200324,0.005360243055555556,0.4063594898897059,20,36,1015.8,4.62,2.12,136,2.08,0.08799999999999998,15.379999999999999
2020-3-12 11:48,7000,2496.6819401041666,195.21701277019244,0.44313280086490353,26.266488461543442,0.005326605902777778,0.39878855187908496,20,36,1015.8,4.62,2.11,138,2.08,0.08900000000000001,15.379999999999999
2020-3-12 11:48,7000,2485.650941840278,194.8214843749247,0.44363953857061106,26.356417229903418,0.005354817708333333,0.39756992953431375,19.8,37,1015.7,4.84,2.28,141,2.26,0.07200000000000002,14.96
2020-3-12 11:49,7000,2483.9425520833333,193.42929793666204,0.443056696540446,25.950061278057127,0.005343967013888889,0.3970068721064815,19.8,37,1015.7,4.84,2.58,144,2.58,0.041999999999999996,14.96
2020-3-12 11:49,8000,2470.375234,194.78596459390036,0.44438687748334416,26.200798661002796,0.005360243055555556,0.39868371715005446,19.8,37,1015.7,4.84,2.8,150,2.8,0.020000000000000014,14.96
2020-3-12 11:49,8000,2505.458572048611,195.16198348516775,0.4420507999727943,26.38052696616807,0.005335286458333333,0.4005341860702614,19.8,37,1015.7,4.84,2.91,154,2.89,0.008999999999999985,14.96
2020-3-12 11:49,8000,2494.6388802083334,193.77513776176247,0.4429136499815424,26.32774526220838,0.005345052083333334,0.40047367749183005,19.8,38,1015.7,5.22,3,155,2.98,0,14.580000000000002
2020-3-12 11:50,8000,2524.8473567708334,196.70132050475962,0.44325830859099213,26.332554370064397,0.005374348958333333,0.3989142880242375,19.8,38,1015.7,5.22,3.1,155,3.08,0,14.580000000000002
2020-3-12 11:50,8000,2491.5329557291666,194.07660589700868,0.44315927540364664,26.44031994977149,0.005314670138888889,0.398474405126634,19.8,38,1015.7,5.22,3.18,153,3.17,0,14.580000000000002
2020-3-12 11:50,8000,2517.0058116319447,196.13273545568842,0.4428529726080441,26.440552883241256,0.005325520833333333,0.3991095281862745,19.8,38,1015.7,5.22,3.21,151,3.2,0,14.580000000000002
2020-3-12 11:50,8000,2503.3255208333335,196.51939338115994,0.44284637322714704,26.39775569745889,0.005359157986111111,0.40174048117510897,19.7,37,1015.7,4.75,3.18,150,3.18,0,14.95
2020-3-12 11:51,8000,2524.2527821180556,196.11869678307872,0.4426340465145686,26.6201785024262,0.005367838541666667,0.402645973754085,19.7,37,1015.7,4.75,3.1,151,3.09,0,14.95
2020-3-12 11:51,8000,2512.0511631944446,195.66329752598392,0.4418009034316661,26.811907487639292,0.005385199652777777,0.4034009055010893,19.7,37,1015.7,4.75,2.99,152,2.99,0.0009999999999999788,14.95
2020-3-12 11:51,8000,2511.576349826389,196.00771158791883,0.4424323842264634,26.793909733859866,0.005370008680555555,0.40246352464596946,19.7,37,1015.7,4.75,2.93,153,2.92,0.006999999999999984,14.95
2020-3-12 11:51,8000,2514.326818576389,197.16700412240556,0.44392726163990964,26.69580404562227,0.005385199652777777,0.4033110191993464,19.7,38,1015.6,5.13,2.86,153,2.85,0.014000000000000012,14.57
2020-3-12 11:52,8000,2513.2240104166667,196.19698350298384,0.44393598970609993,26.850120877888948,0.005367838541666667,0.4029625374455338,19.7,38,1015.6,5.13,2.93,154,2.92,0.006999999999999984,14.57
2020-3-12 11:52,8000,2504.1222309027776,195.59414605031776,0.4431568326476652,26.67962155293228,0.005338541666666667,0.40286525565087145,19.7,38,1015.6,5.13,2.85,157,2.81,0.014999999999999989,14.57
2020-3-12 11:52,8000,2522.393967013889,198.0091221780836,0.4439713522694095,26.845574088249954,0.005389539930555556,0.4040510918777233,19.7,38,1015.6,5.13,2.6,159,2.55,0.03999999999999999,14.57
2020-3-12 11:52,8000,2522.3372222222224,195.80734700519776,0.44271187013861873,26.639463440756707,0.005372178819444445,0.4023263931440632,19.8,37,1015.6,4.84,2.28,159,2.24,0.07200000000000002,14.96
2020-3-12 11:53,8000,2511.1991710069447,196.2714973926497,0.44236844069319115,26.90782887581555,0.005380859,0.40419268705746186,19.8,37,1015.6,4.84,2.12,162,2.05,0.08799999999999998,14.96
2020-3-12 11:53,8000,2525.964982638889,197.57423936631827,0.4439810383098626,27.042533166539087,0.005333116319444445,0.4035927670547385,19.8,37,1015.6,4.84,2.09,164,2.01,0.09100000000000001,14.96
2020-3-12 11:53,8000,2508.651840277778,198.55749889769265,0.4435944211581236,26.764452759117376,0.005326605902777778,0.40194727839052286,19.8,37,1015.6,4.84,2.02,169,1.89,0.09799999999999999,14.96
2020-3-12 11:53,8000,2494.165941840278,195.27717556013766,0.4431331873384629,26.95748221808058,0.005310329861111111,0.40297011165577346,19.8,36,1015.5,4.45,1.97,174,1.77,0.103,15.350000000000001
2020-3-12 11:54,8000,2448.024509548611,192.55161012697107,0.4453666292582068,25.40006313515114,0.005363498263888889,0.38478404139433553,19.8,36,1015.5,4.45,1.73,174,1.55,0.127,15.350000000000001
2020-3-12 11:54,8000,2457.0231814236113,194.20906574502519,0.44623629563400674,25.96157939733528,0.005372178819444445,0.38749840856481477,19.8,36,1015.5,4.45,1.62,172,1.48,0.13799999999999998,15.350000000000001
2020-3-12 11:54,8000,2523.8069444444445,198.94958766937262,0.444226424308782,26.96553643789786,0.0053363715277777776,0.4029129433891612,19.8,36,1015.5,4.45,1.66,166,1.58,0.134,15.350000000000001
2020-3-12 11:54,8000,4463.0119921875,364.8364637420079,0.4588757459246627,18.11115444626932,0.005961371527777778,0.2927987089801198,19.8,37,1015.5,4.84,1.78,163,1.72,0.122,14.96
2020-3-12 11:55,8000,2515.362912326389,199.88235460031302,0.4439330989744869,25.846647075230617,0.005327690972222222,0.4223960928989651,19.8,37,1015.5,4.84,1.78,156,1.76,0.122,14.96
2020-3-12 11:55,8000,5098.8094270833335,403.95222334118955,0.4507782378152186,18.67396932020247,0.005447048611111111,0.1901087962962963,19.8,37,1015.5,4.84,1.74,150,1.73,0.126,14.96
2020-3-12 11:55,8000,2180.5315907118056,219.638543835746,0.47595211010797556,25.16468832333514,0.005425347222222222,0.4548156232979303,19.8,37,1015.5,4.84,1.86,143,1.85,0.11399999999999998,14.96
2020-3-12 11:55,8000,2452.7779036458332,193.1948882350204,0.4440374021635413,22.69452241332532,0.005415581597222222,0.414568942333878,19.8,37,1015.4,4.84,2.13,134,2.06,0.08700000000000001,14.96
2020-3-12 11:56,8000,4394.825358072917,351.7501694685572,0.45625728702332935,18.303911142513925,0.005298394097222222,0.2510111953635621,19.8,37,1015.4,4.84,2.45,129,2.32,0.05499999999999998,14.96
2020-3-12 11:56,8000,2546.997404513889,197.0778551790968,0.4379725526377458,23.513304177957277,0.005221354166666667,0.42855631297657953,19.8,37,1015.4,4.84,2.79,127,2.6,0.020999999999999998,14.96
2020-3-12 11:56,8000,4597.846558159722,371.10855351532365,0.4546426683802344,18.327961817270072,0.0054177517361111115,0.23614373127723312,19.8,37,1015.4,4.84,3.04,129,2.87,0,14.96
2020-3-12 11:56,8000,2462.9120703125,192.89943141136172,0.4419768754906165,26.10536012673948,0.005364583333333333,0.4090120634191176,19.8,38,1015.4,5.22,3.36,128,3.15,0,14.580000000000002
2020-3-12 11:57,8000,5029.374058159722,399.3412021145185,0.4540600041678605,18.34592285525857,0.005410156,0.1963556219362745,19.8,38,1015.4,5.22,3.58,130,3.4,0,14.580000000000002
2020-3-12 11:57,8000,2376.4196440972223,188.28856336725968,0.4410189555900473,24.675410077962187,0.005244141,0.4399584652437364,19.8,38,1015.4,5.22,3.85,133,3.72,0,14.580000000000002
2020-3-12 11:57,8000,2400.3640711805556,189.3166686026067,0.44495663690039283,25.80649886292516,0.005217013888888889,0.39327386301742917,19.8,38,1015.4,5.22,4.08,135,3.98,0,14.580000000000002
2020-3-12 11:57,8000,2434.6376844618057,189.0611002590557,0.4424430114863706,26.1255862611405,0.005213758680555555,0.39388779530909585,19.9,39,1015.4,5.68,4.15,139,4.1,0,14.219999999999999
2020-3-12 11:58,9000,2496.1946571180556,195.21481868243643,0.4430542580622159,26.965327531609812,0.005273438,0.40307329112200435,19.9,39,1015.4,5.68,4.19,146,4.19,0,14.219999999999999
2020-3-12 11:58,9000,2426.6687369791666,190.14940297760674,0.4435379870289687,26.3824468952177,0.005356987847222223,0.3906894914215686,19.9,39,1015.4,5.68,4.23,152,4.22,0,14.219999999999999
2020-3-12 11:58,8000,2393.611406,186.62293395882605,0.44487500587036827,25.825214768906914,0.005288628472222222,0.390974507250817,19.9,39,1015.4,5.68,4.25,157,4.2,0,14.219999999999999
2020-3-12 11:58,8000,2405.36001953125,188.1656130440311,0.4436890329258647,25.727011404037828,0.0052669270833333335,0.3995422794117647,19.9,36,1015.4,4.54,4.08,160,4,0,15.36
2020-3-12 11:59,8000,2488.398559027778,194.43089842753466,0.4437163795419803,26.28583549992753,0.005314670138888889,0.3891069963575708,19.9,36,1015.4,4.54,3.95,163,3.81,0,15.36
2020-3-12 11:59,8000,2452.0778493923613,191.2484113981977,0.44234548027584414,26.552270210518824,0.005261501736111111,0.4007876455269608,19.9,36,1015.4,4.54,3.87,165,3.7,0,15.36
2020-3-12 11:59,8000,2527.1971354166667,195.17025052048356,0.4407014072269437,27.313588638789962,0.005238715277777778,0.4062228392224945,19.9,36,1015.4,4.54,3.72,165,3.56,0,15.36
2020-3-12 11:59,8000,2440.674470486111,192.2009677702538,0.4449205287922385,26.275159683708385,0.005290798611111111,0.39120679721541396,19.7,36,1015.4,4.36,3.58,162,3.47,0,15.34
2020-3-12 12:00,8000,2477.8674479166666,194.8047710018288,0.4464328215494372,25.491724515463083,0.0052007378472222225,0.3783170019744008,19.7,36,1015.4,4.36,3.61,157,3.57,0,15.34
2020-3-12 12:00,8000,2473.4524197048613,193.70521373593246,0.44306485113415955,27.139804622828034,0.005234375,0.39821140131399785,19.7,36,1015.4,4.36,3.46,152,3.46,0,15.34
2020-3-12 12:00,8000,2458.6884765625,192.11987845637952,0.442733991651343,26.545291637153852,0.005256076388888889,0.39376908871187366,19.7,36,1015.4,4.36,3.43,145,3.43,0,15.34
2020-3-12 12:00,8000,2369.0832421875,185.15295464336134,0.4458722842450891,24.871470358204714,0.0052940538194444445,0.36233619281045754,19.6,36,1015.4,4.27,3.37,137,3.31,0,15.330000000000002
2020-3-12 12:01,8000,2404.274895833333,190.7632378319211,0.448618329873223,25.213918414212472,0.005319010416666666,0.3669459507761438,19.6,36,1015.4,4.27,3.44,129,3.25,0,15.330000000000002
2020-3-12 12:01,8000,2473.4743663194445,193.71635623641777,0.4392403402805418,27.136222735738848,0.005241970486111111,0.42195022722630715,19.6,36,1015.4,4.27,3.45,122,3.1,0,15.330000000000002
2020-3-12 12:01,8000,2553.9561328125,199.63688456867249,0.4415826738230504,27.03018760441517,0.005259331597222222,0.40780676402505445,19.6,36,1015.4,4.27,3.45,117,2.96,0,15.330000000000002
2020-3-12 12:01,8000,2472.445247395833,195.0791047067418,0.44319567031828955,25.739352822106298,0.005335286458333333,0.38331904445806103,19.6,38,1015.3,5.04,3.46,113,2.84,0,14.560000000000002
2020-3-12 12:02,8000,2559.0496571180556,199.69817489205354,0.44135242965583643,26.847629916384147,0.005276692708333333,0.40009635842184094,19.6,38,1015.3,5.04,3.27,109,2.54,0,14.560000000000002
2020-3-12 12:02,8000,2487.464778645833,194.03590277760824,0.44252452967396655,25.609037222311095,0.005271267361111111,0.37895765676062093,19.6,38,1015.3,5.04,3.22,106,2.39,0,14.560000000000002
2020-3-12 12:02,8000,2495.357092013889,197.10867379165464,0.44532312725719997,25.014731644514267,0.0052517361111111115,0.38835612404684094,19.6,38,1015.3,5.04,3.13,105,2.29,0,14.560000000000002
2020-3-12 12:02,8000,2527.9535546875,197.26559893904317,0.44185356994931574,26.119282069394952,0.005334201388888889,0.4184207218477669,19.5,39,1015.3,5.32,3.13,106,2.33,0,14.18
2020-3-12 12:03,8000,2548.8575,199.98284613384544,0.4444198780301174,25.532568020924504,0.005277777777777778,0.3790365817333878,19.5,39,1015.3,5.32,3.09,108,2.37,0,14.18
2020-3-12 12:03,8000,2453.1134809027776,194.77483273285293,0.4438494430042767,25.97073841240588,0.005274522569444444,0.39889423338779956,19.5,39,1015.3,5.32,3.12,110,2.46,0,14.18
2020-3-12 12:03,8000,2470.392146267361,194.24742282476421,0.4432158940571499,25.28723697665415,0.005234375,0.384610438793573,19.5,39,1015.3,5.32,3.12,113,2.56,0,14.18
2020-3-12 12:03,8000,2526.4548480902777,197.657365429612,0.44266262394284434,26.728387455745388,0.005217013888888889,0.40757271667347494,19.6,39,1015.2,5.41,3.17,118,2.75,0,14.190000000000001
2020-3-12 12:04,8000,2537.7932335069445,196.5620887567013,0.44090061722758134,26.202961241962125,0.0052821180555555555,0.3980984392020697,19.6,39,1015.2,5.41,3.35,126,3.11,0,14.190000000000001
2020-3-12 12:04,8000,2486.2257942708334,196.59701057085462,0.4418811651257898,26.404973044791763,0.005351563,0.4055417858115469,19.6,39,1015.2,5.41,3.62,134,3.51,0,14.190000000000001
2020-3-12 12:04,8000,2518.198754340278,198.7985644515131,0.4432312719815001,25.808652539062308,0.005322266,0.39072104779411765,19.6,39,1015.2,5.41,3.83,142,3.81,0,14.190000000000001
2020-3-12 12:04,8000,2514.981019965278,197.6787868404389,0.443404877394286,25.896039823485907,0.005347222222222222,0.39437535317946626,19.6,39,1015.2,5.41,4,147,3.99,0,14.190000000000001
2020-3-12 12:05,8000,2560.4493229166665,200.1662369789971,0.44177405169986217,26.831386503966613,0.0052940538194444445,0.39516319018927015,19.6,39,1015.2,5.41,4.04,151,4.04,0,14.190000000000001
2020-3-12 12:05,8000,2502.2800824652777,197.12669475941124,0.4424518989935376,25.877593140274758,0.005348307291666667,0.392609272875817,19.6,39,1015.2,5.41,3.96,154,3.94,0,14.190000000000001
2020-3-12 12:05,8000,2495.713980034722,198.42296547867454,0.44400128579171233,25.57525347288252,0.005301649305555556,0.3865571555010893,19.6,39,1015.2,5.41,3.87,159,3.8,0,14.190000000000001
2020-3-12 12:05,8000,2404.940425347222,189.99868261688613,0.4419624005299265,25.51329780255581,0.005327690972222222,0.40125525514025057,19.7,38,1015.1,5.13,3.74,159,3.67,0,14.57
2020-3-12 12:06,8000,2368.452183159722,186.15064003325557,0.439706853341772,26.77730951874017,0.005353732638888889,0.41977760331563185,19.7,38,1015.1,5.13,3.54,158,3.48,0,14.57
2020-3-12 12:06,8000,2475.227170138889,194.5539355227989,0.4435972807133921,26.19227141757887,0.005425347222222222,0.38735455388752726,19.7,38,1015.1,5.13,3.22,156,3.19,0,14.57
2020-3-12 12:06,8000,2526.4985850694443,199.22645605581306,0.4446158466846323,26.17194438518647,0.005303819444444444,0.39106047879221134,19.7,38,1015.1,5.13,2.93,154,2.92,0.006999999999999984,14.57
2020-3-12 12:06,8000,2570.151762152778,201.68803491840953,0.4428033554794389,27.246279830667948,0.005365668402777778,0.4113143722766885,19.7,37,1015.1,4.75,2.67,155,2.65,0.03300000000000001,14.95
2020-3-12 12:07,8000,2477.830052083333,195.57093192627408,0.44236163016446595,26.52670366804091,0.005284288194444445,0.4095593171296297,19.7,37,1015.1,4.75,2.6,158,2.56,0.03999999999999999,14.95
2020-3-12 12:07,8000,2489.6618836805555,196.1062944421544,0.4413515653791893,27.148061722775083,0.005288628472222222,0.40844351256127454,19.7,37,1015.1,4.75,2.41,159,2.37,0.05899999999999998,14.95
2020-3-12 12:07,8000,2464.4025520833334,193.40825617208486,0.44305969398811046,25.54945089708586,0.005310329861111111,0.38101819087009803,19.7,37,1015.1,4.75,2.38,161,2.32,0.062000000000000006,14.95
2020-3-12 12:07,8000,2512.4392230902777,198.27891927079096,0.4438008700627882,26.757456873091183,0.0052973090277777775,0.3999233685661765,19.8,38,1015.1,5.22,2.39,166,2.28,0.060999999999999985,14.580000000000002
2020-3-12 12:08,8000,2500.741675347222,197.85754882633427,0.4437439622132539,26.766005544728937,0.005403645833333333,0.4008065002042484,19.8,38,1015.1,5.22,2.39,171,2.2,0.060999999999999985,14.580000000000002
2020-3-12 12:08,8000,2527.2125868055555,198.9477495365802,0.44342887337353154,27.098343666767203,0.005298394097222222,0.40652865434368196,19.8,38,1015.1,5.22,2.41,178,2.08,0.05899999999999998,14.580000000000002
2020-3-12 12:08,8000,2524.7050477430557,197.9394649555053,0.4415298500178781,27.251810586702067,0.005364583333333333,0.4013954461124728,19.8,38,1015.1,5.22,2.48,186,1.96,0.052,14.580000000000002
2020-3-12 12:08,9000,2614.9694791666666,206.55379665600688,0.4430052082379656,28.528515032888592,0.005363498263888889,0.3854526526756536,19.7,36,1015.1,4.36,2.54,193,1.8,0.04599999999999999,15.34
2020-3-12 12:09,9000,2546.489162326389,200.55373263570527,0.4452713841651037,27.17461616335324,0.005352647569444444,0.3879864217388344,19.7,36,1015.1,4.36,2.49,200,1.53,0.050999999999999976,15.34
2020-3-12 12:09,9000,2492.4162369791666,193.95264749467637,0.44262040086030885,26.79270978494833,0.005410156,0.3999862770629085,19.7,36,1015.1,4.36,2.79,206,1.48,0.020999999999999998,15.34
2020-3-12 12:09,9000,2411.0331119791667,191.2740687886509,0.44461826418363676,26.395622819480177,0.005329861111111111,0.39295399731072983,19.7,36,1015.1,4.36,3.13,208,1.57,0,15.34
2020-3-12 12:09,9000,2322.605026041667,180.49876730412615,0.4418961487475922,24.923013504585764,0.005356987847222223,0.3749294662309368,19.7,35,1015.2,3.96,3.5,204,1.96,0,15.739999999999998
2020-3-12 12:10,9000,2374.137266,187.80341874397067,0.446395619430295,25.117693975927846,0.005281032986111111,0.3857099034926471,19.7,35,1015.2,3.96,3.78,200,2.33,0,15.739999999999998
2020-3-12 12:10,9000,2379.385815972222,186.7072774946318,0.44438860355086574,25.75723492988039,0.005325520833333333,0.4008230698529412,19.7,35,1015.2,3.96,4.08,195,2.78,0,15.739999999999998
2020-3-12 12:10,9000,2381.8839887152776,187.55592663845485,0.4457609885647673,25.07256729258405,0.0053244357638888885,0.3904815282883987,19.7,35,1015.2,3.96,4.31,190,3.21,0,15.739999999999998
2020-3-12 12:10,8000,2417.2826627604168,189.70967772504898,0.4467676089268126,25.31519838413904,0.005315755208333333,0.3757977430555556,19.8,36,1015.1,4.45,4.53,186,3.57,0,15.350000000000001
2020-3-12 12:11,8000,2455.511657986111,191.67686302651188,0.4442415369525428,26.003266444125348,0.005411241319444445,0.39093590430964054,19.8,36,1015.1,4.45,4.74,182,3.93,0,15.350000000000001
2020-3-12 12:11,8000,2415.9405078125,189.11222326252192,0.44302287564201615,26.227671127079063,0.005352647569444444,0.4028630216843682,19.8,36,1015.1,4.45,4.72,178,4.09,0,15.350000000000001
2020-3-12 12:11,8000,2501.6379123263887,195.51683699712765,0.44230104195449405,26.772452373103686,0.005350477430555556,0.4042865689678649,19.8,36,1015.1,4.45,4.49,177,3.93,0,15.350000000000001
2020-3-12 12:11,8000,2473.3455164930556,194.78505640309652,0.44460552051261354,26.383313421081606,0.0053125,0.3903240570533769,19.8,38,1015.1,5.22,4.1,180,3.48,0,14.580000000000002
2020-3-12 12:12,8000,2494.0786024305557,193.38142360941086,0.4411564197964804,26.5576512890055,0.005361328,0.40067956409994554,19.8,38,1015.1,5.22,3.79,180,3.22,0,14.580000000000002
2020-3-12 12:12,8000,2468.8321484375,192.94341685005358,0.4431749774875702,26.60169012312932,0.005361328,0.4046727728417756,19.8,38,1015.1,5.22,3.42,179,2.94,0,14.580000000000002
2020-3-12 12:12,8000,2559.1711631944445,198.37211804601876,0.44192208705124025,27.049311644044966,0.005327690972222222,0.4054381808278867,19.8,38,1015.1,5.22,3.02,178,2.62,0,14.580000000000002
2020-3-12 12:12,8000,2502.678689236111,199.20701497394774,0.4454620030045926,26.63309371420253,0.005381944444444444,0.3942264348447712,19.7,37,1015.2,4.75,2.74,179,2.35,0.025999999999999978,14.95
2020-3-12 12:13,8000,2474.229934895833,193.2579123150813,0.4439587905277508,26.41851585013606,0.005300564236111111,0.39203281164896514,19.7,37,1015.2,4.75,2.65,180,2.24,0.03500000000000001,14.95
2020-3-12 12:13,8000,2470.810646701389,195.58628146462982,0.4447087496231631,26.571152257896912,0.005343967013888889,0.4014571844362745,19.7,37,1015.2,4.75,2.54,182,2.11,0.04599999999999999,14.95
2020-3-12 12:13,8000,2453.770394965278,195.54515161065004,0.44560662312966615,26.149839287533894,0.005283203,0.3931576754833878,19.7,37,1015.2,4.75,2.37,184,1.92,0.06299999999999999,14.95
2020-3-12 12:13,8000,2482.084045138889,197.2183018533389,0.44477867083860306,26.66133872446887,0.005332031,0.4016598626429739,19.7,38,1015.2,5.13,2.18,187,1.7,0.08199999999999998,14.57
2020-3-12 12:14,8000,2468.0553016493054,195.62926958269546,0.44576970427100215,26.38513742954781,0.005372178819444445,0.3895509386914488,19.7,38,1015.2,5.13,2,194,1.39,0.09999999999999999,14.57
2020-3-12 12:14,8000,2482.969548611111,193.49383353926933,0.44423580570865473,26.4667165833554,0.005398220486111111,0.39134564780773423,19.7,38,1015.2,5.13,1.88,197,1.23,0.112,14.57
2020-3-12 12:14,8000,2488.5029296875,195.66021589979823,0.4432958875886912,26.92650856198523,0.005373263888888889,0.4027091077750545,19.7,38,1015.2,5.13,1.85,197,1.21,0.11499999999999999,14.57
2020-3-12 12:14,8000,2439.336853298611,192.40198021810912,0.4450843617312679,25.71593711735231,0.005396050347222223,0.3921936487268518,19.7,37,1015.2,4.75,1.83,194,1.27,0.11699999999999998,14.95
2020-3-12 12:15,8000,2519.5952994791664,197.2927766787199,0.4443153918421898,26.451195541163464,0.005367838541666667,0.39803983268654686,19.7,37,1015.2,4.75,1.8,188,1.38,0.11999999999999998,14.95
2020-3-12 12:15,8000,2487.289535590278,195.9114062498822,0.4448796882383443,26.600091237883948,0.005335286458333333,0.4005402624591503,19.7,37,1015.2,4.75,1.84,183,1.5,0.11599999999999999,14.95
2020-3-12 12:15,8000,2466.596814236111,197.36510074233894,0.4465896696367892,25.692248184972307,0.005304904513888889,0.3894601332720588,19.7,37,1015.2,4.75,1.93,179,1.65,0.107,14.95
2020-3-12 12:15,8000,2505.068672,197.0889333741353,0.4445516149463869,26.574456013558258,0.005340711805555555,0.4003809019267429,19.7,37,1015.2,4.75,2.04,176,1.8,0.096,14.95
2020-3-12 12:16,8000,2437.7345920138887,191.51866313536846,0.4449328042073499,25.953913673353657,0.005398220486111111,0.3895100975285948,19.7,37,1015.2,4.75,2.22,173,2.01,0.07799999999999999,14.95
2020-3-12 12:16,8000,2471.070490451389,192.76755859374538,0.4446010744756432,26.134473098403898,0.005332031,0.39525313180827887,19.7,37,1015.2,4.75,2.46,174,2.22,0.054000000000000006,14.95
2020-3-12 12:16,9000,2426.632756076389,191.2725596779611,0.44509073538201266,25.309332795643463,0.0053211805555555556,0.3844019437636166,19.7,37,1015.2,4.75,2.64,177,2.31,0.03599999999999998,14.95
2020-3-12 12:16,9000,2530.9322612847222,198.04285911041893,0.44339170868675676,27.157822575461733,0.005418836805555555,0.41987919560185183,19.9,37,1015.2,4.93,2.74,178,2.37,0.025999999999999978,14.969999999999999
2020-3-12 12:17,9000,2436.5117708333332,192.81154294365302,0.4459013573993776,25.021123196066345,0.005329861111111111,0.37994761029411767,19.9,37,1015.2,4.93,2.63,180,2.23,0.037000000000000005,14.969999999999999
2020-3-12 12:17,9000,2348.495290798611,184.0342023272467,0.4440158167410632,25.563874770545905,0.005303819444444444,0.38956261914488016,19.9,37,1015.2,4.93,2.5,181,2.09,0.049999999999999996,14.969999999999999
2020-3-12 12:17,9000,2319.0700694444445,179.15741187622515,0.4396580688877798,25.917746980898226,0.005334201388888889,0.4149607885688998,19.9,37,1015.2,4.93,2.55,180,2.16,0.04500000000000001,14.969999999999999
2020-3-12 12:17,9000,2341.8640755208335,182.34597539845097,0.44188680104460276,25.62062217178622,0.005322266,0.4058811742578976,19.9,35,1015.1,4.13,2.79,177,2.44,0.020999999999999998,15.77
2020-3-12 12:18,9000,2317.0315190972224,180.9496038457976,0.44411306595212313,24.8436258289815,0.005435112847222222,0.38429620693763616,19.9,35,1015.1,4.13,2.99,174,2.69,0.0009999999999999788,15.77
2020-3-12 12:18,9000,2371.072282986111,185.1419639575911,0.44385319401348877,24.584626785739605,0.005378689236111111,0.3876342890454793,19.9,35,1015.1,4.13,3.11,171,2.86,0,15.77
2020-3-12 12:18,9000,2459.656731770833,193.31331480694877,0.4420187082062836,26.17765830709736,0.005386284722222222,0.40054297726034854,19.9,35,1015.1,4.13,3.06,170,2.84,0,15.77
2020-3-12 12:18,9000,2463.796937934028,194.5035025790697,0.4449162498852541,25.89240270528612,0.005373263888888889,0.39734270322712417,19.9,36,1015.1,4.54,3.06,171,2.82,0,15.36
2020-3-12 12:19,8000,2394.543298611111,189.0888074130482,0.4465270787700224,24.234472501111014,0.005364583333333333,0.37765667126225494,19.9,36,1015.1,4.54,3.11,171,2.86,0,15.36
2020-3-12 12:19,8000,2484.2235633680557,196.21917968267755,0.4447825879343134,25.705329819475256,0.005317925347222223,0.3887179883238018,19.9,36,1015.1,4.54,3.13,173,2.84,0,15.36
2020-3-12 12:19,8000,2447.9309635416666,192.86894299481702,0.44584340247826487,24.444905116934162,0.005358072916666666,0.3873705746187364,19.9,36,1015.1,4.54,3.05,175,2.72,0,15.36
2020-3-12 12:19,8000,2385.2123133680557,187.14836361212087,0.44352609648234126,24.78209864046334,0.005292969,0.38493509157135075,19.8,36,1015.1,4.45,2.84,176,2.51,0.016000000000000014,15.350000000000001
2020-3-12 12:20,8000,2477.997504340278,195.54847764755888,0.4442237947939378,24.92128200792741,0.005317925347222223,0.4053896165236928,19.8,36,1015.1,4.45,2.66,173,2.41,0.03399999999999998,15.350000000000001
2020-3-12 12:20,8000,2452.790017361111,192.65443683547858,0.44478759608201585,24.77641389180269,0.005340711805555555,0.37695175057870367,19.8,36,1015.1,4.45,2.66,171,2.45,0.03399999999999998,15.350000000000001
2020-3-12 12:20,8000,2488.8342013888887,195.7953233497713,0.445251132578576,24.568806448454968,0.0052853732638888885,0.38203445840141614,19.8,36,1015.1,4.45,2.81,170,2.6,0.018999999999999993,15.350000000000001
2020-3-12 12:20,8000,2440.6956727430556,191.84374239753328,0.44454657209353404,24.85139268117839,0.0053092447916666665,0.3902731141067538,20,38,1015,5.4,2.88,168,2.71,0.01200000000000001,14.6
2020-3-12 12:21,8000,2484.9031727430556,194.20117077792014,0.4432743092938833,25.223427868331484,0.005384114583333334,0.4036291998570261,20,38,1015,5.4,2.96,168,2.78,0.0040000000000000036,14.6
2020-3-12 12:21,8000,2412.6803732638887,189.04765296427288,0.4440599238085847,24.165661294923567,0.005393880208333333,0.38512772756672115,20,38,1015,5.4,2.97,167,2.8,0.00299999999999998,14.6
2020-3-12 12:21,8000,2465.6371180555557,192.20269748233744,0.44178754569448125,26.211685603950077,0.005391710069444444,0.41345442708333335,20,38,1015,5.4,2.9,168,2.72,0.010000000000000007,14.6
2020-3-12 12:21,8000,2415.136189236111,190.75517029629813,0.4462000335650106,24.816816351392436,0.005340711805555555,0.38536185151143787,20,37,1015,5.02,2.96,167,2.8,0.0040000000000000036,14.98
2020-3-12 12:22,8000,2376.6676258680554,183.50346336441982,0.4433714611048708,24.582518317783453,0.005358072916666666,0.38906486162173204,20,37,1015,5.02,3.14,171,2.89,0,14.98
2020-3-12 12:22,8000,2337.3400434027776,184.27761163471243,0.44384723944030513,24.502479147028897,0.005339626736111111,0.3994380489174837,20,37,1015,5.02,3.15,171,2.9,0,14.98
2020-3-12 12:22,8000,2466.509665798611,195.22131398385955,0.44523042993389034,25.26277926198417,0.005354817708333333,0.39747242221541396,20,37,1015,5.02,3.14,172,2.87,0,14.98
2020-3-12 12:22,8000,2456.503919270833,190.92779944101983,0.442667594938244,25.475774448390734,0.005348307291666667,0.40367833009940085,19.9,36,1014.9,4.54,3.18,173,2.88,0,15.36
2020-3-12 12:23,8000,2285.5973133680554,179.4972905813322,0.4464852569148954,23.8682108738707,0.005303819444444444,0.3676955720656318,19.9,36,1014.9,4.54,3.22,173,2.92,0,15.36
2020-3-12 12:23,8000,2229.785334201389,172.54948129780615,0.4445075724395739,23.54884331670728,0.005303819444444444,0.3647964452273965,19.9,36,1014.9,4.54,3.31,174,2.97,0,15.36
2020-3-12 12:23,8000,2422.9583680555556,186.70962861892792,0.4410026134822073,25.443364842289736,0.005287543402777778,0.3959366872617102,19.9,36,1014.9,4.54,3.43,173,3.11,0,15.36
2020-3-12 12:23,8000,2305.88875,178.55899823500908,0.4424509954650854,24.144018523644252,0.005303819444444444,0.3813478009259259,19.9,38,1014.9,5.31,3.4,174,3.06,0,14.59
2020-3-12 12:24,8000,2533.0549869791666,199.26623574404178,0.4434106250211977,26.347163851222504,0.005374348958333333,0.3997090354370915,19.9,38,1014.9,5.31,3.26,171,3.01,0,14.59
2020-3-12 12:24,8000,2508.9770703125,195.57228186331741,0.44374730512515936,25.438356920879556,0.005364583333333333,0.38820742272603487,19.9,38,1014.9,5.31,3.1,169,2.89,0,14.59
2020-3-12 12:24,8000,2434.1031727430554,190.13688890507896,0.4427678130024849,26.602497234556445,0.0053125,0.4126818704044118,19.9,38,1014.9,5.31,2.99,167,2.82,0.0009999999999999788,14.59
2020-3-12 12:24,8000,2446.550768229167,193.24127491364544,0.4460888136536634,25.511050861386078,0.005371094,0.3924794943150871,19.8,36,1014.9,4.45,2.92,161,2.85,0.008000000000000007,15.350000000000001
2020-3-12 12:25,8000,2331.2731814236113,181.36066921089895,0.4437140133564174,24.400869126320153,0.005322266,0.3832881476375272,19.8,36,1014.9,4.45,2.9,157,2.86,0.010000000000000007,15.350000000000001
2020-3-12 12:25,8000,2445.458910590278,191.47310546738896,0.4447629793985366,25.098795055141345,0.005322266,0.3915372625612745,19.8,36,1014.9,4.45,2.8,152,2.8,0.020000000000000014,15.350000000000001
2020-3-12 12:25,8000,2325.5270529513887,182.20401022067608,0.4431687162515578,25.516017655070105,0.005371094,0.4042011974060457,19.8,36,1014.9,4.45,2.75,149,2.75,0.024999999999999998,15.350000000000001
2020-3-12 12:25,8000,2524.398381076389,197.87693901847436,0.44205948627746666,27.40625065326562,0.005340711805555555,0.4162063631876362,20,38,1014.9,5.4,2.74,147,2.74,0.025999999999999978,14.6
2020-3-12 12:26,8000,2322.3110069444447,183.76803384239292,0.44855803979627856,23.775688149535398,0.005343967013888889,0.3639528696895425,20,38,1014.9,5.4,2.74,151,2.73,0.025999999999999978,14.6
2020-3-12 12:26,8000,2479.312868923611,194.8317849252476,0.44494086543601075,26.450630567317763,0.005343967013888889,0.4009438870166122,20,38,1014.9,5.4,2.73,151,2.73,0.027000000000000003,14.6
2020-3-12 12:26,8000,2328.504782986111,180.99358362692257,0.44524515872246295,24.56292674532139,0.005362413194444445,0.37883991183278865,20,38,1014.9,5.4,2.82,148,2.82,0.018000000000000016,14.6
2020-3-12 12:26,8000,2383.455881076389,188.35489364509095,0.44734882075635135,25.71477001248751,0.005286458333333333,0.3817896284381808,20.1,39,1014.9,5.86,2.81,146,2.81,0.018999999999999993,14.240000000000002
2020-3-12 12:27,8000,2420.7477951388887,189.60893117135967,0.4428610355799535,26.239608630768636,0.005248480902777778,0.3988631833809913,20.1,39,1014.9,5.86,2.81,143,2.79,0.018999999999999993,14.240000000000002
2020-3-12 12:27,8000,2345.8338411458335,184.11477537042015,0.4447556142510953,25.135952124670577,0.005177951388888889,0.3786292466639434,20.1,39,1014.9,5.86,2.86,141,2.84,0.014000000000000012,14.240000000000002
2020-3-12 12:27,8000,2328.213832465278,183.03723932984897,0.4427060968350666,24.819226578669504,0.005234375,0.42399696606072984,20.1,39,1014.9,5.86,2.96,136,2.89,0.0040000000000000036,14.240000000000002
2020-3-12 12:27,8000,2279.1916883680556,177.3373306866634,0.441231816868158,25.087162883645934,0.0052701822916666665,0.4080483515454793,20.1,37,1014.9,5.11,3.09,129,2.93,0,14.990000000000002
2020-3-12 12:28,8000,2364.7756119791666,184.78130207379647,0.44422721781563684,24.85681070611516,0.005347222222222222,0.4110796100558279,20.1,37,1014.9,5.11,3.13,120,2.77,0,14.990000000000002
2020-3-12 12:28,8000,2333.061458333333,181.48523217976415,0.4434345433752056,23.770746105524672,0.005355902777777778,0.3897693823188998,20.1,37,1014.9,5.11,3.2,115,2.69,0,14.990000000000002
2020-3-12 12:28,8000,2435.6833116319444,190.3982410996037,0.44102122999173127,25.40473755756187,0.005289713541666667,0.4196180300245098,20.1,37,1014.9,5.11,3.08,111,2.46,0,14.990000000000002
2020-3-12 12:28,8000,2385.445355902778,186.42439987515928,0.4436554150290159,24.342115913398626,0.005327690972222222,0.38535153696895424,20,39,1014.9,5.77,3.08,109,2.39,0,14.23
2020-3-12 12:29,8000,2386.070785590278,188.22419270776336,0.4468740918011867,24.25044931059533,0.005360243055555556,0.3692571231617647,20,39,1014.9,5.77,2.98,109,2.31,0.0020000000000000018,14.23
2020-3-12 12:29,8000,2336.543559027778,182.76345268644644,0.44435589372286305,24.350069133697804,0.005364583333333333,0.3825498323461329,20,39,1014.9,5.77,2.94,109,2.28,0.006000000000000005,14.23
2020-3-12 12:29,8000,2449.951111111111,192.1569085764838,0.4415483461887172,26.18523889591888,0.005322266,0.4166548713235294,20,39,1014.9,5.77,2.69,111,2.14,0.031000000000000003,14.23
2020-3-12 12:29,8000,2356.2745225694443,185.7549272989049,0.4449665146887643,24.935721130378912,0.005315755208333333,0.3771847213711874,19.9,37,1014.9,4.93,2.41,111,1.93,0.05899999999999998,14.969999999999999
2020-3-12 12:30,8000,2550.1308897569443,198.88406248189665,0.44314287129084495,26.385616859985905,0.005333116319444445,0.38851559946895425,19.9,37,1014.9,4.93,2.36,112,1.91,0.06400000000000002,14.969999999999999
2020-3-12 12:30,8000,2461.4555164930557,192.45108723534474,0.4415883325735509,26.931264667885642,0.005232204861111111,0.40323282611655775,19.9,37,1014.9,4.93,2.31,112,1.87,0.06899999999999999,14.969999999999999
2020-3-12 12:30,8000,2522.000138888889,198.34898323138086,0.44337521195505386,25.784498112763032,0.0052430555555555555,0.40998812806372553,19.9,37,1014.9,4.93,2.32,111,1.86,0.068,14.969999999999999
2020-3-12 12:30,8000,2276.9288585069444,178.58356984602847,0.4423645594942043,24.48967694905511,0.005310329861111111,0.40198572389025056,19.8,37,1014.9,4.84,2.2,107,1.66,0.07999999999999997,14.96
2020-3-12 12:31,8000,2334.1426866319443,183.44420006221148,0.44236764973878523,25.42635315263863,0.005322266,0.4095224375340414,19.8,37,1014.9,4.84,2.17,102,1.51,0.083,14.96
2020-3-12 12:31,8000,2456.3347699652777,194.2491740671216,0.44215462356641916,26.424059068713753,0.005337456597222222,0.4128603451797386,19.8,37,1014.9,4.84,2.11,96,1.3,0.08900000000000001,14.96
2020-3-12 12:31,8000,2391.9283637152776,190.34753580469078,0.44504523131207785,24.982718098755,0.005329861111111111,0.38554744944852937,19.8,37,1014.9,4.84,2.18,89,1.12,0.08199999999999998,14.96
2020-3-12 12:31,8000,2458.266032986111,191.07998478788673,0.441776779659058,25.85477507065834,0.005377604166666667,0.40245018892973855,19.7,37,1014.8,4.75,2.2,85,1,0.07999999999999997,14.95
2020-3-12 12:32,8000,2417.943355034722,189.1842176482578,0.4442604610112805,25.1888647418593,0.005360243055555556,0.3838801572712418,19.7,37,1014.8,4.75,2.03,81,0.79,0.09700000000000002,14.95
2020-3-12 12:32,8000,2445.797777777778,191.43972438195786,0.4438046821205328,25.53807101575963,0.005327690972222222,0.39695514620778866,19.7,37,1014.8,4.75,1.9,78,0.65,0.11,14.95
2020-3-12 12:32,8000,2440.243168402778,192.50629849364557,0.4414988235739926,26.37220037595445,0.0052788628472222225,0.4273271122685185,19.7,37,1014.8,4.75,1.78,76,0.55,0.122,14.95
2020-3-12 12:32,8000,2390.9354210069446,187.9363639320267,0.44466564587552243,25.11152182840857,0.0053211805555555556,0.3855999200027233,19.6,36,1014.8,4.27,1.69,75,0.49,0.131,15.330000000000002
2020-3-12 12:33,8000,2474.320386284722,194.62198222684378,0.4426456768314566,26.34152453607038,0.005288628472222222,0.40017577273965144,19.6,36,1014.8,4.27,1.55,74,0.43,0.145,15.330000000000002
2020-3-12 12:33,8000,2503.5066449652777,196.38723631879904,0.44323581043758303,26.18580033957662,0.005233289930555556,0.39847723907271243,19.6,36,1014.8,4.27,1.41,73,0.37,0.159,15.330000000000002
2020-3-12 12:33,8000,2484.7694053819446,196.1234309315575,0.4439865776248571,26.2770290674502,0.005271267361111111,0.4032874923406862,19.6,36,1014.8,4.27,1.36,75,0.4,0.16399999999999998,15.330000000000002
2020-3-12 12:33,8000,2430.8176128472223,194.34904072384302,0.44514644397424763,25.893776135727222,0.005295138888888889,0.4057963388480392,19.6,37,1014.8,4.66,1.29,76,0.4,0.17099999999999999,14.940000000000001
2020-3-12 12:34,8000,2537.2200303819445,200.63496744247243,0.44561008078168657,26.15897971061854,0.005368923611111111,0.39255761080473855,19.6,37,1014.8,4.66,1.34,82,0.54,0.166,14.940000000000001
2020-3-12 12:34,8000,2490.867309027778,196.01155381650113,0.4443371432218051,25.81630836739728,0.005346137152777777,0.3902969856345316,19.6,37,1014.8,4.66,1.35,89,0.69,0.16499999999999998,14.940000000000001
2020-3-12 12:34,8000,2555.2419162326387,200.9427441384481,0.44395757314214473,25.977022342355035,0.005301649305555556,0.3852221328635621,19.6,37,1014.8,4.66,1.44,97,0.9,0.156,14.940000000000001
2020-3-12 12:34,8000,2432.4890364583334,193.6826843917094,0.445481614186502,25.17540892526387,0.005289713541666667,0.38721560117102394,19.7,38,1014.8,5.13,1.79,110,1.41,0.121,14.57
2020-3-12 12:35,8000,2520.9179600694442,196.7112995360151,0.44307779412737985,26.35872088243549,0.0052549913194444445,0.40423523029003267,19.7,38,1014.8,5.13,2.02,128,1.89,0.09799999999999999,14.57
2020-3-12 12:35,8000,2492.6614105902777,195.77686951073423,0.44324042807616704,26.185641518035258,0.005261501736111111,0.39870139314406317,19.7,38,1014.8,5.13,2.21,147,2.21,0.079,14.57
2020-3-12 12:35,8000,2446.275720486111,194.59701362658845,0.4467908656465974,24.808455410004694,0.005273438,0.3726583009940087,19.7,38,1014.8,5.13,2.25,166,2.14,0.075,14.57
2020-3-12 12:35,8000,2417.9250868055556,191.9824197000386,0.44478875441285476,25.70335282578164,0.005330946180555555,0.3905720996732026,19.9,38,1014.8,5.31,2.38,177,2.08,0.062000000000000006,14.59
2020-3-12 12:36,8000,2495.2749522569443,195.73649291622962,0.44413308791575656,25.697839694336306,0.005353732638888889,0.39052647569444443,19.9,38,1014.8,5.31,2.57,179,2.2,0.04300000000000002,14.59
2020-3-12 12:36,8000,2510.1217881944444,196.63526801195377,0.44422417049192775,25.818195768007737,0.005371094,0.38583496732026146,19.9,38,1014.8,5.31,2.81,181,2.36,0.018999999999999993,14.59
2020-3-12 12:36,8000,2471.8537326388887,193.56700705272056,0.44357415855977866,25.678500734121943,0.005386284722222222,0.3899603970928649,19.9,38,1014.8,5.31,2.83,182,2.35,0.01699999999999999,14.59
2020-3-12 12:36,8000,2559.3684505208334,200.48052300279397,0.4411810647297922,27.115464820549526,0.005339626736111111,0.41312438299972765,19.9,36,1014.8,4.54,2.58,175,2.3,0.041999999999999996,15.36
2020-3-12 12:37,8000,2503.015238715278,195.7650563686795,0.44143185920012534,26.70120991445496,0.005287543402777778,0.4104659160539216,19.9,36,1014.8,4.54,2.41,167,2.28,0.05899999999999998,15.36
2020-3-12 12:37,8000,2488.511775173611,195.21643538829534,0.4419361163719545,26.493854690980356,0.005150824652777778,0.40322549870642704,19.9,36,1014.8,4.54,2.16,158,2.13,0.08399999999999999,15.36
2020-3-12 12:37,8000,2468.7112803819446,195.57419487800115,0.44556422917518335,25.635000684728816,0.0052701822916666665,0.3885986221745643,19.9,36,1014.8,4.54,2.04,156,2.02,0.096,15.36
2020-3-12 12:37,7000,2501.7487760416666,195.69358285680227,0.443096318857926,26.15674376897959,0.005302734,0.3986824959150327,19.9,37,1014.9,4.93,1.84,150,1.83,0.11599999999999999,14.969999999999999
2020-3-12 12:38,7000,2523.420872395833,197.52164166059026,0.44148591741294085,26.772056325198154,0.005343967013888889,0.40560887288943354,19.9,37,1014.9,4.93,1.5,145,1.5,0.15,14.969999999999999
2020-3-12 12:38,8000,2496.4095399305556,197.46745225686914,0.4454673868703794,25.293401246750534,0.005340711805555555,0.38299487677015254,19.9,37,1014.9,4.93,1.1,132,1.06,0.18999999999999997,14.969999999999999
2020-3-12 12:38,8000,2529.352969,199.08047956422405,0.44282618603335056,26.280134879830825,0.005390625,0.40473320908224397,19.9,37,1014.9,4.93,0.85,110,0.67,0.215,14.969999999999999
2020-3-12 12:38,8000,2482.4632074652777,195.4656662325965,0.44502049503538565,25.798378738891934,0.0053125,0.3878071086941721,19.9,36,1014.9,4.54,0.67,76,0.21,0.233,15.36
2020-3-12 12:39,8000,2453.6315798611113,193.20205403385748,0.4447941223997528,25.739821476113377,0.005337456597222222,0.3887185542619826,19.9,36,1014.9,4.54,0.58,44,-0.14,0.242,15.36
2020-3-12 12:39,8000,2468.5828211805556,195.38901349371335,0.44368459417301487,25.68741759263494,0.005384114583333334,0.3902314346745643,19.9,36,1014.9,4.54,0.58,15,-0.39,0.242,15.36
2020-3-12 12:39,8000,2515.699922,197.342158089248,0.4429032261840496,26.28046222808638,0.005349392361111111,0.39671352464596954,19.9,36,1014.9,4.54,0.56,5,-0.45,0.244,15.36
2020-3-12 12:39,8000,2481.0807552083334,197.28299911871548,0.4456186324720391,25.755546242306032,0.005368923611111111,0.3841994868259804,19.8,37,1014.8,4.84,0.55,351,-0.5,0.24500000000000002,14.96
2020-3-12 12:40,8000,2470.978537326389,196.1012879748298,0.44694961109685266,25.267992832415334,0.005316840277777778,0.3753073214528867,19.8,37,1014.8,4.84,0.54,347,-0.51,0.24599999999999997,14.96
2020-3-12 12:40,8000,2413.1712369791667,189.87127820049804,0.4436713930003124,25.228676363738668,0.005193142361111111,0.3796203490944989,19.8,37,1014.8,4.84,0.59,344,-0.57,0.241,14.96
2020-3-12 12:40,8000,2499.9039366319444,196.6391569001834,0.4425255114703886,25.919141244164773,0.005343967013888889,0.39207457192946626,19.8,37,1014.8,4.84,0.65,341,-0.64,0.235,14.96
2020-3-12 12:40,8000,2494.6145529513888,196.31078341996937,0.4434427912603489,25.996778324213636,0.005328776041666667,0.38079672606889975,19.9,38,1014.8,5.31,0.69,189,0.52,0.23099999999999998,14.59
2020-3-12 12:41,8000,2604.2439973958335,201.21328341143112,0.4398142680577832,28.183087001881464,0.005371094,0.40861031113834423,19.9,38,1014.8,5.31,0.95,177,0.83,0.20499999999999996,14.59
2020-3-12 12:41,8000,2474.0735329861113,192.950654286249,0.4422399547470559,26.13237712027311,0.005372178819444445,0.3945860523897059,19.9,38,1014.8,5.31,1.15,164,1.11,0.185,14.59
2020-3-12 12:41,8000,2499.456519097222,197.29867511621993,0.4439601177752916,26.200462852191183,0.005387369791666667,0.3896104430487473,19.9,38,1014.8,5.31,1.32,155,1.31,0.16799999999999998,14.59
2020-3-12 12:41,8000,2428.24138671875,192.64786891878856,0.44568032785926914,25.106388366958807,0.0053244357638888885,0.38258343545751633,20.1,38,1014.8,5.49,1.58,147,1.58,0.142,14.610000000000001
2020-3-12 12:42,8000,2524.090469,199.4893508526649,0.44352098782364335,26.483162096260966,0.005350477430555556,0.4000968562772331,20.1,38,1014.8,5.49,1.91,144,1.9,0.109,14.610000000000001
2020-3-12 12:42,8000,2493.3588020833336,196.59208320511706,0.4427899684005128,26.33284223596732,0.005351563,0.39353843698937907,20.1,38,1014.8,5.49,2.09,145,2.09,0.09100000000000001,14.610000000000001
2020-3-12 12:42,7000,2419.7770399305555,190.02259650165757,0.44457154152238865,24.814524697071235,0.005346137152777777,0.3692807266135621,20.1,38,1014.8,5.49,2.19,145,2.19,0.081,14.610000000000001
2020-3-12 12:42,7000,2490.4085503472224,196.3481586370103,0.44401454148655656,26.462951641501412,0.005249565972222222,0.3939521122685185,20,37,1014.8,5.02,2.28,144,2.27,0.07200000000000002,14.98
2020-3-12 12:43,7000,2533.824253472222,199.16408310020233,0.4442716089835184,26.008086165631543,0.005322266,0.39120356753812635,20,37,1014.8,5.02,2.21,143,2.2,0.079,14.98
2020-3-12 12:43,7000,2466.686410590278,195.44364257713482,0.4447283366371448,26.151501510972324,0.005259331597222222,0.38953283292483665,20,37,1014.8,5.02,2.19,142,2.18,0.081,14.98
2020-3-12 12:43,7000,2531.4296571180557,197.65406853417298,0.44069540077940617,27.693877468468866,0.005235460069444444,0.41159651160811545,20,37,1014.8,5.02,2.16,142,2.15,0.08399999999999999,14.98
2020-3-12 12:43,8000,2556.7333289930557,197.80728407108526,0.44145666384008125,27.13027348364657,0.005314670138888889,0.4034991021582244,19.9,37,1014.7,4.93,2.09,140,2.07,0.09100000000000001,14.969999999999999
2020-3-12 12:44,7000,2535.8435286458334,199.80713975694445,0.4445127833648022,26.546820756604216,0.005398220486111111,0.3837230307053377,19.9,37,1014.7,4.93,1.94,138,1.92,0.106,14.969999999999999
2020-3-12 12:44,7000,2476.7585677083334,195.12374565960448,0.4438501920486713,26.130434148616512,0.005406901041666667,0.3884442827478214,19.9,37,1014.7,4.93,1.84,136,1.8,0.11599999999999999,14.969999999999999
2020-3-12 12:44,7000,2533.0124826388887,200.582949203981,0.4443072032009209,26.440006322673376,0.005354817708333333,0.3905333733319717,19.9,37,1014.7,4.93,1.81,135,1.76,0.119,14.969999999999999
2020-3-12 12:44,7000,2446.649922,191.30679763059146,0.4419840082501623,26.07819522704236,0.005292969,0.38988285079656865,19.9,37,1014.7,4.93,1.82,135,1.77,0.118,14.969999999999999
2020-3-12 12:45,7000,2541.356449652778,200.57305766974085,0.4431073623219324,27.19417600623663,0.005392795138888889,0.4076125578703704,19.9,37,1014.7,4.93,1.69,136,1.66,0.131,14.969999999999999
2020-3-12 12:45,7000,2558.7600694444445,200.22015190960448,0.442182132634734,26.895804592403085,0.005308159722222222,0.39325966775599125,19.9,37,1014.7,4.93,1.56,136,1.52,0.144,14.969999999999999
2020-3-12 12:45,7000,2485.0398871527777,196.74229163183517,0.4440461923314777,25.902299906840906,0.005371094,0.3768829231345316,19.9,37,1014.7,4.93,1.47,140,1.46,0.153,14.969999999999999
2020-3-12 12:45,7000,2445.1029383680557,192.65858170326953,0.4453441803410494,25.55997737003602,0.005296223958333333,0.38327324601715684,19.8,37,1014.7,4.84,1.34,144,1.34,0.166,14.96
2020-3-12 12:46,7000,2541.082007378472,197.46587888317345,0.4410608879518928,27.598170693654314,0.005399305555555556,0.4132325537854031,19.8,37,1014.7,4.84,1.21,150,1.2,0.179,14.96
2020-3-12 12:46,7000,2539.4007335069446,199.92131944406296,0.4435264513074049,27.22115845445933,0.0053211805555555556,0.3996864957788671,19.8,37,1014.7,4.84,1.09,157,1.07,0.19099999999999998,14.96
2020-3-12 12:46,7000,2532.8009461805555,199.44030273394998,0.4457089798074756,25.602656645785284,0.005368923611111111,0.3735700869757625,19.8,37,1014.7,4.84,0.95,164,0.91,0.20499999999999996,14.96
2020-3-12 12:46,7000,2588.5578689236113,203.49637028239567,0.44105479543310033,28.066869079706137,0.005358072916666666,0.41457703993055556,19.8,38,1014.6,5.22,0.85,170,0.79,0.215,14.580000000000002
2020-3-12 12:47,7000,2467.6620399305557,193.69025592380086,0.4453799630468464,25.52049939912184,0.005337456597222222,0.3759699584694989,19.8,38,1014.6,5.22,0.85,173,0.77,0.215,14.580000000000002
2020-3-12 12:47,8000,2421.106909722222,189.58351233036248,0.44359855830311257,25.76131824213335,0.005249565972222222,0.3840434410743464,19.8,38,1014.6,5.22,0.87,177,0.76,0.213,14.580000000000002
2020-3-12 12:47,8000,2518.0350390625,198.99210391913402,0.44285757910091644,27.24980558964766,0.005328776041666667,0.40462622549019606,19.8,38,1014.6,5.22,0.91,178,0.79,0.209,14.580000000000002
2020-3-12 12:47,9000,2521.245642361111,196.90534502834265,0.44243213180724583,26.971700950628588,0.005281032986111111,0.4013638259123094,19.8,37,1014.6,4.84,0.97,178,0.84,0.203,14.96
2020-3-12 12:48,10000,2537.085972222222,202.20619670876283,0.4448833155424307,26.911628898232077,0.005425347222222222,0.3984110030296841,19.8,37,1014.6,4.84,1.04,179,0.89,0.19599999999999998,14.96
2020-3-12 12:48,10000,2453.284982638889,193.6276475185064,0.44406001207289597,25.39988491018221,0.005261501736111111,0.3743388905909586,19.8,37,1014.6,4.84,1.09,178,0.94,0.19099999999999998,14.96
2020-3-12 12:48,10000,2500.1679210069447,195.75553156195275,0.4420048159775488,26.837364094703666,0.005429688,0.4089570908224401,19.8,37,1014.6,4.84,1.13,178,0.97,0.18700000000000003,14.96
2020-3-12 12:48,9000,2493.7390668402777,195.10413073501462,0.4422527229523172,26.81712342571275,0.005348307291666667,0.400966286254085,19.9,37,1014.6,4.93,1.14,177,0.99,0.186,14.969999999999999
2020-3-12 12:49,9000,2528.016618923611,198.42114040270084,0.44463405959853913,25.70046663374262,0.005351563,0.3878323503880719,19.9,37,1014.6,4.93,1.13,179,0.96,0.18700000000000003,14.969999999999999
2020-3-12 12:49,10000,2497.559644097222,195.06554687483043,0.4420124072995743,26.72580660208649,0.005337456597222222,0.40503618174700434,19.9,37,1014.6,4.93,1.12,184,0.91,0.18799999999999997,14.969999999999999
2020-3-12 12:49,10000,2541.8373133680557,198.89326921590055,0.44203309240242816,26.839544116892423,0.005401475694444445,0.39577965005446625,19.9,37,1014.6,4.93,1.09,188,0.83,0.19099999999999998,14.969999999999999
2020-3-12 12:49,10000,2546.5490494791666,200.30662867948632,0.4436515573279843,26.150859054618618,0.005410156,0.39233434180964055,19.9,36,1014.6,4.54,1.16,192,0.83,0.18400000000000002,15.36
2020-3-12 12:50,10000,2546.2323828125,200.05830403640064,0.44314375181403826,26.637785957774987,0.005398220486111111,0.39187414470996734,19.9,36,1014.6,4.54,1.24,196,0.83,0.176,15.36
2020-3-12 12:50,10000,2467.4720703125,195.05662865560907,0.4444131066734003,25.718931792557207,0.005325520833333333,0.3741446376293573,19.9,36,1014.6,4.54,1.35,201,0.81,0.16499999999999998,15.36
2020-3-12 12:50,10000,2476.2638845486113,195.10908092073856,0.4435331518740596,26.310530429476348,0.005360243055555556,0.3953298568559368,19.9,36,1014.6,4.54,1.55,204,0.87,0.145,15.36
2020-3-12 12:50,10000,2522.6653776041667,198.12735677079104,0.44426174541263597,26.435623159250778,0.005367838541666667,0.387911803002451,20,38,1014.6,5.4,1.81,209,0.88,0.119,14.6
2020-3-12 12:51,10000,2561.0449739583332,202.56371852801175,0.4436192555538904,26.941741475356284,0.005378689236111111,0.39491655603213505,20,38,1014.6,5.4,2.08,212,0.91,0.09199999999999998,14.6
2020-3-12 12:51,10000,2503.2697395833334,197.50552625650369,0.44438697229323326,26.387298987838083,0.005441623263888889,0.39110677083333334,20,38,1014.6,5.4,2.41,210,1.13,0.05899999999999998,14.6
2020-3-12 12:51,10000,2525.7844270833334,197.09124672697916,0.44339759588937794,26.527208723428537,0.005391710069444444,0.3937298900462963,20,38,1014.6,5.4,2.8,207,1.44,0.020000000000000014,14.6
2020-3-12 12:51,10000,2527.293376736111,197.82945312495764,0.4430371699672144,26.570371199088317,0.005335286458333333,0.3903117936410675,20.2,38,1014.6,5.58,3.02,204,1.69,0,14.62
2020-3-12 12:52,10000,2535.9660894097224,198.98100043282216,0.4433349950247077,26.284384914946138,0.005384114583333334,0.3882018867442811,20.2,38,1014.6,5.58,3.19,200,1.96,0,14.62
2020-3-12 12:52,10000,2467.927131076389,196.8997319878461,0.4449909271204573,25.796410913608586,0.005301649305555556,0.3845865587554466,20.2,38,1014.6,5.58,3.29,193,2.32,0,14.62
2020-3-12 12:52,10000,2516.9979166666667,198.88874782074356,0.4462658618958131,25.759366884209623,0.005441623263888889,0.37728909228622004,20.2,38,1014.6,5.58,3.28,188,2.51,0,14.62
2020-3-12 12:52,10000,2505.6459288194446,197.34677734336844,0.44489231667065104,26.389391269095817,0.005374348958333333,0.38299327682461876,20.2,37,1014.6,5.2,3.11,182,2.58,0,15
2020-3-12 12:53,10000,2530.0240234375,196.9688063819979,0.4421309257899503,27.282918325264216,0.005346137152777777,0.4084803198188998,20.2,37,1014.6,5.2,2.91,176,2.57,0.008999999999999985,15
2020-3-12 12:53,10000,2517.1950737847224,198.42887261242234,0.44260470071484065,26.498205346776373,0.005265842013888889,0.3961241447099673,20.2,37,1014.6,5.2,2.55,168,2.39,0.04500000000000001,15
2020-3-12 12:53,10000,2529.254552951389,199.0090820248026,0.44435535494343725,26.396140485113868,0.005361328,0.3953053342864924,20.2,37,1014.6,5.2,2.13,159,2.09,0.08700000000000001,15
2020-3-12 12:53,10000,2506.3502213541665,197.18096787770597,0.4434359827346768,26.35812978438253,0.005277777777777778,0.39148639620778863,20,36,1014.6,4.62,1.75,151,1.74,0.125,15.379999999999999
2020-3-12 12:54,10000,2485.2473828125,196.84496510053086,0.4445753448120319,26.110974345519445,0.0054361979166666664,0.3919626948869826,20,36,1014.6,4.62,1.43,147,1.43,0.157,15.379999999999999
2020-3-12 12:54,10000,2460.227595486111,194.29900607486303,0.4451252254268588,25.60560420914382,0.005320095486111111,0.38232122736247276,20,36,1014.6,4.62,1.21,148,1.21,0.179,15.379999999999999
2020-3-12 12:54,10000,2496.2841493055557,196.18876953124536,0.4440366853925202,25.90392713107151,0.005434027777777778,0.3836622455405773,20,36,1014.6,4.62,1.03,149,1.03,0.19699999999999998,15.379999999999999
2020-3-12 12:54,10000,2506.515681423611,195.53737413171365,0.44231435243483086,26.77235847831137,0.005339626736111111,0.4015944308278867,19.8,36,1014.6,4.45,0.91,151,0.91,0.209,15.350000000000001
2020-3-12 12:55,10000,2499.441252170139,195.97588539914264,0.44433956998771884,26.119220475359842,0.005415581597222222,0.398124825537854,19.8,36,1014.6,4.45,0.79,157,0.78,0.221,15.350000000000001
2020-3-12 12:55,10000,2478.5110633680556,195.4858376598783,0.44440657175972587,26.131893878871832,0.005345052083333334,0.3895705210035403,19.8,36,1014.6,4.45,0.75,172,0.68,0.22499999999999998,15.350000000000001
2020-3-12 12:55,10000,2428.412565104167,191.06416222873258,0.44461858443404084,25.518045113254832,0.005361328,0.3852517573869826,19.8,36,1014.6,4.45,0.73,186,0.57,0.227,15.350000000000001
2020-3-12 12:55,10000,2479.9032161458335,195.5539583296411,0.44407978127239234,25.314755720612112,0.005269097222222222,0.4008407798883442,19.8,36,1014.5,4.45,0.7,196,0.47,0.22999999999999998,15.350000000000001
2020-3-12 12:56,10000,2498.6560329861113,197.95340153412874,0.4446031430428626,25.62825771921282,0.005364583333333333,0.3893772807734205,19.8,36,1014.5,4.45,0.68,202,0.4,0.23199999999999998,15.350000000000001
2020-3-12 12:56,10000,2421.8855251736113,192.48226669658968,0.4447948135910638,25.042957910074897,0.005262586805555556,0.3846477353962418,19.8,36,1014.5,4.45,0.61,207,0.32,0.23900000000000002,15.350000000000001
2020-3-12 12:56,10000,2412.8147135416666,188.12553602061328,0.442803458857541,25.020962218692787,0.005411241319444445,0.3886042219839324,19.8,36,1014.5,4.45,0.6,217,0.22,0.23999999999999996,15.350000000000001
2020-3-12 12:56,10000,2392.974066840278,188.08499780476413,0.4461062571287904,25.468107297525624,0.005304904513888889,0.36346265659041394,19.9,37,1014.5,4.93,0.62,223,0.16,0.238,14.969999999999999
2020-3-12 12:57,10000,2341.924704861111,185.6932161207364,0.4451562387277254,24.993996641592233,0.005292969,0.39060598362608934,19.9,37,1014.5,4.93,0.68,222,0.19,0.23199999999999998,14.969999999999999
2020-3-12 12:57,10000,5035.489913194445,391.01586878479395,0.45056584959973933,18.21357189194329,0.005276692708333333,0.1859272492851307,19.9,37,1014.5,4.93,0.81,216,0.31,0.219,14.969999999999999
2020-3-12 12:57,10000,1537.1878602430556,123.13419701130722,0.4355436528052945,21.95370171519829,0.005334201388888889,0.4377031292551743,19.9,37,1014.5,4.93,0.89,216,0.33,0.21099999999999997,14.969999999999999
2020-3-12 12:57,10000,5453.028081597222,417.3071315327102,0.4440694819499886,19.608144643321673,0.005980902777777778,0.16052942027505446,20.1,37,1014.5,5.11,0.94,216,0.35,0.206,14.990000000000002
2020-3-12 12:58,10000,2251.0226866319445,210.86426432042552,0.46691365387061734,24.463895827523892,0.005385199652777777,0.46633887357026144,20.1,37,1014.5,5.11,1.01,217,0.36,0.19899999999999998,14.990000000000002
2020-3-12 12:58,10000,2466.448148871528,194.5300311785274,0.44264713341953016,21.30899195622253,0.005345052083333334,0.4022946495438453,20.1,37,1014.5,5.11,1.11,212,0.49,0.189,14.990000000000002
2020-3-12 12:58,10000,28.902964409722223,1.364460720390744,0.24428481639516125,2.019436061612607,0,0.9907949899577886,20.1,37,1014.5,5.11,1.22,204,0.68,0.17800000000000002,14.990000000000002
2020-3-12 12:58,10000,2445.5918055555558,192.57532551788992,0.4405610227303619,21.4371822292714,0.005368923611111111,0.4170044041053922,20.1,36,1014.5,4.71,1.33,200,0.82,0.16699999999999998,15.39
2020-3-12 12:59,10000,4417.915336371528,351.26031254654873,0.4546340845058021,18.140125203661466,0.005365668402777778,0.2503144786560458,20.1,36,1014.5,4.71,1.48,198,0.95,0.152,15.39
2020-3-12 12:59,10000,2879.373927951389,230.5902159264353,0.45920477668722304,23.520704656107146,0.005981987847222222,0.44932358898420477,20.1,36,1014.5,4.71,1.65,196,1.1,0.135,15.39
2020-3-12 12:59,10000,4305.8654991319445,339.14609544118224,0.4505536462178375,17.86357121557476,0.005413411458333333,0.2522983770765251,20.1,36,1014.5,4.71,1.96,196,1.31,0.104,15.39
2020-3-12 12:59,10000,2255.7605772569445,176.80669161732882,0.44526609494756925,22.86838049457684,0.005279947916666666,0.40304621544798475,20,36,1014.5,4.62,2.33,193,1.65,0.06699999999999999,15.379999999999999
2020-3-12 13:00,10000,2444.4186979166666,190.51642465588483,0.44412441241394673,25.47957514155506,0.0053244357638888885,0.3982753693491285,20,36,1014.5,4.62,2.68,191,1.96,0.03199999999999999,15.379999999999999
2020-3-12 13:00,10000,2365.8692708333333,185.01952685680627,0.44271205040519945,25.397343777275598,0.0051888020833333335,0.4029553930078976,20,36,1014.5,4.62,2.99,191,2.18,0.0009999999999999788,15.379999999999999
2020-3-12 13:00,10000,2408.962188,187.8091406246185,0.445035319492597,25.446509649419877,0.005311414930555556,0.38286035369008714,20,36,1014.5,4.62,3.24,192,2.33,0,15.379999999999999
2020-3-12 13:00,10000,2395.094301215278,189.32002059018046,0.4434809492296124,25.044257428636218,0.005248480902777778,0.39246357145288674,20,38,1014.5,5.4,3.45,193,2.44,0,14.6
2020-3-12 13:01,10000,2487.0009071180557,195.9038030266362,0.44301114309372225,25.121158605111074,0.005379774305555555,0.41281183193763615,20,38,1014.5,5.4,3.59,191,2.63,0,14.6
2020-3-12 13:01,10000,2551.8820876736113,198.24859483464436,0.44005181200081284,27.152334192176365,0.005234375,0.4160126719090414,20,38,1014.5,5.4,3.69,188,2.82,0,14.6
2020-3-12 13:01,10000,2625.1872005208334,204.19182074334412,0.4403829305076797,27.284060451016614,0.0053125,0.4206239404616013,20,38,1014.5,5.4,3.67,185,2.93,0,14.6
2020-3-12 13:01,10000,2405.0616145833333,187.89468315866247,0.44275597721947096,26.369140750353655,0.005230034722222222,0.4141259531590414,20,38,1014.5,5.4,3.58,186,2.82,0,14.6
2020-3-12 13:02,10000,2282.5104557291666,178.9382290717042,0.44527156763168957,24.53951692933552,0.005350477430555556,0.38387683398011985,20,38,1014.5,5.4,3.43,187,2.66,0,14.6
2020-3-12 13:02,10000,2351.489175347222,184.74156466843874,0.4440614050581561,25.263999501902457,0.005234375,0.3938828763276144,20,38,1014.5,5.4,3.42,187,2.66,0,14.6
2020-3-12 13:02,10000,2446.4046961805557,190.4133680501114,0.44443373630251354,25.27179235426767,0.005346137152777777,0.39309757540168844,20,38,1014.5,5.4,3.38,186,2.66,0,14.6
2020-3-12 13:02,10000,2416.5534592013887,188.59826167534723,0.44325222822491533,26.167043436411493,0.005349392361111111,0.40491401994825704,19.9,38,1014.5,5.31,3.28,184,2.65,0,14.59
2020-3-12 13:03,10000,2431.9273914930554,187.380946157479,0.44345825322548177,25.79273729282274,0.005303819444444444,0.3960841418164488,19.9,38,1014.5,5.31,3.11,182,2.58,0,14.59
2020-3-12 13:03,10000,2352.1646961805554,182.38008789036013,0.4430540713228929,25.262204051640758,0.005211588541666667,0.39840105017701527,19.9,38,1014.5,5.31,2.96,181,2.48,0.0040000000000000036,14.59
2020-3-12 13:03,10000,2336.555629340278,183.31876731588105,0.4439834738189582,25.15414252614559,0.0052669270833333335,0.4048904973447712,19.9,38,1014.5,5.31,2.91,182,2.41,0.008999999999999985,14.59
2020-3-12 13:03,10000,2269.990881076389,177.3544031297472,0.4446986123672706,23.998962515151078,0.005211588541666667,0.3800961584286492,19.8,37,1014.4,4.84,2.91,182,2.41,0.008999999999999985,14.96
2020-3-12 13:04,10000,2393.7497916666666,187.541376916239,0.44395939548680385,25.247796897768815,0.005389539930555556,0.4009655330882353,19.8,37,1014.4,4.84,3,185,2.39,0,14.96
2020-3-12 13:04,10000,2533.6844270833335,198.84356328599725,0.4420469817900545,26.37620259132423,0.0052973090277777775,0.4222999429806645,19.8,37,1014.4,4.84,2.98,186,2.35,0.0020000000000000018,14.96
2020-3-12 13:04,10000,2498.616484,194.780555550427,0.44407126909178324,25.20266653146146,0.005322266,0.39735803462009806,19.8,37,1014.4,4.84,3,189,2.27,0,14.96
2020-3-12 13:04,10000,2345.4464973958334,183.2343283318308,0.4440079223529891,25.267200832776354,0.005291883680555555,0.3935875757421024,19.8,39,1014.4,5.59,3.04,193,2.15,0,14.21
2020-3-12 13:05,10000,2376.607434895833,185.24134426252468,0.44228516755446784,25.50717211728619,0.005319010416666666,0.40462742544934643,19.8,39,1014.4,5.59,3.25,196,2.17,0,14.21
2020-3-12 13:05,10000,2541.9851432291666,201.5921776305199,0.4423281385719555,25.96575316720902,0.005322266,0.43533102277369284,19.8,39,1014.4,5.59,3.32,198,2.13,0,14.21
2020-3-12 13:05,10000,2398.4339735243057,186.55161775586043,0.44274824977188004,25.097378535222227,0.005300564236111111,0.40197107332516335,19.8,39,1014.4,5.59,3.35,198,2.15,0,14.21
2020-3-12 13:05,10000,2531.4976085069443,197.20669159274507,0.44064693724304627,27.182271271968663,0.0052311197916666665,0.40821787768927015,19.8,38,1014.4,5.22,3.36,197,2.21,0,14.580000000000002
2020-3-12 13:06,10000,2545.2800434027777,201.9813096773771,0.4451637033610221,26.693135555563344,0.005466579861111111,0.4015158377587146,19.8,38,1014.4,5.22,3.41,195,2.32,0,14.580000000000002
2020-3-12 13:06,10000,2485.0298914930554,194.08478404710445,0.44192750257206165,26.24397073021641,0.005411241319444445,0.41849661288126366,19.8,38,1014.4,5.22,3.33,191,2.44,0,14.580000000000002
2020-3-12 13:06,10000,2545.0987760416665,200.1644249014207,0.44401920038620574,26.33242756201171,0.005480685763888889,0.4125294500612745,19.8,38,1014.4,5.22,3.26,187,2.54,0,14.580000000000002
2020-3-12 13:06,10000,2503.8485807291668,194.80937282985641,0.44275528925437296,26.39129668759773,0.005358072916666666,0.41070212503404135,19.8,39,1014.4,5.59,3.22,184,2.61,0,14.21
2020-3-12 13:07,10000,2436.1405078125,188.29389748862474,0.4444061597022979,25.379914230691828,0.005345052083333334,0.39373643875953157,19.8,39,1014.4,5.59,3.06,182,2.54,0,14.21
2020-3-12 13:07,10000,2482.5553645833334,194.3221961802542,0.44253068678880825,26.351885467662225,0.005265842013888889,0.40698942163671026,19.8,39,1014.4,5.59,2.97,184,2.4,0.00299999999999998,14.21
2020-3-12 13:07,10000,2533.918025173611,198.78273187910943,0.44185867146889257,26.909942646609874,0.005353732638888889,0.4145308755446623,19.8,39,1014.4,5.59,2.79,184,2.26,0.020999999999999998,14.21
2020-3-12 13:07,10000,2498.1301909722224,195.80866753302206,0.44242831161854823,26.72961098230854,0.005322266,0.409246166087963,19.8,38,1014.4,5.22,2.59,185,2.07,0.041000000000000016,14.580000000000002
2020-3-12 13:08,10000,2461.857795138889,193.2069618010298,0.4449172189409734,25.950339226414716,0.005348307291666667,0.39136375357434644,19.8,38,1014.4,5.22,2.34,187,1.81,0.06600000000000002,14.580000000000002
2020-3-12 13:08,10000,2422.774766,187.3190820148563,0.4425599660392402,25.608568019595335,0.005289713541666667,0.40252203329248365,19.8,38,1014.4,5.22,2.18,192,1.57,0.08199999999999998,14.580000000000002
2020-3-12 13:08,10000,2500.9240364583334,195.88938365263303,0.4440274959528459,25.98067376407713,0.0054177517361111115,0.40404932598039217,19.8,38,1014.4,5.22,1.96,196,1.31,0.104,14.580000000000002
2020-3-12 13:08,10000,2467.2350868055555,192.44327148437384,0.4421962078920843,26.124198252658037,0.005374348958333333,0.4186184597971133,19.6,37,1014.4,4.66,1.75,197,1.15,0.125,14.940000000000001
2020-3-12 13:09,10000,2409.3098936631945,186.5274910526794,0.4422932401619318,25.627922485521868,0.005386284722222222,0.4014341384123094,19.6,37,1014.4,4.66,1.68,199,1.06,0.132,14.940000000000001
2020-3-12 13:09,10000,2318.117248263889,180.1435697638618,0.4437690944112732,24.477817304583333,0.0053092447916666665,0.3812775948052832,19.6,37,1014.4,4.66,1.72,199,1.08,0.128,14.940000000000001
2020-3-12 13:09,10000,2316.523849826389,179.58200942501492,0.442514823916814,24.60860193496292,0.005368923611111111,0.39299236621732025,19.6,37,1014.4,4.66,1.92,200,1.18,0.10800000000000001,14.940000000000001
2020-3-12 13:09,10000,2430.1036848958333,192.1576366863062,0.4435040119722314,25.84522037788815,0.005334201388888889,0.4119075648488562,19.5,38,1014.4,4.95,2.17,201,1.31,0.083,14.55
2020-3-12 13:10,10000,2323.280763888889,183.8755674317148,0.44821514622236036,22.836872496719,0.005406901041666667,0.3771987464256536,19.5,38,1014.4,4.95,2.42,199,1.52,0.058,14.55
2020-3-12 13:10,10000,2237.43666015625,178.6837900423109,0.44234637305060526,24.944651621357355,0.0052549913194444445,0.43608013344226576,19.5,38,1014.4,4.95,2.6,196,1.74,0.03999999999999999,14.55
2020-3-12 13:10,10000,2410.4144618055557,192.86365668402777,0.44256115944668223,26.522081652010815,0.005401475694444445,0.40656647858796297,19.5,38,1014.4,4.95,2.95,193,2.09,0.004999999999999982,14.55
2020-3-12 13:10,10000,2287.8001692708335,182.58402981657332,0.44312828839862,25.030467813436463,0.005261501736111111,0.397216009667756,19.7,39,1014.4,5.5,3.33,194,2.31,0,14.2
2020-3-12 13:11,10000,2351.4837977430557,185.27667083693137,0.44247542355423136,25.234263252553344,0.005451388888888889,0.3987045419730392,19.7,39,1014.4,5.5,3.59,191,2.62,0,14.2
2020-3-12 13:11,10000,2418.255815972222,189.5548750864559,0.44186474897899314,26.30170771621616,0.005295138888888889,0.3880520620574619,19.7,39,1014.4,5.5,3.67,189,2.77,0,14.2
2020-3-12 13:11,10000,2462.2990364583334,194.5489300964309,0.44083668355907546,26.378808858041626,0.005435112847222222,0.4236376123366013,19.7,39,1014.4,5.5,3.61,188,2.76,0,14.2
2020-3-12 13:11,10000,2294.9245182291666,181.91472071470926,0.43751664963139664,27.73440771595529,0.005360243055555556,0.40392886625136165,19.8,39,1014.3,5.59,3.46,187,2.69,0,14.21
2020-3-12 13:12,10000,2401.349114583333,190.96996799016773,0.4439747087869275,25.519658827078043,0.005415581597222222,0.4030417347494553,19.8,39,1014.3,5.59,3.31,187,2.57,0,14.21
2020-3-12 13:12,10000,2339.7424131944445,183.12992509737245,0.4424122759810052,24.616340008537215,0.005332031,0.3759831622753268,19.8,39,1014.3,5.59,3.19,190,2.37,0,14.21
2020-3-12 13:12,10000,2559.3765364583332,200.0129459629188,0.4438320476042779,25.39957575442149,0.005335286458333333,0.3810834141816449,19.8,39,1014.3,5.59,2.95,191,2.16,0.004999999999999982,14.21
2020-3-12 13:12,10000,2327.546332465278,184.81937696244975,0.4438762498317982,24.24012423111036,0.005354817708333333,0.4024492017293028,19.6,37,1014.3,4.66,2.75,193,1.95,0.024999999999999998,14.940000000000001
2020-3-12 13:13,10000,2381.7475086805557,188.74886065839127,0.44273429762300637,25.681177693658203,0.005422092013888889,0.40831478502859475,19.6,37,1014.3,4.66,2.6,194,1.8,0.03999999999999999,14.940000000000001
2020-3-12 13:13,10000,2273.0463975694443,179.77140621597394,0.44426997057621703,24.61855296012619,0.005450303819444445,0.38060862183415034,19.6,37,1014.3,4.66,2.54,195,1.73,0.04599999999999999,14.940000000000001
2020-3-12 13:13,10000,2446.1975564236113,192.06000097839802,0.4449761611120712,24.295900303179096,0.005296223958333333,0.3699893365332244,19.6,37,1014.3,4.66,2.49,196,1.67,0.050999999999999976,14.940000000000001
2020-3-12 13:13,10000,2357.7569140625,186.92388666483095,0.4426532924292465,25.302727684086527,0.005354817708333333,0.4181074644267429,19.5,38,1014.3,4.95,2.44,198,1.57,0.056,14.55
2020-3-12 13:14,10000,2365.4298567708333,188.44549895102423,0.4436356477308569,25.022729285953815,0.005406901041666667,0.4258197252859477,19.5,38,1014.3,4.95,2.42,200,1.49,0.058,14.55
2020-3-12 13:14,10000,2393.8165755208333,189.30779837327063,0.4418122952818949,26.061433453486078,0.005389539930555556,0.3964449891067538,19.5,38,1014.3,4.95,2.41,201,1.45,0.05899999999999998,14.55
2020-3-12 13:14,10000,2386.186449652778,189.81950715670646,0.4450143452092038,25.035576659211614,0.005402560763888889,0.3914831707856754,19.5,38,1014.3,4.95,2.46,204,1.38,0.054000000000000006,14.55
2020-3-12 13:14,10000,2437.978042534722,190.00444857703317,0.4443351402903523,24.439871540689303,0.005492621527777778,0.37291703686683003,19.5,38,1014.3,4.95,2.5,205,1.36,0.049999999999999996,14.55
2020-3-12 13:15,10000,2417.500034722222,191.96984035138604,0.44408037498539843,25.76613033932341,0.005409071180555555,0.40373459626906316,19.5,38,1014.3,4.95,2.45,207,1.26,0.05499999999999998,14.55
2020-3-12 13:15,10000,2355.3108940972224,183.81959415893073,0.4426552220007356,23.845338248649664,0.005389539930555556,0.38038495710784315,19.5,38,1014.3,4.95,2.4,209,1.16,0.06000000000000001,14.55
2020-3-12 13:15,10000,2401.369275173611,188.69938329533713,0.4435754165143335,24.35480522787001,0.005441623263888889,0.39131379782815906,19.5,38,1014.3,4.95,2.43,210,1.14,0.05699999999999998,14.55
2020-3-12 13:15,10000,2363.4566276041664,186.01005177469136,0.4430467271432599,24.517697097554077,0.005410156,0.39842792585784315,19.5,39,1014.3,5.32,2.47,211,1.12,0.052999999999999985,14.18
2020-3-12 13:16,10000,2495.701016,196.13366536435257,0.44495346740553876,24.66866579690535,0.005424262152777777,0.38292802372685186,19.5,39,1014.3,5.32,2.56,210,1.2,0.04399999999999999,14.18
2020-3-12 13:16,10000,2402.4358159722224,189.96375322392657,0.4432232592046807,24.759367285501533,0.005374348958333333,0.39195329095179743,19.5,39,1014.3,5.32,2.57,210,1.21,0.04300000000000002,14.18
2020-3-12 13:16,10000,2551.207582465278,200.70716577991914,0.44448796870761254,25.234209781340013,0.0054720052083333335,0.39163286356209154,19.5,39,1014.3,5.32,2.49,211,1.13,0.050999999999999976,14.18
2020-3-12 13:16,10000,2531.046351996528,196.70185430712164,0.4424962794093535,25.40089689216481,0.005411241319444445,0.3962094013820806,19.6,38,1014.2,5.04,2.45,211,1.11,0.05499999999999998,14.560000000000002
2020-3-12 13:17,10000,2471.006818576389,194.4085523544312,0.4423161178421115,25.624586687061527,0.005358072916666666,0.41741636880446625,19.6,38,1014.2,5.04,2.46,212,1.08,0.054000000000000006,14.560000000000002
2020-3-12 13:17,10000,2438.9876519097224,191.36479922442845,0.44163111921726983,25.228151842467003,0.005303819444444444,0.4060697763480392,19.6,38,1014.2,5.04,2.48,213,1.05,0.052,14.560000000000002
2020-3-12 13:17,10000,2503.481111111111,195.63601128425128,0.44289048170888334,25.23784199789854,0.005298394097222222,0.3887673100490196,19.6,38,1014.2,5.04,2.58,213,1.09,0.041999999999999996,14.560000000000002
2020-3-12 13:17,10000,2448.5202864583334,192.19938253588145,0.44460132993064705,24.862899641727015,0.005348307291666667,0.3672077631399782,19.5,38,1014.2,4.95,2.73,215,1.07,0.027000000000000003,14.55
2020-3-12 13:18,10000,2554.014605034722,200.5979663819442,0.44288726837377257,25.880395627951998,0.005388454861111111,0.40904285386029415,19.5,38,1014.2,4.95,2.78,215,1.09,0.02200000000000002,14.55
2020-3-12 13:18,10000,2591.816909722222,203.03841025345298,0.44153158584428065,26.81965481467175,0.005414496527777778,0.40606147024782135,19.5,38,1014.2,4.95,2.94,214,1.2,0.006000000000000005,14.55
2020-3-12 13:18,10000,2567.5665668402776,201.2601019922893,0.44195600154919906,25.93745919416601,0.005367838541666667,0.3905564533973312,19.5,38,1014.2,4.95,3.24,212,1.42,0,14.55
2020-3-12 13:18,10000,2506.256875,197.85410481388305,0.44394415248281194,25.806330785149292,0.005353732638888889,0.3882346473311547,19.5,38,1014.2,4.95,3.51,212,1.54,0,14.55
2020-3-12 13:19,10000,2534.488927951389,198.15058481959477,0.442446768407436,25.901961033734473,0.005422092013888889,0.399629825367647,19.5,38,1014.2,4.95,3.77,209,1.83,0,14.55
2020-3-12 13:19,10000,2518.1277256944445,197.40803602413607,0.4416096054209526,26.25367171031636,0.005424262152777777,0.41136553649237473,19.5,38,1014.2,4.95,3.89,207,2,0,14.55
2020-3-12 13:19,10000,2526.7977039930556,196.49701707457436,0.44053550144002046,25.96651997032827,0.005383029513888889,0.4077535403050109,19.5,38,1014.2,4.95,3.88,205,2.11,0,14.55
2020-3-12 13:19,10000,2580.2765277777776,203.85444769154185,0.44211584463153925,26.391511011542374,0.005388454861111111,0.410986881297658,19.5,39,1014.2,5.32,3.82,202,2.24,0,14.18
2020-3-12 13:20,10000,2571.702165798611,200.08629231718913,0.44233689789244945,25.768291988757206,0.005338541666666667,0.3949694308278867,19.5,39,1014.2,5.32,3.79,200,2.33,0,14.18
2020-3-12 13:20,10000,2457.1458528645835,194.44412307738804,0.44278881935245706,25.877895292733047,0.005349392361111111,0.4099505974264706,19.5,39,1014.2,5.32,3.82,200,2.35,0,14.18
2020-3-12 13:20,10000,2574.465837673611,204.41117621489622,0.4440341669055258,25.65099258006008,0.005376519097222222,0.38509180538534854,19.5,39,1014.2,5.32,3.71,197,2.44,0,14.18
2020-3-12 13:20,10000,2403.2772569444446,188.75001626753507,0.4453085064093878,22.608579874933753,0.005361328,0.35327241200299564,19.6,39,1014.1,5.41,3.49,196,2.34,0,14.190000000000001
2020-3-12 13:21,10000,2581.632404513889,200.47633137638294,0.4409190464113989,26.5394371548894,0.005374348958333333,0.41640361179193897,19.6,39,1014.1,5.41,3.27,196,2.19,0,14.190000000000001
2020-3-12 13:21,10000,2341.9381597222223,183.06100360903218,0.4421212832494741,24.839185758777237,0.005443793402777778,0.4001911934912854,19.6,39,1014.1,5.41,3.16,197,2.07,0,14.190000000000001
2020-3-12 13:21,10000,2426.133849826389,191.5786966108522,0.44400383383307773,25.245764660348318,0.005414496527777778,0.39992390897331154,19.6,39,1014.1,5.41,3.01,196,2.02,0,14.190000000000001
2020-3-12 13:21,10000,2377.9712586805554,186.04955945003172,0.44322906886231184,24.002502599004362,0.005410156,0.37577148437499996,19.7,40,1014.1,5.86,2.93,197,1.92,0.006999999999999984,13.84
2020-3-12 13:22,10000,2529.956228298611,197.9738757606742,0.44263808826158196,25.629312736125623,0.005439453,0.41155205780228754,19.7,40,1014.1,5.86,2.92,196,1.96,0.008000000000000007,13.84
2020-3-12 13:22,10000,2457.3180208333333,192.14315428624917,0.442565632832238,25.80229294830275,0.005351563,0.40935934946895425,19.7,40,1014.1,5.86,2.87,193,2.03,0.012999999999999989,13.84
2020-3-12 13:22,10000,2486.3860503472224,194.31985345812075,0.4442096762492846,25.37273550465212,0.005358072916666666,0.3930806227873094,19.7,40,1014.1,5.86,2.9,191,2.12,0.010000000000000007,13.84
2020-3-12 13:22,10000,2466.736662326389,192.30668293888303,0.44283355763383053,26.004020058571466,0.005373263888888889,0.4030194886982571,19.9,39,1014.1,5.68,2.94,190,2.18,0.006000000000000005,14.219999999999999
2020-3-12 13:23,10000,2448.6368098958333,195.1040299476153,0.44666436988881325,25.399745065843156,0.005377604166666667,0.38224488953567537,19.9,39,1014.1,5.68,3.08,188,2.36,0,14.219999999999999
2020-3-12 13:23,10000,2431.237747395833,193.67121093033685,0.4432628987263963,26.070028987525273,0.005334201388888889,0.40306074261301744,19.9,39,1014.1,5.68,3.14,185,2.51,0,14.219999999999999
2020-3-12 13:23,10000,2470.250177951389,194.97814874175268,0.4436573197356874,25.76242525745417,0.005374348958333333,0.3908370055487473,19.9,39,1014.1,5.68,3.31,183,2.71,0,14.219999999999999
2020-3-12 13:23,10000,2493.054097222222,192.65583001957526,0.44062615856866283,25.93883045273684,0.005373263888888889,0.40235883033769065,19.9,39,1014,5.68,3.48,180,2.95,0,14.219999999999999
2020-3-12 13:24,10000,2578.4271006944446,202.21577356154717,0.4446372320149713,25.837701590089683,0.005427517361111111,0.3953698852805011,19.9,39,1014,5.68,3.59,180,3.05,0,14.219999999999999
2020-3-12 13:24,10000,2474.969357638889,193.9987109199759,0.4430454101485895,26.08335215921584,0.005410156,0.4029560568150871,19.9,39,1014,5.68,3.63,179,3.11,0,14.219999999999999
2020-3-12 13:24,10000,2472.8847178819447,194.45832235442265,0.44324683197610454,26.366091592197005,0.005403645833333333,0.40554225388071896,19.9,39,1014,5.68,3.61,180,3.07,0,14.219999999999999
2020-3-12 13:24,10000,2581.1665711805554,202.44014322909138,0.44246219473115667,27.19999541614627,0.005422092013888889,0.41504267939814815,19.9,39,1014.1,5.68,3.59,179,3.08,0,14.219999999999999
2020-3-12 13:25,10000,2506.855355902778,195.9994433593173,0.44125916960361655,26.35173352832832,0.005392795138888889,0.40322358813316994,19.9,39,1014.1,5.68,3.49,179,2.99,0,14.219999999999999
2020-3-12 13:25,10000,2523.470703,196.9384147010508,0.44178488289060874,26.684962811471028,0.005387369791666667,0.4066927210988562,19.9,39,1014.1,5.68,3.42,180,2.9,0,14.219999999999999
2020-3-12 13:25,10000,2500.436618923611,197.39565751725183,0.44421439183311245,25.857090664245536,0.005389539930555556,0.3896690070125272,19.9,39,1014.1,5.68,3.34,182,2.77,0,14.219999999999999
2020-3-12 13:25,10000,2488.4776866319444,195.53388454814024,0.44305748056262506,26.387876163022618,0.0054329427083333335,0.4089888003812636,19.8,38,1014.1,5.22,3.19,184,2.58,0,14.580000000000002
2020-3-12 13:26,10000,2500.997526041667,197.94049910329184,0.4453317793645579,26.188136218491497,0.005360243055555556,0.39707909517973855,19.8,38,1014.1,5.22,3.05,185,2.44,0,14.580000000000002
2020-3-12 13:26,10000,2504.2174348958333,196.36938910284047,0.44308525041671076,26.661606152848595,0.005351563,0.4023408096745643,19.8,38,1014.1,5.22,2.91,185,2.32,0.008999999999999985,14.580000000000002
2020-3-12 13:26,10000,2487.9564583333336,194.5695366706742,0.4431992784903931,26.06287176295363,0.005376519097222222,0.3966735260076253,19.8,38,1014.1,5.22,2.84,182,2.35,0.016000000000000014,14.580000000000002
2020-3-12 13:26,10000,2455.8633333333332,191.9315234205459,0.44513531225149716,25.02241881418005,0.005373263888888889,0.366913202954793,19.6,38,1014,5.04,2.79,181,2.34,0.020999999999999998,14.560000000000002
2020-3-12 13:27,10000,2552.457813,200.67915341163445,0.44195198413366094,27.43662699527924,0.0052311197916666665,0.4114481379357299,19.6,38,1014,5.04,2.84,179,2.44,0.016000000000000014,14.560000000000002
2020-3-12 13:27,10000,2385.033324652778,186.66029510798987,0.44301151478309103,25.050674169341345,0.0052788628472222225,0.3751526926742919,19.6,38,1014,5.04,2.9,176,2.56,0.010000000000000007,14.560000000000002
2020-3-12 13:27,10000,2551.211401909722,198.73772241094966,0.44167199501893306,26.907056023841058,0.005354817708333333,0.40968494264025057,19.6,38,1014,5.04,2.88,172,2.63,0.01200000000000001,14.560000000000002
2020-3-12 13:27,10000,2491.6586024305557,195.87966902768062,0.44264114791678616,26.830325165825734,0.005286458333333333,0.4053125212758715,19.6,39,1014,5.41,2.89,168,2.72,0.010999999999999987,14.190000000000001
2020-3-12 13:28,10000,2516.358359,197.72269422504644,0.444653068731515,26.042840802731995,0.005352647569444444,0.38458449499591507,19.6,39,1014,5.41,2.85,163,2.75,0.014999999999999989,14.190000000000001
2020-3-12 13:28,10000,2457.351675347222,192.98070093557095,0.4437858967876287,25.57987234961553,0.005347222222222222,0.3855363732298475,19.6,39,1014,5.41,2.85,160,2.79,0.014999999999999989,14.190000000000001
2020-3-12 13:28,10000,2460.4377126736113,194.47802730124675,0.4439000753843792,25.870660550972325,0.0053363715277777776,0.39151713133169935,19.6,39,1014,5.41,2.8,159,2.75,0.020000000000000014,14.190000000000001
2020-3-12 13:28,10000,2501.68837890625,196.13793618367046,0.4426032026833183,26.924551717267256,0.005332031,0.4126133578431373,19.7,39,1014,5.5,2.76,157,2.73,0.02400000000000002,14.2
2020-3-12 13:29,10000,2528.013715277778,199.67659613384552,0.444370378170811,26.1161615191924,0.005378689236111111,0.38961545989923746,19.7,39,1014,5.5,2.62,155,2.6,0.037999999999999985,14.2
2020-3-12 13:29,10000,2461.3043272569444,194.62482403037004,0.44385018934582077,26.042687040339185,0.005360243055555556,0.4003329971745643,19.7,39,1014,5.5,2.52,153,2.51,0.048,14.2
2020-3-12 13:29,10000,2484.767582465278,195.22482826937457,0.4439399478477952,26.208585274244637,0.005375434027777778,0.39899817878540306,19.7,39,1014,5.5,2.49,152,2.49,0.050999999999999976,14.2
2020-3-12 13:29,10000,2484.0550130208335,195.36736653501595,0.4449150265907788,25.842855152482866,0.005363498263888889,0.3789430912990196,19.7,38,1014,5.13,2.37,155,2.35,0.06299999999999999,14.57
2020-3-12 13:30,10000,2525.277578,195.7259741786957,0.4412190373222271,26.214836936740998,0.005283203,0.4042233966503268,19.7,38,1014,5.13,2.32,156,2.3,0.068,14.57
2020-3-12 13:30,10000,2491.3063020833333,193.57220700404787,0.440113082442169,26.677834153335,0.005295138888888889,0.4071511097494553,19.7,38,1014,5.13,2.24,158,2.2,0.07599999999999997,14.57
2020-3-12 13:30,10000,2514.230056423611,196.7002386999766,0.4428019370597971,26.38136850356061,0.005356987847222223,0.40427789266748365,19.7,38,1014,5.13,2.13,161,2.08,0.08700000000000001,14.57
2020-3-12 13:30,10000,2485.1736631944445,195.66062275976486,0.4429978083220839,26.35787848271579,0.005342881944444444,0.39589005480664485,19.8,39,1013.9,5.59,2.12,164,2.04,0.08799999999999998,14.21
2020-3-12 13:31,10000,2481.604466145833,192.83705283232797,0.4439054025764841,24.922809118028653,0.005384114583333334,0.3763133552900327,19.8,39,1013.9,5.59,2.13,168,2,0.08700000000000001,14.21
2020-3-12 13:31,10000,2524.6121614583335,196.59143337455907,0.4416943494581317,26.284870887506003,0.005308159722222222,0.4028869442742375,19.8,39,1013.9,5.59,2.06,173,1.87,0.09399999999999999,14.21
2020-3-12 13:31,10000,2445.728884548611,191.27508137492316,0.4432330348156983,25.04150726734444,0.005341797,0.3861353102873094,19.8,39,1013.9,5.59,1.99,177,1.74,0.10099999999999999,14.21
2020-3-12 13:31,10000,2492.6916623263887,193.70690534871423,0.4407217205580358,26.60225643986084,0.005340711805555555,0.4123666556032135,19.9,39,1013.9,5.68,2.05,178,1.78,0.09500000000000001,14.219999999999999
2020-3-12 13:32,10000,2452.0983072916665,195.03607745250054,0.4463587850722372,25.284921704924287,0.005372178819444445,0.3856714111860022,19.9,39,1013.9,5.68,2.02,180,1.72,0.09799999999999999,14.219999999999999
2020-3-12 13:32,10000,2504.140547,197.02121961725953,0.4436010366430614,26.265224176339313,0.005351563,0.404071448631536,19.9,39,1013.9,5.68,1.99,183,1.63,0.10099999999999999,14.219999999999999
2020-3-12 13:32,10000,2454.8446744791668,193.9498892767589,0.44451840987687835,25.73349757350683,0.005313585069444444,0.4055742825776144,19.9,39,1013.9,5.68,1.98,183,1.62,0.10200000000000001,14.219999999999999
2020-3-12 13:32,10000,2492.5319618055555,197.52835937443012,0.4437497679313727,26.269680992590047,0.005299479166666667,0.39993825742102396,19.8,37,1013.9,4.84,1.98,184,1.6,0.10200000000000001,14.96
2020-3-12 13:33,10000,2439.4713802083334,193.81376288312285,0.44629984861429234,25.00243841130028,0.0052701822916666665,0.3819342405364924,19.8,37,1013.9,4.84,2,186,1.58,0.09999999999999999,14.96
2020-3-12 13:33,10000,2433.291458333333,190.7268706506046,0.44409544931686035,25.929482534585066,0.005332031,0.392464567163671,19.8,37,1013.9,4.84,2.07,187,1.61,0.09300000000000001,14.96
2020-3-12 13:33,10000,2496.6257595486113,195.76590060153526,0.4429869759938018,26.412008093414105,0.005283203,0.39747795819716775,19.8,37,1013.9,4.84,1.98,188,1.52,0.10200000000000001,14.96
2020-3-12 13:33,10000,2425.0307530381942,190.40753145890295,0.44335750025176784,25.696866139409448,0.005364583333333333,0.3908233251633987,19.8,37,1013.9,4.84,1.92,190,1.43,0.10800000000000001,14.96
2020-3-12 13:34,10000,2450.2230772569446,192.17348632374396,0.4438017987712767,25.60490867802337,0.005387369791666667,0.38981726154003266,19.8,37,1013.9,4.84,1.9,193,1.35,0.11,14.96
2020-3-12 13:34,10000,2476.741623263889,193.57306857486307,0.44207385205136895,26.53611279778695,0.005388454861111111,0.4112171628199891,19.8,37,1013.9,4.84,2.01,199,1.27,0.09900000000000002,14.96
2020-3-12 13:34,10000,2504.952087673611,195.56423262899767,0.44247209755407946,26.412475038069534,0.005371094,0.41255344073393246,19.8,37,1013.9,4.84,2.16,204,1.21,0.08399999999999999,14.96
2020-3-12 13:34,10000,2520.2702126736112,196.72963541587083,0.44354507481894145,26.131952417576844,0.005389539930555556,0.39900732741013073,19.8,38,1013.9,5.22,2.25,207,1.16,0.075,14.580000000000002
2020-3-12 13:35,10000,2531.629878472222,197.59334524889238,0.44285041050370466,25.774829715343447,0.005355902777777778,0.3978836975762527,19.8,38,1013.9,5.22,2.32,209,1.12,0.068,14.580000000000002
2020-3-12 13:35,10000,2507.4969444444446,195.21469617975967,0.44366518045062076,26.15439264602165,0.005304904513888889,0.3945360030296841,19.8,38,1013.9,5.22,2.35,209,1.14,0.06499999999999999,14.580000000000002
2020-3-12 13:35,10000,2555.589861111111,200.69530923706694,0.4438781865675157,26.278202140254443,0.005338541666666667,0.3976085282203159,19.8,38,1013.9,5.22,2.5,212,1.1,0.049999999999999996,14.580000000000002
2020-3-12 13:35,10000,2478.214787326389,194.77872709819542,0.44472604307060604,25.574356128846023,0.005363498263888889,0.3927721141407952,19.7,37,1013.9,4.75,2.59,215,1.01,0.041000000000000016,14.95
2020-3-12 13:36,10000,2568.9142274305555,199.88709727011664,0.4422063382149726,26.27257686846209,0.005411241319444445,0.39824874897875817,19.7,37,1013.9,4.75,2.58,219,0.84,0.041999999999999996,14.95
2020-3-12 13:36,10000,2591.284279513889,204.78390949319794,0.44265599992553983,26.726364492013516,0.005473090277777778,0.41175097017973855,19.7,37,1013.9,4.75,2.47,221,0.72,0.052999999999999985,14.95
2020-3-12 13:36,10000,2515.7170963541666,197.61121091635906,0.44403002128208924,26.017538224088923,0.005391710069444444,0.3966321742238562,19.7,37,1013.9,4.75,2.32,225,0.52,0.068,14.95
2020-3-12 13:36,10000,2534.985547,198.43912651527188,0.4414804724958723,26.911695816791603,0.005449219,0.4209634225217865,19.8,38,1013.9,5.22,2.14,231,0.26,0.08599999999999998,14.580000000000002
2020-3-12 13:37,10000,2523.0688368055557,196.57145507750218,0.4425422984797219,26.093923040500467,0.005340711805555555,0.3939819069989107,19.8,38,1013.9,5.22,1.98,235,0.1,0.10200000000000001,14.580000000000002
2020-3-12 13:37,10000,2515.1922395833335,194.34859591934304,0.4405840685490351,26.077709160198825,0.005342881944444444,0.4129615630106209,19.8,38,1013.9,5.22,1.88,235,0.1,0.112,14.580000000000002
2020-3-12 13:37,10000,2487.1685243055554,194.58273328636886,0.4437141038853569,25.8211862035938,0.0053244357638888885,0.3920003999863835,19.8,38,1013.9,5.22,1.87,234,0.13,0.11299999999999999,14.580000000000002
2020-3-12 13:37,10000,2483.553381076389,196.51442367974627,0.44362998931374087,26.025613646240714,0.005356987847222223,0.39965253523284316,19.8,38,1013.8,5.22,1.93,232,0.2,0.107,14.580000000000002
2020-3-12 13:38,10000,2611.885177951389,205.806994331148,0.4451252414483542,25.78628279475531,0.0054058159722222224,0.3947932793777233,19.8,38,1013.8,5.22,2.11,228,0.37,0.08900000000000001,14.580000000000002
2020-3-12 13:38,10000,2385.233854166667,186.58734154583496,0.444518769142894,25.029081815619747,0.005406901041666667,0.37169284449891066,19.8,38,1013.8,5.22,2.25,220,0.7,0.075,14.580000000000002
2020-3-12 13:38,10000,2446.6781727430557,191.38573779725903,0.444049174814805,26.013348583631927,0.005354817708333333,0.3959424360021786,19.8,38,1013.8,5.22,2.33,211,1.06,0.06699999999999999,14.580000000000002
2020-3-12 13:38,10000,2559.8698480902776,199.22237846310452,0.4424445713335555,26.785633448491566,0.005470920138888889,0.40268332992919387,20,38,1013.8,5.4,2.46,202,1.45,0.054000000000000006,14.6
2020-3-12 13:39,10000,2481.2871571180553,192.9006391058733,0.44195285128483947,26.096309740403502,0.005390625,0.4059222026484205,20,38,1013.8,5.4,2.67,197,1.75,0.03300000000000001,14.6
2020-3-12 13:39,10000,2510.2621397569446,196.04309895584194,0.4423583474556671,26.318928924521092,0.0054329427083333335,0.41323011131535947,20,38,1013.8,5.4,2.84,196,1.9,0.016000000000000014,14.6
2020-3-12 13:39,10000,2422.828012152778,189.3345496926192,0.44502590955579724,25.30444032286775,0.005383029513888889,0.3857205031318083,20,38,1013.8,5.4,2.88,194,2,0.01200000000000001,14.6
2020-3-12 13:39,10000,2466.9360546875,191.81326560351997,0.44148713627188196,25.84681741936011,0.005396050347222223,0.41300446793300655,19.9,37,1013.8,4.93,2.84,189,2.14,0.016000000000000014,14.969999999999999
2020-3-12 13:40,10000,2455.2553602430557,191.22828123360617,0.44388191962054474,25.83376303975207,0.005364583333333333,0.4023998629833878,19.9,37,1013.8,4.93,2.79,187,2.17,0.020999999999999998,14.969999999999999
2020-3-12 13:40,10000,2458.4422135416667,190.21865450258142,0.44103272802160426,25.976235455931917,0.005329861111111111,0.4058613238698257,19.9,37,1013.8,4.93,2.78,189,2.1,0.02200000000000002,14.969999999999999
2020-3-12 13:40,10000,2448.3352430555556,191.1636056696468,0.4438909366445418,25.47924111481659,0.005339626736111111,0.39795025275735296,19.9,37,1013.8,4.93,2.92,191,2.13,0.008000000000000007,14.969999999999999
2020-3-12 13:40,10000,2454.7903993055556,192.04932832853424,0.4448710176278527,25.72734115618676,0.005385199652777777,0.39148994502314816,19.9,37,1013.7,4.93,3.04,192,2.19,0,14.969999999999999
2020-3-12 13:41,10000,2409.059392361111,187.72802842830015,0.44497490962764147,24.49458359306313,0.005401475694444445,0.3731418845315904,19.9,37,1013.7,4.93,3.09,193,2.18,0,14.969999999999999
2020-3-12 13:41,10000,2423.6569835069445,189.41946505638288,0.4430461261465,25.172240355952997,0.005407986111111111,0.3937294687840414,19.9,37,1013.7,4.93,3.07,193,2.17,0,14.969999999999999
2020-3-12 13:41,10000,2449.2550303819444,192.10000642835828,0.4443666896397394,25.225880060620067,0.005379774305555555,0.39295263991013074,19.9,37,1013.7,4.93,3.09,195,2.11,0,14.969999999999999
2020-3-12 13:41,10000,2497.4504253472223,193.4849305541945,0.4430759917554336,25.88342510093199,0.005439453,0.3999653628812636,20,39,1013.7,5.77,3.17,197,2.08,0,14.23
2020-3-12 13:42,10000,2454.6008246527776,191.8714451352531,0.44367877664886085,25.32643120471639,0.0054058159722222224,0.3934602694376362,20,39,1013.7,5.77,3.16,198,2.03,0,14.23
2020-3-12 13:42,10000,2409.3899305555556,188.97698557531564,0.44425057082531144,24.781126740174393,0.005332031,0.3861575308074619,20,39,1013.7,5.77,3.28,197,2.15,0,14.23
2020-3-12 13:42,10000,2430.7346180555555,192.03773959364597,0.44601918793104406,24.979000060927298,0.005373263888888889,0.386416219873366,20,39,1013.7,5.77,3.28,198,2.11,0,14.23
2020-3-12 13:42,10000,2361.930625,183.5992914494538,0.4426411863241604,25.046203995032382,0.005360243055555556,0.38419147007761434,19.8,37,1013.7,4.84,3.19,199,2.01,0,14.96
2020-3-12 13:43,10000,2496.5573263888887,192.84190507088653,0.441352866968999,26.255710533335012,0.005343967013888889,0.4187046228213508,19.8,37,1013.7,4.84,3.09,199,1.95,0,14.96
2020-3-12 13:43,10000,2484.7664192708335,190.47407226033977,0.43979629808064913,25.927883249311552,0.005304904513888889,0.41431305742783225,19.8,37,1013.7,4.84,2.99,199,1.88,0.0009999999999999788,14.96
2020-3-12 13:43,10000,2481.832400173611,190.54652296125627,0.4408164939785156,26.13079605742293,0.005345052083333334,0.41746212043845315,19.8,37,1013.7,4.84,2.85,198,1.84,0.014999999999999989,14.96
2020-3-12 13:43,10000,2380.3463932291666,186.34045674123766,0.44377293152342645,25.50105804623689,0.005367838541666667,0.3949934002246732,19.7,37,1013.7,4.75,2.77,199,1.74,0.022999999999999996,14.95
2020-3-12 13:44,10000,2476.879782986111,193.35232527553302,0.44301812284058584,25.982158462381417,0.005439453,0.40465197354983656,19.7,37,1013.7,4.75,2.67,201,1.61,0.03300000000000001,14.95
2020-3-12 13:44,10000,2443.1265885416665,192.04661024258453,0.44359614631366745,25.716968260758875,0.005374348958333333,0.39750400837418304,19.7,37,1013.7,4.75,2.4,203,1.37,0.06000000000000001,14.95
2020-3-12 13:44,10000,2312.1136263020835,179.11375404120548,0.44458105572526757,23.95482252364292,0.005425347222222222,0.37147384344362744,19.7,37,1013.7,4.75,2.12,205,1.15,0.08799999999999998,14.95
2020-3-12 13:44,10000,2538.904409722222,197.06771479851994,0.4415591611762886,26.294685140781734,0.005461154513888889,0.41326686751089325,19.6,37,1013.7,4.66,1.92,207,0.99,0.10800000000000001,14.940000000000001
2020-3-12 13:45,10000,2420.5089583333333,188.81255524156234,0.4429236066974896,25.471751123096514,0.005378689236111111,0.4071838150190632,19.6,37,1013.7,4.66,1.74,208,0.87,0.126,14.940000000000001
2020-3-12 13:45,10000,2429.570269097222,191.53389973788322,0.44520618830961145,25.346819039115918,0.005355902777777778,0.3850560449005991,19.6,37,1013.7,4.66,1.62,209,0.78,0.13799999999999998,14.940000000000001
2020-3-12 13:45,10000,2431.5338671875,189.02973523695204,0.4433140312811216,25.136311311576055,0.005406901041666667,0.38831314678649237,19.6,37,1013.7,4.66,1.6,208,0.8,0.13999999999999999,14.940000000000001
2020-3-12 13:45,10000,2555.1540147569444,197.56322373693837,0.4406358887308769,26.636917568630807,0.0054839409722222225,0.4128823997480937,19.6,37,1013.7,4.66,1.68,208,0.84,0.132,14.940000000000001
2020-3-12 13:46,10000,2518.4763975694445,196.69447557948433,0.4452404637156227,25.958240682072848,0.005403645833333333,0.40819427849264706,19.6,37,1013.7,4.66,1.89,208,0.94,0.11100000000000002,14.940000000000001
2020-3-12 13:46,10000,2439.485547,189.69113604750342,0.4433625757741018,25.762797970501293,0.005388454861111111,0.40089678649237476,19.6,37,1013.7,4.66,2.14,207,1.1,0.08599999999999998,14.940000000000001
2020-3-12 13:46,10000,2499.1072699652777,194.1791936021863,0.44375127060323083,25.901853408824845,0.005373263888888889,0.40587851051879087,19.6,37,1013.7,4.66,2.43,205,1.32,0.05699999999999998,14.940000000000001
2020-3-12 13:46,10000,2403.5192404513887,187.11651689225187,0.445419478007515,25.116430364496814,0.005438368055555556,0.3865654913875272,19.6,39,1013.7,5.41,2.69,202,1.58,0.031000000000000003,14.190000000000001
2020-3-12 13:47,10000,2432.4434114583332,190.69624674464905,0.44564675076326943,25.741096630851537,0.005323350694444445,0.38878001599945533,19.6,39,1013.7,5.41,2.93,200,1.8,0.006999999999999984,14.190000000000001
2020-3-12 13:47,10000,2419.405716145833,189.09421656989582,0.44398782704089024,25.307902282218535,0.005303819444444444,0.40477762033632897,19.6,39,1013.7,5.41,3.2,199,2.01,0,14.190000000000001
2020-3-12 13:47,10000,2349.3214908854166,182.98989785425633,0.4430523299151984,25.02238009377383,0.005359157986111111,0.39663696980528323,19.6,39,1013.7,5.41,3.34,198,2.15,0,14.190000000000001
2020-3-12 13:47,10000,2505.8187109375,195.15943901349172,0.44298043843292495,26.20005662957592,0.005340711805555555,0.4082663143382353,19.7,38,1013.7,5.13,3.26,197,2.14,0,14.57
2020-3-12 13:48,10000,2450.146028645833,189.20689986625834,0.4443734512447611,24.79063563624051,0.005401475694444445,0.38312957005718956,19.7,38,1013.7,5.13,3.12,196,2.09,0,14.57
2020-3-12 13:48,10000,2546.0896050347224,200.33070962964757,0.44305077129080195,26.1744272513402,0.005380859,0.42916439014842045,19.7,38,1013.7,5.13,3.08,195,2.1,0,14.57
2020-3-12 13:48,10000,2443.248111979167,188.66516816235648,0.44152128962230164,25.46631524936903,0.005407986111111111,0.41066391356889975,19.7,38,1013.7,5.13,2.95,195,2.01,0.004999999999999982,14.57
2020-3-12 13:48,10000,2386.4847916666668,187.12378906182192,0.4454333723822572,24.479404989321825,0.005402560763888889,0.3808144403594771,19.6,37,1013.7,4.66,2.85,193,2.02,0.014999999999999989,14.940000000000001
2020-3-12 13:49,10000,2365.390705295139,184.8777593287703,0.4467018107149794,24.07294434085159,0.005397135416666666,0.3726691729643246,19.6,37,1013.7,4.66,2.81,191,2.05,0.018999999999999993,14.940000000000001
2020-3-12 13:49,10000,2361.8966710069444,184.21592073109824,0.44447095734854397,24.636482192599434,0.005442708333333333,0.3867392939814815,19.6,37,1013.7,4.66,2.72,191,1.99,0.02799999999999998,14.940000000000001
2020-3-12 13:49,10000,2417.0348611111112,186.88197234760798,0.4416731220400505,25.445601282854202,0.005379774305555555,0.4053421585648148,19.6,37,1013.7,4.66,2.7,191,1.97,0.029999999999999978,14.940000000000001
2020-3-12 13:49,10000,2541.049769965278,198.70739149267396,0.44210948765135005,26.25497810671578,0.005434027777777778,0.417648611962146,19.6,38,1013.7,5.04,2.74,188,2.1,0.025999999999999978,14.560000000000002
2020-3-12 13:50,10000,2366.1096484375,186.32829741651625,0.4448088559901923,24.363115814867953,0.005358072916666666,0.38806078090958607,19.6,38,1013.7,5.04,2.71,184,2.19,0.029,14.560000000000002
2020-3-12 13:50,10000,2350.0996180555558,184.04769413968188,0.4442743757182811,24.581752392774415,0.005372178819444445,0.38590373519199345,19.6,38,1013.7,5.04,2.51,182,2.08,0.04900000000000002,14.560000000000002
2020-3-12 13:50,10000,2392.0150303819446,188.0447502848118,0.4468920959814581,24.204336601357276,0.005350477430555556,0.38671623944716776,19.6,38,1013.7,5.04,2.38,178,2.06,0.062000000000000006,14.560000000000002
2020-3-12 13:50,10000,2374.5140928819446,187.15791980799813,0.44470512280478625,24.695252515735167,0.005348307291666667,0.40143401926742917,19.7,38,1013.7,5.13,2.16,174,1.94,0.08399999999999999,14.57
2020-3-12 13:51,10000,2492.5006944444444,193.7502278645644,0.44477559189153265,24.532111025401772,0.005422092013888889,0.3899490825844227,19.7,38,1013.7,5.13,1.93,171,1.77,0.107,14.57
2020-3-12 13:51,10000,2303.819214409722,178.56791558086132,0.44386944779612686,23.673368219882654,0.005384114583333334,0.3911749812772331,19.7,38,1013.7,5.13,1.72,169,1.61,0.128,14.57
2020-3-12 13:51,10000,2443.805134548611,189.62621182753838,0.44138551578269436,25.1957084384993,0.005387369791666667,0.4222307836328976,19.7,38,1013.7,5.13,1.51,170,1.4,0.149,14.57
2020-3-12 13:51,10000,2316.0917447916668,181.60585828930766,0.4452324357509204,23.580353019567212,0.005488281,0.37261925976988014,19.6,37,1013.7,4.66,1.34,170,1.24,0.166,14.940000000000001
2020-3-12 13:52,10000,2412.422356770833,189.17250649768218,0.4450697998446105,24.05872701994928,0.005400391,0.40557141033496735,19.6,37,1013.7,4.66,1.28,174,1.15,0.17200000000000001,14.940000000000001
2020-3-12 13:52,10000,2317.0460850694444,179.32872715603744,0.44485060250435055,23.144652925245904,0.005454644097222222,0.38160520492919386,19.6,37,1013.7,4.66,1.33,178,1.15,0.16699999999999998,14.940000000000001
2020-3-12 13:52,10000,2378.0333550347223,185.5758062058613,0.44563611695172806,23.952257079824264,0.0054058159722222224,0.38222272858796297,19.6,37,1013.7,4.66,1.39,182,1.15,0.161,14.940000000000001
2020-3-12 13:52,10000,2328.1840321180557,181.4363530311479,0.4439915340905386,23.496824265082882,0.005401475694444445,0.39408761829384537,19.6,38,1013.6,5.04,1.68,189,1.26,0.132,14.560000000000002
2020-3-12 13:53,10000,2495.635469,193.82667859615634,0.443433596833463,25.0810386955454,0.005423177083333334,0.41273776211873636,19.6,38,1013.6,5.04,1.95,195,1.33,0.10500000000000001,14.560000000000002
2020-3-12 13:53,10000,2353.9732161458332,184.35468531761177,0.4457433678589207,24.246826162894838,0.005363498263888889,0.3931571265659042,19.6,38,1013.6,5.04,2.19,200,1.35,0.081,14.560000000000002
2020-3-12 13:53,10000,2446.3668272569444,190.3917218971146,0.4436929287023002,24.87609234127418,0.005389539930555556,0.4079261046432462,19.6,38,1013.6,5.04,2.41,203,1.38,0.05899999999999998,14.560000000000002
2020-3-12 13:53,10000,1835.9570789930556,139.56601236761463,0.434102758838147,14.604441532598402,0.005401475694444445,0.4048950929330065,19.7,37,1013.6,4.75,2.54,207,1.31,0.04599999999999999,14.95
2020-3-12 13:54,10000,1839.5386263020832,143.14321180419452,0.44017644552083734,14.736460073862201,0.0054177517361111115,0.37718001089324615,19.7,37,1013.6,4.75,2.56,210,1.2,0.04399999999999999,14.95
2020-3-12 13:54,10000,1800.5442578125,138.2593760842112,0.4355711188665498,14.359827956177643,0.005464409722222222,0.3805719337214052,19.7,37,1013.6,4.75,2.45,211,1.11,0.05499999999999998,14.95
2020-3-12 13:54,10000,1817.310271267361,141.016437714187,0.43940424533541433,13.995860618764967,0.005467664930555556,0.37622458384395424,19.7,37,1013.6,4.75,2.31,211,1.05,0.06899999999999999,14.95
2020-3-12 13:54,10000,1797.8853776041667,138.67404187349734,0.4390022028114687,13.699061131044058,0.005469835069444444,0.3768585026892702,19.7,37,1013.6,4.75,2.01,209,0.98,0.09900000000000002,14.95
2020-3-12 13:55,10000,1804.9762847222223,141.50539387170187,0.44164270116643933,13.37061417946097,0.005513237847222222,0.377649020458878,19.7,37,1013.6,4.75,1.69,205,0.92,0.131,14.95
2020-3-12 13:55,10000,1745.1981662326389,134.17081270302546,0.437698996162616,12.956340383564548,0.005423177083333334,0.3761401696963508,19.7,37,1013.6,4.75,1.34,197,0.88,0.166,14.95
2020-3-12 13:55,10000,1773.0588628472221,137.167322029321,0.43928592976417663,12.770093609781595,0.005454644097222222,0.37615309691584964,19.7,37,1013.6,4.75,1,198,0.64,0.19999999999999998,14.95
2020-3-12 13:55,10000,1730.0923046875,134.18712239101077,0.4386014356979141,12.486423426581315,0.005435112847222222,0.3777849392361111,19.6,37,1013.6,4.66,0.89,199,0.56,0.21099999999999997,14.940000000000001
2020-3-12 13:56,10000,1739.5443424479167,136.20003146698448,0.44130957625757217,12.301930281494709,0.005343967013888889,0.37651909722222227,19.6,37,1013.6,4.66,0.91,202,0.53,0.209,14.940000000000001
2020-3-12 13:56,10000,1697.0532421875,131.31439117358062,0.43868093290659627,12.024911709750837,0.005389539930555556,0.37784319257216775,19.6,37,1013.6,4.66,1.03,203,0.59,0.19699999999999998,14.940000000000001
2020-3-12 13:56,10000,1716.2988216145834,133.59987193806495,0.43967853529150563,11.934011315952342,0.005391710069444444,0.37814942895561005,19.6,37,1013.6,4.66,1.21,204,0.68,0.179,14.940000000000001
2020-3-12 13:56,10000,1755.5247026909722,136.10387367549473,0.43815848091906556,12.940347822072845,0.005363498263888889,0.3895916777301198,19.7,38,1013.5,5.13,1.31,204,0.73,0.169,14.57
2020-3-12 13:57,10000,1935.4179796006945,149.62104382809778,0.43558092300780304,17.28747689783004,0.0053211805555555556,0.4208848166870915,19.7,38,1013.5,5.13,1.37,209,0.66,0.163,14.57
2020-3-12 13:57,10000,2021.4167534722221,155.5743804252895,0.43258679440446113,18.497621016828784,0.005302734,0.44107243583197164,19.7,38,1013.5,5.13,1.49,215,0.58,0.151,14.57
2020-3-12 13:57,10000,2061.194865451389,160.27322482126021,0.4339599863967318,18.55963202876312,0.005361328,0.4428222996663943,19.7,38,1013.5,5.13,1.61,213,0.68,0.13899999999999998,14.57
2020-3-12 13:57,10000,2093.550798611111,163.43013129334506,0.434701070195372,18.780444256869558,0.005319010416666666,0.4512423449414488,19.7,37,1013.5,4.75,1.58,214,0.64,0.142,14.95
2020-3-12 13:58,10000,2115.6294661458332,163.9552680119538,0.43476846130880487,18.860276765899794,0.005355902777777778,0.44442743225762527,19.7,37,1013.5,4.75,1.54,213,0.65,0.146,14.95
2020-3-12 13:58,10000,2108.0707291666668,162.42886501736112,0.4327562918959655,18.682304359950333,0.005376519097222222,0.44969852090141615,19.7,37,1013.5,4.75,1.57,213,0.66,0.143,14.95
2020-3-12 13:58,10000,2111.5971180555557,165.31919813223823,0.43416703230369846,18.636391985702904,0.005422092013888889,0.4490046338848039,19.7,37,1013.5,4.75,1.64,215,0.64,0.136,14.95
2020-3-12 13:58,10000,2122.8274869791667,163.04080946180557,0.4325690448866796,18.772250760802336,0.005399305555555556,0.45280234289896515,19.7,36,1013.5,4.36,1.82,217,0.65,0.118,15.34
2020-3-12 13:59,10000,2148.363220486111,164.76191080677242,0.433346993988935,18.661743330732186,0.0052973090277777775,0.44808669917619826,19.7,36,1013.5,4.36,2.03,216,0.76,0.09700000000000002,15.34
2020-3-12 13:59,10000,2113.7385373263887,162.38378146701268,0.4316419085554585,18.52593222511967,0.005338541666666667,0.45698678342864923,19.7,36,1013.5,4.36,2.17,216,0.81,0.083,15.34
2020-3-12 13:59,10000,2122.6448676215277,163.1843088107345,0.4325553202229821,17.868755411037387,0.005351563,0.45647938793572984,19.7,36,1013.5,4.36,2.25,215,0.88,0.075,15.34
2020-3-12 13:59,10000,2111.9436111111113,163.8067480468737,0.4352256599708963,17.290133363693453,0.005386284722222222,0.4582119800177015,19.7,36,1013.5,4.36,2.4,213,1.01,0.06000000000000001,15.34
2020-3-12 14:00,10000,2093.8771006944444,165.12812934025897,0.4373656911590339,16.813863605977605,0.005384114583333334,0.45952809691584967,19.7,36,1013.5,4.36,2.51,212,1.1,0.04900000000000002,15.34
2020-3-12 14:00,10000,2060.0411805555555,160.86549370658662,0.43523890792391484,16.31564646345282,0.005352647569444444,0.45873957907815904,19.7,36,1013.5,4.36,2.52,210,1.18,0.048,15.34
2020-3-12 14:00,10000,2053.235464409722,159.64370117161016,0.4349541850591873,15.925343269016393,0.005296223958333333,0.4591780024509804,19.7,36,1013.5,4.36,2.52,205,1.37,0.048,15.34
2020-3-12 14:00,10000,2032.546427951389,159.93562174479047,0.4361774711114105,15.444411952067808,0.005381944444444444,0.45868368310866015,19.8,38,1013.5,5.22,2.45,202,1.44,0.05499999999999998,14.580000000000002
2020-3-12 14:01,10000,2066.9588324652777,161.197836371523,0.4358259347956494,15.143909823124602,0.005418836805555555,0.46039606311274506,19.8,38,1013.5,5.22,2.39,199,1.51,0.060999999999999985,14.580000000000002
2020-3-12 14:01,10000,2035.9749826388888,158.70947808159613,0.4348602910694489,14.801589909126347,0.005414496527777778,0.459416321997549,19.8,38,1013.5,5.22,2.33,197,1.53,0.06699999999999999,14.580000000000002
2020-3-12 14:01,10000,2027.6722612847223,156.09003689205983,0.4356542323748367,14.439929542921286,0.005399305555555556,0.4579715499046841,19.8,38,1013.5,5.22,2.38,196,1.59,0.062000000000000006,14.580000000000002
2020-3-12 14:01,10000,2026.9530121527778,158.3261545138889,0.4372746293616947,14.267451131140179,0.005396050347222223,0.4602310389433551,19.9,37,1013.5,4.93,2.47,194,1.71,0.052999999999999985,14.969999999999999
2020-3-12 14:02,10000,2024.7622135416666,157.09214518228097,0.43682781165737455,14.190478993142765,0.005375434027777778,0.46121501821214594,19.9,37,1013.5,4.93,2.48,193,1.75,0.052,14.969999999999999
2020-3-12 14:02,10000,1997.3684288194445,156.15013129330734,0.4375120462201118,14.149938734458699,0.005391710069444444,0.46138625493600216,19.9,37,1013.5,4.93,2.48,192,1.78,0.052,14.969999999999999
2020-3-12 14:02,10000,2035.5120529513888,157.24627604074348,0.43629215983206965,14.149130661976255,0.005379774305555555,0.4612856328295207,19.9,37,1013.5,4.93,2.46,192,1.77,0.054000000000000006,14.969999999999999
2020-3-12 14:02,10000,2013.8873567708333,157.79618489583333,0.43853701395594735,14.17482754320046,0.005424262152777777,0.46100472324346403,19.8,37,1013.5,4.84,2.44,190,1.81,0.056,14.96
2020-3-12 14:03,10000,2022.9571180555556,158.05666775121682,0.4383749107977595,14.11279584731305,0.005340711805555555,0.46134601375272327,19.8,37,1013.5,4.84,2.36,187,1.84,0.06400000000000002,14.96
2020-3-12 14:03,10000,1981.5295703125,152.74739800335428,0.4358300599187916,14.092203504221779,0.005351563,0.4612978707107843,19.8,37,1013.5,4.84,2.42,181,2.03,0.058,14.96
2020-3-12 14:03,10000,2010.7269618055554,156.8552680121423,0.4374156317200617,14.084707319922773,0.0052669270833333335,0.4615161994485294,19.8,37,1013.5,4.84,2.36,173,2.14,0.06400000000000002,14.96
2020-3-12 14:03,10000,2020.1483159722222,155.86011284601648,0.4366688974742567,14.13661433179261,0.005374348958333333,0.4613048406862745,19.8,38,1013.5,5.22,2.19,166,2.09,0.081,14.580000000000002
2020-3-12 14:04,10000,2042.1110807291666,158.05001953125,0.4366225035015634,14.161698666659095,0.005425347222222222,0.461372872412854,19.8,38,1013.5,5.22,2.09,163,2.02,0.09100000000000001,14.580000000000002
2020-3-12 14:04,10000,2016.9132725694444,156.64970486110641,0.43660374813679154,14.101470411463254,0.005375434027777778,0.4612451576116558,19.8,38,1013.5,5.22,2.03,160,1.99,0.09700000000000002,14.580000000000002
2020-3-12 14:04,10000,2028.4329470486111,156.31286132792596,0.43629810654281126,14.095704098049271,0.005430772569444444,0.46015364583333335,19.8,38,1013.5,5.22,1.97,158,1.94,0.103,14.580000000000002
2020-3-12 14:04,10000,2013.1827821180555,156.94935980902778,0.43852964937614647,14.132983966234011,0.005442708333333333,0.4609174921704793,19.8,38,1013.6,5.22,1.99,159,1.96,0.10099999999999999,14.580000000000002
2020-3-12 14:05,10000,2029.1662934027777,157.98974609358035,0.4379292358271847,14.108056469964417,0.005351563,0.4610522663058279,19.8,38,1013.6,5.22,2.09,164,2.01,0.09100000000000001,14.580000000000002
2020-3-12 14:05,10000,1995.8376432291666,155.26841688367935,0.4364345008162787,14.1132365480169,0.005355902777777778,0.4601948699618736,19.8,38,1013.6,5.22,2.05,169,1.92,0.09500000000000001,14.580000000000002
2020-3-12 14:05,10000,2021.0480512152778,156.31400607600736,0.4360361790767854,14.09264976318507,0.005352647569444444,0.4599237940836057,19.8,38,1013.6,5.22,2.02,173,1.83,0.09799999999999999,14.580000000000002
2020-3-12 14:05,10000,2011.1333680555556,158.33610134548485,0.43866749671603605,14.190538014463959,0.005366753472222222,0.4611956869553377,19.8,37,1013.6,4.84,1.98,175,1.77,0.10200000000000001,14.96
2020-3-12 14:06,10000,2064.219240451389,162.03499565971762,0.43963197375356444,14.211090981170367,0.005489366319444445,0.461472758374183,19.8,37,1013.6,4.84,1.91,174,1.72,0.109,14.96
2020-3-12 14:06,10000,2042.7329166666666,159.3457747395788,0.4384360297223692,14.20094004807253,0.005470920138888889,0.46127935644744006,19.8,37,1013.6,4.84,1.86,175,1.66,0.11399999999999998,14.96
2020-3-12 14:06,10000,2045.9198263888889,159.46502604166668,0.43830668413900725,14.109459941347259,0.0054329427083333335,0.45991934742647056,19.8,37,1013.6,4.84,1.92,176,1.69,0.10800000000000001,14.96
2020-3-12 14:06,10000,2036.3598307291666,159.98012152777778,0.43964403847744893,14.183501534316902,0.005509982638888889,0.46035458792892153,19.7,37,1013.6,4.75,1.87,177,1.63,0.11299999999999999,14.95
2020-3-12 14:07,10000,2007.663984,156.59978081574152,0.4381941110582565,14.08461403523812,0.005380859,0.4603903611791939,19.7,37,1013.6,4.75,1.77,178,1.54,0.12299999999999998,14.95
2020-3-12 14:07,10000,1991.8159765625,155.22580945992183,0.43765553578280836,14.052927526879822,0.005337456597222222,0.46018056406590413,19.7,37,1013.6,4.75,1.72,178,1.49,0.128,14.95
2020-3-12 14:07,10000,2006.2731032986112,156.4756054685804,0.43731917686704636,14.082487795839787,0.005376519097222222,0.4607829861111111,19.7,37,1013.6,4.75,1.71,182,1.42,0.129,14.95
2020-3-12 14:07,10000,2001.7371571180556,155.10500868055556,0.43656421463943246,14.117709685361737,0.005414496527777778,0.460270084422658,19.6,38,1013.6,5.04,1.72,188,1.32,0.128,14.560000000000002
2020-3-12 14:08,10000,2043.6104947916667,159.90509874131828,0.43921983536289494,14.126609018022089,0.005454644097222222,0.46051207192946625,19.6,38,1013.6,5.04,1.74,195,1.19,0.126,14.560000000000002
2020-3-12 14:08,10000,2008.3556467013889,156.19298828125,0.43763006329424353,14.071825908603733,0.005447048611111111,0.45934604353894337,19.6,38,1013.6,5.04,1.72,199,1.08,0.128,14.560000000000002
2020-3-12 14:08,10000,2020.4389322916666,157.45637044244356,0.43747792395303936,13.975484969711815,0.005425347222222222,0.45863120404411767,19.6,38,1013.6,5.04,1.58,203,0.9,0.142,14.560000000000002
2020-3-12 14:08,10000,2027.4445138888889,158.7601529947905,0.4389037900896472,14.045053517583796,0.005476345486111111,0.45866924955746186,19.6,38,1013.7,5.04,1.47,208,0.73,0.153,14.560000000000002
2020-3-12 14:09,10000,2030.4643272569444,157.3765798611111,0.43699322083106645,14.029402810262697,0.005470920138888889,0.45914161220043576,19.6,38,1013.7,5.04,1.38,211,0.63,0.162,14.560000000000002
2020-3-12 14:09,10000,2006.4984722222223,155.91406901041665,0.4373500342012953,14.057050045555401,0.005414496527777778,0.45979828346269064,19.6,38,1013.7,5.04,1.33,216,0.5,0.16699999999999998,14.560000000000002
2020-3-12 14:09,10000,2019.1192317708333,158.72308919270722,0.43766721370664624,14.048286021665518,0.005404730902777778,0.4588340609681373,19.6,38,1013.7,5.04,1.28,217,0.46,0.17200000000000001,14.560000000000002
2020-3-12 14:09,10000,2022.2253949652777,156.1435101996516,0.43674344673591503,14.085407214123354,0.005469835069444444,0.4589595332924837,19.6,38,1013.6,5.04,1.2,218,0.41,0.18,14.560000000000002
2020-3-12 14:10,10000,2007.788576388889,155.8346961805508,0.43703660300071234,14.118519501568901,0.005374348958333333,0.45986430249183,19.6,38,1013.6,5.04,1.22,219,0.4,0.17800000000000002,14.560000000000002
2020-3-12 14:10,10000,2002.6624435763888,156.2139268662901,0.43739618861120233,14.083308802079785,0.005356987847222223,0.45955006212554467,19.6,38,1013.6,5.04,1.24,220,0.38,0.176,14.560000000000002
2020-3-12 14:10,10000,1996.9949522569445,156.7260883246516,0.4379819882451396,14.013252801382405,0.005404730902777778,0.45941245829929195,19.6,38,1013.6,5.04,1.21,220,0.37,0.179,14.560000000000002
2020-3-12 14:10,10000,1989.5444835069445,155.82310438367946,0.43752904182435554,14.086827495906704,0.005407986111111111,0.4594773709831154,19.6,38,1013.6,5.04,1.16,221,0.34,0.18400000000000002,14.560000000000002
2020-3-12 14:11,10000,2021.8760633680556,157.84352647568974,0.4373504289282348,14.028185206487592,0.005447048611111111,0.4585922989855664,19.6,38,1013.6,5.04,1.12,223,0.29,0.18799999999999997,14.560000000000002
2020-3-12 14:11,10000,2015.0288368055556,157.19582573784604,0.43743878588735413,14.037843119929935,0.005406901041666667,0.4587449320874183,19.6,38,1013.6,5.04,1.07,223,0.28,0.19299999999999998,14.560000000000002
2020-3-12 14:11,10000,2023.5960460069443,156.12230577251168,0.4354840735393532,13.911552779551307,0.005426432291666667,0.45838653152233116,19.6,38,1013.6,5.04,1.03,223,0.27,0.19699999999999998,14.560000000000002
2020-3-12 14:11,10000,2017.9205425347222,157.8870898437452,0.438218933928235,14.10620464590461,0.005462239583333334,0.4592029675585512,19.6,37,1013.6,4.66,1.01,225,0.23,0.19899999999999998,14.940000000000001
2020-3-12 14:12,10000,2028.4412847222222,156.37271484327903,0.4368780351822714,14.047171875980563,0.005435112847222222,0.45926707175925924,19.6,37,1013.6,4.66,0.91,223,0.23,0.209,14.940000000000001
2020-3-12 14:12,10000,2024.6747743055555,157.8309396701389,0.4379837269050137,14.034488997851902,0.005427517361111111,0.458583197167756,19.6,37,1013.6,4.66,0.91,220,0.28,0.209,14.940000000000001
2020-3-12 14:12,10000,2017.1101605902777,156.17738172723162,0.43666667713655827,14.077020037872856,0.005447048611111111,0.4594199686819172,19.6,37,1013.6,4.66,1.07,218,0.37,0.19299999999999998,14.940000000000001
2020-3-12 14:12,10000,2017.1141276041667,156.47155381944444,0.4371620829096609,14.095965207523687,0.005521918402777778,0.4591598371119281,19.6,38,1013.6,5.04,1.27,215,0.5,0.173,14.560000000000002
2020-3-12 14:13,10000,2008.4139149305556,156.996241319369,0.43887200816454675,14.04328516639991,0.005388454861111111,0.4588180785334967,19.6,38,1013.6,5.04,1.44,212,0.63,0.156,14.560000000000002
2020-3-12 14:13,10000,1977.7969835069443,154.49964518228109,0.43682998522211564,14.062314429143893,0.005362413194444445,0.45929558142701526,19.6,38,1013.6,5.04,1.56,208,0.78,0.144,14.560000000000002
2020-3-12 14:13,10000,2003.796797,155.2583572048564,0.4368132837776706,13.989961808558274,0.005391710069444444,0.4588777956495098,19.6,38,1013.6,5.04,1.59,204,0.89,0.141,14.560000000000002
2020-3-12 14:13,10000,2004.4204904513888,155.38610134387443,0.43708867218823316,14.070720930216737,0.005479600694444444,0.45883310780909586,19.6,38,1013.6,5.04,1.63,202,0.96,0.137,14.560000000000002
2020-3-12 14:14,10000,2053.1844444444446,158.13448350694443,0.43674769297174126,14.104499849051166,0.005489366319444445,0.4587402258646514,19.6,38,1013.6,5.04,1.66,203,0.95,0.134,14.560000000000002
2020-3-12 14:14,10000,2015.0033723958334,156.81496419270712,0.4372770434370711,14.047666509646328,0.005439453,0.457643161083878,19.6,38,1013.6,5.04,1.7,202,1,0.13,14.560000000000002
2020-3-12 14:14,10000,2022.377266,156.9888259548611,0.43744429672503743,13.997360889581733,0.005470920138888889,0.45807819308278863,19.6,38,1013.6,5.04,1.63,203,0.94,0.137,14.560000000000002
2020-3-12 14:14,10000,2027.046579861111,158.96158637152777,0.4382428960241415,14.038581655674802,0.00546875,0.4585190248842592,19.5,37,1013.6,4.57,1.54,202,0.9,0.146,14.93
2020-3-12 14:15,10000,2036.7301953125,157.41810655380888,0.43753126906764245,14.05536043258678,0.0054361979166666664,0.45923166019880174,19.5,37,1013.6,4.57,1.49,200,0.92,0.151,14.93
2020-3-12 14:15,10000,2000.3364409722221,156.5116254340278,0.4381941558333783,14.039125745712415,0.005466579861111111,0.4601933934163943,19.5,37,1013.6,4.57,1.47,200,0.91,0.153,14.93
2020-3-12 14:15,10000,2023.3306163194445,157.5535839832435,0.4377625499674463,14.02663702544628,0.005434027777777778,0.46016778577750544,19.5,37,1013.6,4.57,1.57,199,0.99,0.143,14.93
2020-3-12 14:15,10000,2026.3040321180556,156.6273144531239,0.4373529630153003,14.093908827526347,0.005515407986111111,0.4596775854438998,19.5,38,1013.6,4.95,1.67,196,1.12,0.133,14.55
2020-3-12 14:16,10000,2026.6291536458334,158.94771267360647,0.4385451156085012,14.074730887605314,0.005504557291666667,0.4598602047589869,19.5,38,1013.6,4.95,1.78,195,1.22,0.122,14.55
2020-3-12 14:16,10000,2022.4435373263889,156.8077441406145,0.4376423583150327,14.10055192597123,0.005458984,0.46116156045751633,19.5,38,1013.6,4.95,1.79,198,1.15,0.121,14.55
2020-3-12 14:16,10000,2041.083025173611,158.2475998263889,0.43688966830922893,14.051741284521565,0.005404730902777778,0.45978604983660126,19.5,38,1013.6,4.95,1.84,197,1.21,0.11599999999999999,14.55
2020-3-12 14:16,10000,2037.63625,159.17238172742935,0.4392286822731875,14.109948816277406,0.0054633246527777775,0.4596304678989651,19.5,38,1013.5,4.95,1.9,195,1.3,0.11,14.55
2020-3-12 14:17,10000,2003.5139409722221,155.15823784720334,0.4362623405815295,14.059069836783562,0.005341797,0.4599196920955882,19.5,38,1013.5,4.95,1.98,195,1.35,0.10200000000000001,14.55
2020-3-12 14:17,10000,2021.086896701389,157.32970920138422,0.4376073308727947,14.10307504127526,0.005304904513888889,0.4620407518041939,19.5,38,1013.5,4.95,2.08,194,1.45,0.09199999999999998,14.55
2020-3-12 14:17,10000,2012.3462109375,156.88461805553666,0.43668466913143233,14.036100181224166,0.005374348958333333,0.46171983932461874,19.5,38,1013.5,4.95,2.19,194,1.52,0.081,14.55
2020-3-12 14:17,10000,1994.2254253472222,156.32043077256822,0.43740430574691186,14.081372538294413,0.005337456597222222,0.4607403109681372,19.5,38,1013.5,4.95,2.31,194,1.6,0.06899999999999999,14.55
2020-3-12 14:18,10000,2062.5234461805558,160.63289930548015,0.43807237374172003,14.131688576487806,0.005478516,0.4613991183278867,19.5,38,1013.5,4.95,2.46,191,1.8,0.054000000000000006,14.55
2020-3-12 14:18,10000,2021.4943402777778,158.78560438367933,0.43799355567716347,14.135424901009628,0.005409071180555555,0.4620179908769063,19.5,38,1013.5,4.95,2.56,187,1.99,0.04399999999999999,14.55
2020-3-12 14:18,10000,2045.8454730902777,161.30342773395014,0.4380890559106609,14.141567363499467,0.005429688,0.4622388897399237,19.5,38,1013.5,4.95,2.59,186,2.04,0.041000000000000016,14.55
2020-3-12 14:18,10000,2050.3545833333333,160.77632921006827,0.43866303280536095,14.185884394838855,0.005452473958333333,0.4620354796432462,19.6,38,1013.5,5.04,2.56,186,2.02,0.04399999999999999,14.560000000000002
2020-3-12 14:19,10000,2066.713012152778,160.76214626705982,0.4382205596880383,14.174189410607056,0.005454644097222222,0.46166722834967316,19.6,38,1013.5,5.04,2.5,186,1.97,0.049999999999999996,14.560000000000002
2020-3-12 14:19,10000,2040.0730642361111,158.9867969,0.4374564277920596,14.203180433716897,0.005396050347222223,0.4620608064406318,19.6,38,1013.5,5.04,2.44,186,1.92,0.056,14.560000000000002
2020-3-12 14:19,10000,2032.7253038194444,158.94501193415218,0.43749527354231443,14.118949200714589,0.005455729166666667,0.460105192163671,19.6,38,1013.5,5.04,2.35,186,1.85,0.06499999999999999,14.560000000000002
2020-3-12 14:19,10000,2024.2039366319445,157.82279405381828,0.43800103869665635,14.178838588268373,0.0054633246527777775,0.45870649509803924,19.5,38,1013.5,4.95,2.27,186,1.79,0.073,14.55
2020-3-12 14:20,10000,2019.8080859375,157.83942273589247,0.437598238733649,14.188655150814727,0.005435112847222222,0.4592123119212963,19.5,38,1013.5,4.95,2.1,187,1.64,0.09,14.55
2020-3-12 14:20,10000,1987.7947178819445,155.26028971353125,0.4385575344901812,14.112613691573316,0.005332031,0.45587650633169935,19.5,38,1013.5,4.95,1.99,188,1.52,0.10099999999999999,14.55
2020-3-12 14:20,10000,2050.1334071180554,158.90679904513414,0.4360580670703149,14.268257038674419,0.005412326388888889,0.4618465967116013,19.5,38,1013.5,4.95,1.87,186,1.48,0.11299999999999999,14.55
2020-3-12 14:20,10000,2000.754592013889,156.35681098090149,0.43742486473095793,14.145090012452878,0.0054633246527777775,0.4570594405296841,19.6,39,1013.4,5.41,1.8,184,1.45,0.11999999999999998,14.190000000000001
2020-3-12 14:21,10000,2073.817864583333,160.3484396701389,0.43562798145430853,14.424813084642494,0.0054329427083333335,0.4633334780092593,19.6,39,1013.4,5.41,1.72,180,1.46,0.128,14.190000000000001
2020-3-12 14:21,10000,2060.027886284722,159.39310004339214,0.4360966852317177,14.445053791593292,0.005415581597222222,0.466211009837963,19.6,39,1013.4,5.41,1.66,179,1.43,0.134,14.190000000000001
2020-3-12 14:21,10000,2069.4030685763887,161.29042317706444,0.4365792210383354,14.433627783878016,0.005445963541666667,0.4648770467388344,19.6,39,1013.4,5.41,1.63,178,1.41,0.137,14.190000000000001
2020-3-12 14:21,10000,2032.7431727430555,158.3805099826389,0.4368952653926698,14.358348990703066,0.005410156,0.46027937346813724,19.6,39,1013.4,5.41,1.59,176,1.4,0.141,14.190000000000001
2020-3-12 14:22,10000,2064.2496180555554,161.71894422737287,0.4383440733631536,14.47300078000128,0.005464409722222222,0.46554207941857295,19.6,39,1013.4,5.41,1.57,174,1.42,0.143,14.190000000000001
2020-3-12 14:22,10000,2033.9297352430556,155.80650065104047,0.43581682895356433,14.365579051326717,0.005414496527777778,0.46172964324618737,19.6,39,1013.4,5.41,1.6,173,1.45,0.13999999999999999,14.190000000000001
2020-3-12 14:22,10000,2062.913732638889,161.4115212673423,0.4374538147242482,14.469691613305784,0.005493706597222222,0.46635360923883445,19.6,39,1013.4,5.41,1.71,173,1.55,0.129,14.190000000000001
2020-3-12 14:22,10000,2073.505403645833,162.788364800346,0.4382402855261903,14.55367640133607,0.005435112847222222,0.4667696929466231,19.7,39,1013.4,5.5,1.79,173,1.62,0.121,14.2
2020-3-12 14:23,10000,2045.4628993055555,159.41203124995755,0.43804727788777015,14.361164488708841,0.005377604166666667,0.4625764271854575,19.7,39,1013.4,5.5,1.88,174,1.69,0.112,14.2
2020-3-12 14:23,10000,2047.8765190972222,160.86857530380888,0.4378011988810209,14.532060331060752,0.005411241319444445,0.4676076133578431,19.7,39,1013.4,5.5,1.99,172,1.81,0.10099999999999999,14.2
2020-3-12 14:23,10000,2051.911467013889,159.9664236111111,0.4365588627190035,14.475340939216439,0.005424262152777777,0.46395827376089327,19.7,39,1013.4,5.5,2.08,174,1.87,0.09199999999999998,14.2
2020-3-12 14:23,10000,2071.216753472222,163.71068142360647,0.4383364000387108,14.671128269762557,0.005390625,0.4689083818423203,19.6,37,1013.4,4.66,2.32,174,2.09,0.068,14.940000000000001
2020-3-12 14:24,10000,2093.026762152778,162.91351996527777,0.4368931411090254,14.707040107214905,0.005485026041666666,0.46577304602396513,19.6,37,1013.4,4.66,2.53,174,2.27,0.04700000000000002,14.940000000000001
2020-3-12 14:24,10000,2071.1306380208334,161.9674240451389,0.4373336671315594,14.714936212529306,0.005411241319444445,0.46766256467864925,19.6,37,1013.4,4.66,2.66,174,2.39,0.03399999999999998,14.940000000000001
2020-3-12 14:24,10000,2111.7611328125,165.00539930553668,0.4374688834827999,14.76300342556644,0.005480685763888889,0.46983961822576253,19.6,37,1013.4,4.66,2.68,176,2.37,0.03199999999999999,14.940000000000001
2020-3-12 14:24,10000,2060.4138758680556,161.41075737846748,0.43774282863518393,14.69417378836002,0.005465494791666667,0.46150372327750544,19.6,38,1013.4,5.04,2.7,179,2.31,0.029999999999999978,14.560000000000002
2020-3-12 14:25,10000,2064.5191710069444,161.61310221354046,0.43784535509806544,14.71054107897216,0.005412326388888889,0.4623503199891068,19.6,38,1013.4,5.04,2.77,181,2.32,0.022999999999999996,14.560000000000002
2020-3-12 14:25,10000,2058.080629340278,161.17798611111112,0.4368295344391438,14.722688102707325,0.005414496527777778,0.4655674615332244,19.6,38,1013.4,5.04,2.74,181,2.3,0.025999999999999978,14.560000000000002
2020-3-12 14:25,10000,2077.1025303819442,160.93276801214216,0.43575836466818235,14.761718267847565,0.005450303819444445,0.4667351196555011,19.6,38,1013.4,5.04,2.7,180,2.29,0.029999999999999978,14.560000000000002
2020-3-12 14:25,10000,2068.6290885416665,160.85968641492943,0.43774827128918486,14.704431449903314,0.005376519097222222,0.46230379391339865,19.6,38,1013.4,5.04,2.51,180,2.13,0.04900000000000002,14.560000000000002
2020-3-12 14:26,10000,2082.310720486111,162.06455729046093,0.4379760122078794,14.618977422459073,0.005441623263888889,0.4652122097971133,19.6,38,1013.4,5.04,2.4,180,2.04,0.06000000000000001,14.560000000000002
2020-3-12 14:26,10000,2052.285212673611,160.75889756944446,0.43822069548008896,14.586126661984576,0.005401475694444445,0.4654409424360022,19.6,38,1013.4,5.04,2.34,180,1.99,0.06600000000000002,14.560000000000002
2020-3-12 14:26,10000,2103.3027864583332,165.0076388883191,0.4386450450568868,14.640239846869648,0.005383029513888889,0.460972175415305,19.6,38,1013.4,5.04,2.33,179,2,0.06699999999999999,14.560000000000002
2020-3-12 14:26,10000,2089.015238715278,165.42445638020715,0.44034964141661115,14.668945184916755,0.005375434027777778,0.46857508680555554,19.6,38,1013.4,5.04,2.42,177,2.11,0.058,14.560000000000002
2020-3-12 14:27,10000,2058.9154600694446,161.71280815866263,0.43815829585764304,14.537768505440201,0.005330946180555555,0.4651730366625817,19.6,38,1013.4,5.04,2.42,176,2.14,0.058,14.560000000000002
2020-3-12 14:27,10000,2073.5765885416668,162.28711697048496,0.43759260942657446,14.660077157843995,0.005334201388888889,0.4715075486791939,19.6,38,1013.4,5.04,2.47,176,2.18,0.052999999999999985,14.560000000000002
2020-3-12 14:27,10000,2073.8490928819447,162.76432834003472,0.43901029066164876,14.553614031751025,0.005378689236111111,0.46938733149509804,19.6,38,1013.4,5.04,2.47,176,2.18,0.052999999999999985,14.560000000000002
2020-3-12 14:27,10000,2042.8824522569444,159.93418511284597,0.43848919888665755,14.565387829008433,0.005320095486111111,0.46319983575027235,19.5,38,1013.4,4.95,2.44,176,2.16,0.056,14.55
2020-3-12 14:28,10000,2078.9049175347222,162.5738704425094,0.4378947552373082,14.728261225305761,0.005401475694444445,0.4649400403390523,19.5,38,1013.4,4.95,2.37,174,2.13,0.06299999999999999,14.55
2020-3-12 14:28,10000,2073.7780078125,162.71201822916208,0.4377899551527042,14.803438725336086,0.005335286458333333,0.46588717830882354,19.5,38,1013.4,4.95,2.22,172,2.03,0.07799999999999999,14.55
2020-3-12 14:28,10000,2099.101467013889,163.43060112847223,0.4380557727112886,14.712313739262717,0.005402560763888889,0.4671916658156318,19.5,38,1013.4,4.95,2.08,171,1.91,0.09199999999999998,14.55
2020-3-12 14:28,10000,2095.7069401041667,164.70319661458333,0.43863684937861225,14.687998876243201,0.005380859,0.46891458163126365,19.5,38,1013.4,4.95,1.87,173,1.69,0.11299999999999999,14.55
2020-3-12 14:29,10000,2109.0291319444445,165.73145616319445,0.43841060893086997,14.676906908134091,0.005367838541666667,0.47072800074891064,19.5,38,1013.4,4.95,1.74,175,1.55,0.126,14.55
2020-3-12 14:29,10000,2078.5562630208333,162.8139832899294,0.43793970593332116,14.652359274656803,0.005343967013888889,0.4715224332788671,19.5,38,1013.4,4.95,1.62,176,1.43,0.13799999999999998,14.55
2020-3-12 14:29,10000,2076.4353862847224,164.05838324652777,0.4386645747935573,14.577219181051667,0.005434027777777778,0.4646282381876362,19.5,38,1013.4,4.95,1.58,176,1.39,0.142,14.55
2020-3-12 14:29,10000,2076.6852473958334,164.4259548610687,0.4394283350855881,14.560344675360337,0.005388454861111111,0.4668299674904684,19.5,38,1013.4,4.95,1.57,175,1.39,0.143,14.55
2020-3-12 14:30,10000,2088.524396701389,164.4359472632409,0.4388421187076532,14.599146583215678,0.005337456597222222,0.46997146905637255,19.5,38,1013.4,4.95,1.63,177,1.42,0.137,14.55
2020-3-12 14:30,10000,2057.881032986111,161.5533029513843,0.43924764823997053,14.488003707551632,0.005303819444444444,0.46622729013480396,19.5,38,1013.4,4.95,1.75,181,1.47,0.125,14.55
2020-3-12 14:30,10000,2066.925230034722,162.1228537326343,0.4374272347606432,14.533482768812847,0.005383029513888889,0.4688586388548475,19.5,38,1013.4,4.95,1.87,182,1.55,0.11299999999999999,14.55
2020-3-12 14:30,10000,2018.6193315972223,159.32166666666666,0.43948135688815526,14.517396630468001,0.005290798611111111,0.46289834814133984,19.5,38,1013.4,4.95,1.98,180,1.68,0.10200000000000001,14.55
2020-3-12 14:31,10000,2079.241306423611,163.81074218738212,0.43882329312693824,14.58252353606264,0.005373263888888889,0.4655867927900327,19.5,38,1013.4,4.95,2.02,178,1.75,0.09799999999999999,14.55
2020-3-12 14:31,10000,2057.134357638889,161.1665256076343,0.437106909085975,14.680396860999103,0.005380859,0.46840378625408496,19.5,38,1013.4,4.95,1.97,177,1.72,0.103,14.55
2020-3-12 14:31,10000,2098.4086631944447,163.32934244791196,0.43648897559605765,14.747012426688892,0.005362413194444445,0.4700011701729303,19.5,38,1013.4,4.95,1.94,178,1.68,0.106,14.55
2020-3-12 14:31,10000,2026.984063,158.26738606770715,0.43772139510875274,14.601601978669876,0.005388454861111111,0.46225862523828976,19.5,38,1013.4,4.95,1.95,180,1.66,0.10500000000000001,14.55
2020-3-12 14:32,10000,2044.9667708333334,159.26042643195134,0.437615032857508,14.565948137053548,0.005371094,0.46263140829248367,19.5,38,1013.4,4.95,1.89,180,1.6,0.11100000000000002,14.55
2020-3-12 14:32,10000,2007.736328,156.27119791666667,0.4369020221543698,14.49971818478939,0.0054361979166666664,0.4624377297794118,19.5,38,1013.4,4.95,1.93,180,1.63,0.107,14.55
2020-3-12 14:32,10000,2024.6994921875,157.3247298176978,0.4362854944151676,14.416257862493381,0.005386284722222222,0.46161546415441174,19.5,38,1013.4,4.95,2.03,181,1.7,0.09700000000000002,14.55
2020-3-12 14:32,10000,2041.8622960069445,159.28632269965158,0.43857918394731144,14.518516269541227,0.0054448784722222225,0.46365432666122003,19.4,37,1013.4,4.48,2.13,181,1.78,0.08700000000000001,14.919999999999998
2020-3-12 14:33,10000,2040.5123263888888,157.93616644964226,0.43848358436391727,14.354837906525699,0.005387369791666667,0.46330263650599124,19.4,37,1013.4,4.48,2.24,183,1.84,0.07599999999999997,14.919999999999998
2020-3-12 14:33,10000,2025.2979340277777,157.54898003472223,0.4384563565066103,14.290199518588153,0.005368923611111111,0.4653997523488562,19.4,37,1013.4,4.48,2.43,186,1.91,0.05699999999999998,14.919999999999998
2020-3-12 14:33,10000,2023.9126866319446,156.16774522569443,0.43636539795474416,14.201684752199723,0.005368923611111111,0.46211230681508714,19.4,37,1013.4,4.48,2.48,185,1.98,0.052,14.919999999999998
2020-3-12 14:33,10000,2053.2628559027776,160.01616102430555,0.43790824049559957,14.347633318140872,0.005353732638888889,0.4647124055351307,19.4,38,1013.4,4.86,2.48,184,2.01,0.052,14.54
2020-3-12 14:34,10000,2088.1101345486113,162.0096647135406,0.4371527644292823,14.413729621551466,0.005380859,0.4663185848992375,19.4,38,1013.4,4.86,2.51,184,2.03,0.04900000000000002,14.54
2020-3-12 14:34,10000,2040.6768489583333,158.69479600694444,0.43779539010334856,14.375404091414145,0.005384114583333334,0.4621482204861111,19.4,38,1013.4,4.86,2.5,185,2,0.049999999999999996,14.54
2020-3-12 14:34,10000,2058.105881076389,158.53203667520458,0.436327330943037,14.376348851907444,0.005387369791666667,0.46398687704248365,19.4,38,1013.4,4.86,2.48,186,1.95,0.052,14.54
2020-3-12 14:34,10000,2071.7395269097224,161.02999131944443,0.43822466408923233,14.455473928450559,0.005401475694444445,0.4671493821486928,19.4,38,1013.4,4.86,2.42,188,1.86,0.058,14.54
2020-3-12 14:35,10000,2026.3495182291667,158.67438368051307,0.43819652267001175,14.333311883527388,0.005396050347222223,0.4612331324891068,19.4,38,1013.4,4.86,2.33,188,1.78,0.06699999999999999,14.54
2020-3-12 14:35,10000,2048.229688,159.45817708332868,0.4376001969823116,14.483334011927647,0.005272352430555556,0.4661162683823529,19.4,38,1013.4,4.86,2.18,190,1.62,0.08199999999999998,14.54
2020-3-12 14:35,10000,2053.3420138888887,158.9151725019655,0.4372953819582426,14.472217982188075,0.005419922,0.462140246289488,19.4,38,1013.4,4.86,2.15,194,1.49,0.085,14.54
2020-3-12 14:35,10000,2070.5569140625,162.85300238714223,0.4390384611214028,14.720631906145211,0.005392795138888889,0.469044747412854,19.4,38,1013.5,4.86,2.17,198,1.39,0.083,14.54
2020-3-12 14:36,10000,2076.8258203125,160.57723090198192,0.43656274324197586,14.705554538926412,0.005532769097222222,0.46546086090686273,19.4,38,1013.5,4.86,2.15,201,1.29,0.085,14.54
2020-3-12 14:36,10000,2092.3930946180553,162.5193749999953,0.4375506776506676,14.737071450731488,0.005445963541666667,0.47047709865196075,19.4,38,1013.5,4.86,2.05,202,1.2,0.09500000000000001,14.54
2020-3-12 14:36,10000,2071.0316666666668,161.59879231464603,0.43677496824462686,14.63948435724744,0.0054481336805555555,0.4665276373570262,19.4,38,1013.5,4.86,1.95,205,1.06,0.10500000000000001,14.54
2020-3-12 14:36,10000,2091.0564800347224,163.1238270399293,0.4372007583261679,14.679445697804042,0.005354817708333333,0.4732892114311002,19.3,38,1013.5,4.77,1.98,207,1.02,0.10200000000000001,14.530000000000001
2020-3-12 14:37,10000,2095.079965277778,162.23185763888424,0.43666063128259175,14.626273155047082,0.005391710069444444,0.471498119212963,19.3,38,1013.5,4.77,2.08,209,1.01,0.09199999999999998,14.530000000000001
2020-3-12 14:37,10000,2018.0564583333332,156.85357313365105,0.43639180866222127,14.505476312776151,0.005291883680555555,0.4666757301879085,19.3,38,1013.5,4.77,2.27,211,1.03,0.073,14.530000000000001
2020-3-12 14:37,10000,2094.698723958333,162.7190711803247,0.4362541094992273,14.58672587784561,0.005387369791666667,0.4722162054057734,19.3,38,1013.5,4.77,2.46,211,1.12,0.054000000000000006,14.530000000000001
2020-3-12 14:37,10000,2060.579904513889,160.96793836805554,0.43704024898303945,14.583503810792946,0.005342881944444444,0.4673838124659586,19.3,38,1013.5,4.77,2.56,211,1.16,0.04399999999999999,14.530000000000001
2020-3-12 14:38,10000,2143.9744227430556,168.5249240451389,0.43811449539630815,14.720088219052869,0.0054361979166666664,0.4731803555623638,19.3,38,1013.5,4.77,2.67,211,1.21,0.03300000000000001,14.530000000000001
2020-3-12 14:38,10000,2072.674318576389,162.88424153645718,0.4372260753972213,14.61363731963086,0.005387369791666667,0.4723469243600218,19.3,38,1013.5,4.77,2.8,211,1.27,0.020000000000000014,14.530000000000001
2020-3-12 14:38,10000,2101.7996180555556,162.90868055525422,0.43543896947936184,14.674740419941626,0.0054752604166666665,0.4679010118804466,19.3,38,1013.5,4.77,2.93,208,1.47,0.006999999999999984,14.530000000000001
2020-3-12 14:38,10000,2138.9383116319445,166.58458875867936,0.4360936174405819,14.971758827956817,0.005384114583333334,0.4754336873638344,19.3,39,1013.5,5.14,2.95,205,1.61,0.004999999999999982,14.16
2020-3-12 14:39,10000,2122.8425260416666,165.9721017791736,0.4363056103548985,14.953929617216325,0.005442708333333333,0.47177693099809365,19.3,39,1013.5,5.14,2.93,204,1.64,0.006999999999999984,14.16
2020-3-12 14:39,10000,2100.040473090278,164.81770290792835,0.43631042624155103,15.060969582488422,0.005352647569444444,0.47470815887118734,19.3,39,1013.5,5.14,2.9,200,1.78,0.010000000000000007,14.16
2020-3-12 14:39,10000,2163.4627256944445,168.1697276471444,0.43501958344353603,15.191502486733453,0.005384114583333334,0.47525848907271245,19.3,39,1013.5,5.14,2.84,199,1.79,0.016000000000000014,14.16
2020-3-12 14:39,10000,2118.2211414930557,165.47679253470326,0.43612055748522915,15.118964026899784,0.005334201388888889,0.47604482826116556,19.3,39,1013.5,5.14,2.84,197,1.86,0.016000000000000014,14.16
2020-3-12 14:40,10000,2116.5691883680556,168.10388346302244,0.43991384818858414,15.506940188024167,0.005368923611111111,0.46036472375408494,19.3,39,1013.5,5.14,2.82,196,1.89,0.018000000000000016,14.16
2020-3-12 14:40,10000,2324.5547916666665,183.91570312495756,0.4373439504927881,16.666323528747938,0.005277777777777778,0.4980891076048475,19.3,39,1013.5,5.14,2.73,195,1.86,0.027000000000000003,14.16
2020-3-12 14:40,10000,2454.8187196180556,195.56508897531293,0.43918879070429,16.85229806097918,0.005348307291666667,0.5028273675789761,19.3,39,1013.5,5.14,2.65,197,1.74,0.03500000000000001,14.16
2020-3-12 14:40,10000,2434.3951519097222,193.58667860242943,0.43877047019294907,16.996149316283795,0.005392795138888889,0.5021869085307734,19.3,39,1013.6,5.14,2.58,198,1.66,0.041999999999999996,14.16
2020-3-12 14:41,10000,2470.2454036458334,196.4531130629536,0.43995634053076427,16.879989624998668,0.005394965277777778,0.5025119995915032,19.3,39,1013.6,5.14,2.53,199,1.59,0.04700000000000002,14.16
2020-3-12 14:41,10000,2442.7375694444445,193.8207042100118,0.43837882114204657,17.03179917039207,0.005377604166666667,0.502614710988562,19.3,39,1013.6,5.14,2.46,200,1.51,0.054000000000000006,14.16
2020-3-12 14:41,10000,2468.2888151041666,197.37210611959256,0.4385220720238683,17.145733363603107,0.005386284722222222,0.5030506110430283,19.3,39,1013.6,5.14,2.4,200,1.48,0.06000000000000001,14.16
2020-3-12 14:41,10000,2486.380060763889,196.79441406249535,0.437699196431879,17.40624727894289,0.005418836805555555,0.503334218409586,19.3,38,1013.6,4.77,2.35,200,1.45,0.06499999999999999,14.530000000000001
2020-3-12 14:42,10000,2493.1442361111112,198.19079752541865,0.43942509827851023,17.36489547016621,0.005373263888888889,0.5039908769063182,19.3,38,1013.6,4.77,2.36,200,1.45,0.06400000000000002,14.530000000000001
2020-3-12 14:42,10000,2461.2052994791666,196.2295334201389,0.4374978935739967,17.42534455667544,0.005339626736111111,0.5029233302696078,19.3,38,1013.6,4.77,2.47,200,1.52,0.052999999999999985,14.530000000000001
2020-3-12 14:42,10000,2493.986484,198.54232313367007,0.437548850197522,17.648386590949823,0.005345052083333334,0.5037219073393246,19.3,38,1013.6,4.77,2.53,198,1.63,0.04700000000000002,14.530000000000001
2020-3-12 14:42,10000,2496.024318576389,199.1605132378461,0.43849286800944626,17.541663799350257,0.005376519097222222,0.5042337537445534,19.3,39,1013.6,5.14,2.6,197,1.71,0.03999999999999999,14.16
2020-3-12 14:43,10000,2519.3840060763887,201.03351996523546,0.43912754554654465,17.529090111281725,0.005341797,0.5086783386097494,19.3,39,1013.6,5.14,2.66,195,1.82,0.03399999999999998,14.16
2020-3-12 14:43,10000,2509.472712673611,198.76544704859228,0.43694126521119386,17.73644599457001,0.005314670138888889,0.5099715882012527,19.3,39,1013.6,5.14,2.71,192,1.95,0.029,14.16
2020-3-12 14:43,10000,2497.3342274305555,201.87518880206434,0.4406024577747512,17.59850144885874,0.005364583333333333,0.5078703320738017,19.3,39,1013.6,5.14,2.73,190,2.03,0.027000000000000003,14.16
2020-3-12 14:43,10000,2473.8098828125,197.51635416666178,0.4389777486118761,17.55026642709721,0.005361328,0.5059559121391612,19.3,39,1013.6,5.14,2.77,187,2.15,0.022999999999999996,14.16
2020-3-12 14:44,10000,2538.8525303819442,202.51473632040017,0.4399929153471491,17.499712989255237,0.0054177517361111115,0.5059837835307734,19.3,39,1013.6,5.14,2.75,185,2.2,0.024999999999999998,14.16
2020-3-12 14:44,10000,2513.212969,197.9249197048565,0.43743272178488835,17.569843258549994,0.0054448784722222225,0.5063660088167211,19.3,39,1013.6,5.14,2.66,184,2.15,0.03399999999999998,14.16
2020-3-12 14:44,10000,2526.0945399305556,200.92684895832863,0.43959912026111847,17.435471266172787,0.005414496527777778,0.50571971166939,19.3,39,1013.6,5.14,2.57,182,2.13,0.04300000000000002,14.16
2020-3-12 14:44,10000,2496.4685329861113,197.48731770825808,0.4382738422904249,17.381351686139155,0.005340711805555555,0.5077980664488018,19.3,39,1013.6,5.14,2.47,181,2.07,0.052999999999999985,14.16
2020-3-12 14:45,10000,2530.2630034722224,202.31864908416043,0.441268981288608,17.36934549760365,0.005389539930555556,0.5079211048134531,19.3,39,1013.6,5.14,2.34,180,1.99,0.06600000000000002,14.16
2020-3-12 14:45,10000,2486.1672786458334,196.45563910590187,0.4384025601151233,17.08247195872253,0.005388454861111111,0.5084687414896514,19.3,39,1013.6,5.14,2.25,182,1.86,0.075,14.16
2020-3-12 14:45,10000,2487.660642361111,197.70216037320625,0.4397731258047536,16.83762130096249,0.005427517361111111,0.5067676930147058,19.3,39,1013.6,5.14,2.16,184,1.75,0.08399999999999999,14.16
2020-3-12 14:45,10000,2493.0425,199.0343098956026,0.44025863280960603,16.94695230262461,0.005392795138888889,0.5075545385688999,19.2,38,1013.6,4.68,2.04,185,1.63,0.096,14.52
2020-3-12 14:46,10000,2494.4998133680556,199.04936414926337,0.44232386231984366,16.954768882192088,0.005387369791666667,0.5051049666394336,19.2,38,1013.6,4.68,1.92,186,1.51,0.10800000000000001,14.52
2020-3-12 14:46,10000,2455.3541840277776,197.58161241319445,0.4431919387776672,16.917359766148834,0.005310329861111111,0.5068642982366558,19.2,38,1013.6,4.68,1.82,186,1.43,0.118,14.52
2020-3-12 14:46,10000,2495.8043489583333,201.1676540798611,0.4434342131352659,16.790726191881177,0.005365668402777778,0.5071139493123638,19.2,38,1013.6,4.68,1.81,186,1.42,0.119,14.52
2020-3-12 14:46,10000,2489.5852039930555,200.13433268229056,0.4429080081040191,16.795917101558032,0.005427517361111111,0.506354915577342,19.1,37,1013.6,4.21,1.84,186,1.45,0.11599999999999999,14.89
2020-3-12 14:47,10000,2456.8079557291667,194.51063476561424,0.4401268485526122,16.587032658782533,0.005340711805555555,0.5062450427219499,19.1,37,1013.6,4.21,1.87,187,1.46,0.11299999999999999,14.89
2020-3-12 14:47,10000,2430.481970486111,194.09609483506824,0.4409510588647419,16.50186843383723,0.005221354166666667,0.5075044764433552,19.1,37,1013.6,4.21,1.88,187,1.46,0.112,14.89
2020-3-12 14:47,10000,2413.718185763889,192.65971245658648,0.44054754007190294,16.450684831613902,0.005292969,0.5040494025735295,19.1,37,1013.6,4.21,1.86,185,1.48,0.11399999999999998,14.89
2020-3-12 14:47,10000,2397.274688,191.4560557725683,0.4406245406810473,16.346631904528408,0.0052311197916666665,0.5049983447372004,19.1,38,1013.6,4.59,1.86,183,1.53,0.11399999999999998,14.510000000000002
2020-3-12 14:48,10000,2478.527847222222,197.9473111978744,0.44236367790170705,16.29113090532551,0.005354817708333333,0.5054625459558824,19.1,38,1013.6,4.59,1.86,183,1.52,0.11399999999999998,14.510000000000002
2020-3-12 14:48,10000,2453.6032248263887,195.50987196180097,0.442339285721973,16.293004158102196,0.005366753472222222,0.5047103885825163,19.1,38,1013.6,4.59,1.87,183,1.53,0.11299999999999999,14.510000000000002
2020-3-12 14:48,10000,2444.9342144097222,195.20843098852367,0.4411916231196518,16.396074136538978,0.005424262152777777,0.5038307121459695,19.1,38,1013.6,4.59,1.79,182,1.48,0.121,14.510000000000002
2020-3-12 14:48,10000,2409.654253472222,192.52466796874518,0.4407226049853482,16.513999748093827,0.005281032986111111,0.5039306576797385,19.1,38,1013.6,4.59,1.72,181,1.44,0.128,14.510000000000002
2020-3-12 14:49,10000,2450.6680555555554,196.5855642357296,0.44241270684728573,16.609147341644896,0.0053363715277777776,0.5029427423747277,19.1,38,1013.6,4.59,1.67,179,1.43,0.133,14.510000000000002
2020-3-12 14:49,10000,2449.0415538194443,196.30650173610638,0.44096047198978944,16.706645268121527,0.0052821180555555555,0.5050626787173202,19.1,38,1013.6,4.59,1.6,180,1.36,0.13999999999999999,14.510000000000002
2020-3-12 14:49,10000,2475.9373697916667,195.97963975614874,0.4387286913600976,16.556587159480507,0.005307074652777778,0.5057154905364923,19.1,38,1013.6,4.59,1.54,181,1.29,0.146,14.510000000000002
2020-3-12 14:49,10000,2472.763736979167,197.6531641,0.4412793632071767,16.386453101610915,0.005363498263888889,0.5061597732843137,19.1,37,1013.6,4.21,1.46,184,1.18,0.154,14.89
2020-3-12 14:50,10000,2449.7451085069442,196.97464626679172,0.4418708822732145,16.183077043039773,0.005348307291666667,0.5055484323937909,19.1,37,1013.6,4.21,1.41,185,1.12,0.159,14.89
2020-3-12 14:50,10000,2430.705972222222,193.35552625867933,0.4407577586238718,15.981516114948292,0.005277777777777778,0.50543362353622,19.1,37,1013.6,4.21,1.39,185,1.11,0.161,14.89
2020-3-12 14:50,10000,2438.639688,194.92753255208333,0.44151623677354634,15.903233527131926,0.005317925347222223,0.5055832695057189,19.1,37,1013.6,4.21,1.45,186,1.15,0.155,14.89
2020-3-12 14:50,10000,2428.230403645833,195.5966471354119,0.44280210769702355,15.865050389771872,0.0053363715277777776,0.5052531275531046,19.2,39,1013.6,5.05,1.54,187,1.2,0.146,14.149999999999999
2020-3-12 14:51,10000,2420.1725434027776,194.5584396695695,0.4422193716524662,15.807019503876974,0.005339626736111111,0.5032733226102941,19.2,39,1013.6,5.05,1.6,187,1.24,0.13999999999999999,14.149999999999999
2020-3-12 14:51,10000,2396.9827864583335,190.1175878905673,0.4411040048543159,15.747229851091532,0.005367838541666667,0.49989741200299564,19.2,39,1013.6,5.05,1.67,184,1.35,0.133,14.149999999999999
2020-3-12 14:51,10000,2361.3899696180556,187.4105783420128,0.4398964402431748,15.627800672822081,0.0054210069444444444,0.49598822593273423,19.2,39,1013.6,5.05,1.78,182,1.47,0.122,14.149999999999999
2020-3-12 14:51,10000,2324.5593793402777,186.58666232631347,0.4420311129797365,15.634516446609823,0.005389539930555556,0.4937225371051198,19.2,39,1013.5,5.05,1.84,178,1.59,0.11599999999999999,14.149999999999999
2020-3-12 14:52,10000,2304.8024131944444,183.9619542100589,0.44171775293633414,15.568032511225978,0.005404730902777778,0.4907519488698257,19.2,39,1013.5,5.05,1.9,176,1.68,0.11,14.149999999999999
2020-3-12 14:52,10000,2249.1701866319445,178.4565256076389,0.44043273411951783,15.380453187179203,0.005412326388888889,0.4884387467660675,19.2,39,1013.5,5.05,1.89,176,1.67,0.11100000000000002,14.149999999999999
2020-3-12 14:52,10000,2277.175334201389,181.41627604166666,0.44105495873192535,15.364310663182335,0.005330946180555555,0.49068678513071895,19.2,39,1013.5,5.05,1.85,176,1.63,0.11499999999999999,14.149999999999999
2020-3-12 14:52,10000,2310.711740451389,184.28538628472222,0.44207464351235215,15.581299991553479,0.005418836805555555,0.49479121136301746,19.2,38,1013.5,4.68,1.75,177,1.53,0.125,14.52
2020-3-12 14:53,10000,2366.899978298611,188.38690212529374,0.4425585060340542,15.627219509005913,0.005398220486111111,0.4984903790509259,19.2,38,1013.5,4.68,1.73,180,1.47,0.127,14.52
2020-3-12 14:53,10000,2428.9884765625,194.55967230902306,0.44229363766275615,15.859576656031754,0.005235460069444444,0.5060508067810457,19.2,38,1013.5,4.68,1.72,185,1.37,0.128,14.52
2020-3-12 14:53,10000,2463.0228168402778,196.07011067691363,0.44084536172350747,15.916685062688487,0.005298394097222222,0.5072115757761438,19.2,38,1013.5,4.68,1.66,187,1.29,0.134,14.52
2020-3-12 14:53,10000,2413.7001085069446,193.39761067708332,0.4421188529597793,15.70230656676364,0.005322266,0.504384152879902,19.2,38,1013.5,4.68,1.78,191,1.3,0.122,14.52
2020-3-12 14:54,10000,2472.035490451389,196.87813042482802,0.44217926255627066,15.776858670668194,0.005429688,0.505146790747549,19.2,38,1013.5,4.68,1.93,193,1.36,0.107,14.52
2020-3-12 14:54,10000,2441.4913628472223,189.55990885416668,0.44144109396126724,15.767646996916277,0.005453559027777778,0.5053307164011438,19.2,38,1013.5,4.68,2.12,195,1.45,0.08799999999999998,14.52
2020-3-12 14:54,10000,2487.9091102430557,197.72715820250207,0.4403435643910107,15.800331574272509,0.005387369791666667,0.505794032543573,19.2,38,1013.5,4.68,2.36,196,1.58,0.06400000000000002,14.52
2020-3-12 14:54,10000,2471.1428602430556,197.1779665798611,0.44217949931073564,15.78603032031617,0.005372178819444445,0.5046580158973311,19.2,40,1013.5,5.41,2.57,199,1.62,0.04300000000000002,13.79
2020-3-12 14:55,10000,2479.913047,198.22411458332877,0.44301233189689027,15.659367898691432,0.005391710069444444,0.5057807649101307,19.2,40,1013.5,5.41,2.73,198,1.75,0.027000000000000003,13.79
2020-3-12 14:55,10000,2451.8585069444443,193.7503407118008,0.44017604432483043,15.609096898124513,0.005323350694444445,0.506954699414488,19.2,40,1013.5,5.41,2.88,198,1.85,0.01200000000000001,13.79
2020-3-12 14:55,10000,2446.334878472222,192.9917393663183,0.4400525567529926,15.454197299633755,0.005335286458333333,0.5036659815836056,19.2,40,1013.5,5.41,3.04,200,1.87,0,13.79
2020-3-12 14:55,10000,2447.7565538194444,196.22731987846754,0.4429204991246266,15.498206905577504,0.005380859,0.5037983260144336,19.2,40,1013.5,5.41,3.09,201,1.86,0,13.79
2020-3-12 14:56,10000,2416.389509548611,194.12981879227132,0.4440571791692491,15.611216945508163,0.006079644097222222,0.5018530688316993,19.2,40,1013.5,5.41,3.15,201,1.9,0,13.79
2020-3-12 14:56,10000,2366.5256336805555,187.68473415797564,0.4420936342941718,14.921133223507848,0.005326605902777778,0.5040606787854031,19.2,40,1013.5,5.41,3.24,203,1.86,0,13.79
2020-3-12 14:56,10000,2346.554513888889,187.4442675780298,0.443099880113158,14.487001180294724,0.005275607638888889,0.4971878319035947,19.2,40,1013.5,5.41,3.22,204,1.8,0,13.79
2020-3-12 14:56,10000,2286.251641,182.13063802083335,0.4430735716712575,14.282289215980546,0.005315755208333333,0.4980501897807734,19.1,39,1013.4,4.96,3.24,203,1.86,0,14.14
2020-3-12 14:57,10000,2292.5862934027778,181.58933268166882,0.4412213247726154,14.151615521481983,0.0052940538194444445,0.49607029122412855,19.1,39,1013.4,4.96,3.27,203,1.88,0,14.14
2020-3-12 14:57,10000,2195.983433159722,174.5540603298565,0.44154472684843493,13.98780761327128,0.005238715277777778,0.4948835911968954,19.1,39,1013.4,4.96,3.34,201,2.01,0,14.14
2020-3-12 14:57,10000,2283.186480034722,182.07858289587242,0.4424826585563707,14.01699518677695,0.005224609,0.49554438146786495,19.1,39,1013.4,4.96,3.47,200,2.13,0,14.14
2020-3-12 14:57,10000,2245.067521701389,178.7513064236065,0.4411817458556059,14.056019441557034,0.0052940538194444445,0.4949492570465686,19.1,40,1013.4,5.32,3.57,197,2.34,0,13.780000000000001
2020-3-12 14:58,10000,2299.2014105902776,183.1698285589854,0.4426402795681629,14.18372812863063,0.005330946180555555,0.49433999268110024,19.1,40,1013.4,5.32,3.61,194,2.51,0,13.780000000000001
2020-3-12 14:58,10000,2274.0326171875,181.118949652773,0.4424988795551788,14.108758597026085,0.0052788628472222225,0.4960951031454248,19.1,40,1013.4,5.32,3.56,191,2.61,0,13.780000000000001
2020-3-12 14:58,10000,2279.6909895833332,181.4100759548611,0.4412197630516735,14.21013218543064,0.005310329861111111,0.4940971413739107,19.1,40,1013.4,5.32,3.52,189,2.66,0,13.780000000000001
2020-3-12 14:58,10000,2298.127074652778,181.5113845486065,0.4414708492104676,14.230755198963145,0.005332031,0.4975923245166122,19.1,40,1013.3,5.32,3.51,188,2.69,0,13.780000000000001
2020-3-12 14:59,10000,2304.742795138889,183.12013020821567,0.4417593418858567,14.37066458843161,0.005328776041666667,0.4968302313112745,19.1,40,1013.3,5.32,3.48,188,2.66,0,13.780000000000001
2020-3-12 14:59,10000,2293.127109,184.5828342013889,0.44260016515410483,14.244572178715254,0.005263672,0.49982530381944446,19.1,40,1013.3,5.32,3.44,188,2.64,0,13.780000000000001
2020-3-12 14:59,10000,2245.126957465278,178.73585286420195,0.44073473557561216,13.99236739157948,0.005289713541666667,0.4931023114106754,19.1,40,1013.3,5.32,3.36,187,2.61,0,13.780000000000001
2020-3-12 14:59,10000,2299.502322048611,182.2481401909722,0.4415010867432924,14.168204951278863,0.005320095486111111,0.4989204920683551,19.1,40,1013.2,5.32,3.29,188,2.52,0,13.780000000000001
2020-3-12 15:00,10000,2237.7575043402776,179.59949869791197,0.44245078259276777,13.951416404297229,0.005228949652777778,0.4922151373570261,19.1,40,1013.2,5.32,3.25,189,2.45,0,13.780000000000001
2020-3-12 15:00,10000,2254.500998263889,179.54146158854056,0.44069111417794476,14.1673792373096,0.005253906,0.49744745285266884,19.1,40,1013.2,5.32,3.34,189,2.52,0,13.780000000000001
2020-3-12 15:00,10000,2227.9382378472224,178.07504774305556,0.4419992341629668,13.8855835710068,0.005222439236111111,0.49372543062363833,19.1,40,1013.2,5.32,3.42,190,2.54,0,13.780000000000001
2020-3-12 15:00,10000,2297.805212673611,184.3714344618009,0.4424097418500383,14.29761485471827,0.0052463107638888885,0.49985386029411766,19.1,41,1013.2,5.67,3.46,190,2.57,0,13.430000000000001
2020-3-12 15:01,10000,2240.535959201389,180.39704644097222,0.442928801330784,13.958715709296833,0.005346137152777777,0.49120669509123094,19.1,41,1013.2,5.67,3.5,188,2.68,0,13.430000000000001
2020-3-12 15:01,10000,2280.081019965278,180.33025607638888,0.44004496320070663,14.281478815664064,0.0053363715277777776,0.49701371017156865,19.1,41,1013.2,5.67,3.53,185,2.82,0,13.430000000000001
2020-3-12 15:01,10000,2209.2893836805556,176.31579861088045,0.4418538400737281,13.872474693010973,0.005265842013888889,0.4886671900531046,19.1,41,1013.2,5.67,3.54,184,2.86,0,13.430000000000001
2020-3-12 15:01,10000,2240.6817838541665,178.76238932289777,0.4418809901297581,14.174717338596704,0.0053125,0.49136988102532675,19,40,1013.1,5.23,3.51,184,2.84,0,13.77
2020-3-12 15:02,10000,2134.7400694444445,170.66959201309314,0.4430711503577778,13.69613895701525,0.005319010416666666,0.48138384650735294,19,40,1013.1,5.23,3.51,184,2.84,0,13.77
2020-3-12 15:02,10000,2183.652738715278,173.26116536458332,0.4408754385652356,14.07796301575226,0.005304904513888889,0.4892767778118192,19,40,1013.1,5.23,3.38,184,2.73,0,13.77
2020-3-12 15:02,10000,2122.4460243055555,169.19584309890064,0.44106598929204555,13.74524361432877,0.005313585069444444,0.48166132642293025,19,40,1013.1,5.23,3.28,183,2.69,0,13.77
2020-3-12 15:02,10000,2233.3050347222224,178.96232747395723,0.44252757769034173,14.226735843727374,0.005311414930555556,0.49074015778186275,19,40,1013,5.23,3.14,182,2.6,0,13.77
2020-3-12 15:03,10000,2152.036736111111,172.47929253471764,0.4442819168813356,13.729382004596575,0.005319010416666666,0.4848623408564815,19,40,1013,5.23,3.07,182,2.55,0,13.77
2020-3-12 15:03,10000,2276.4721961805553,181.30556857638888,0.4423039447618925,14.343546641969557,0.005228949652777778,0.4995192844498911,19,40,1013,5.23,2.98,183,2.44,0.0020000000000000018,13.77
2020-3-12 15:03,10000,2226.3103949652777,178.16142143944637,0.4414938500196838,13.869276000115146,0.005276692708333333,0.4928385927287582,19,40,1013,5.23,2.93,183,2.4,0.006999999999999984,13.77
2020-3-12 15:03,10000,2326.6487890625,186.40608940971774,0.4429794221704631,14.333631195394446,0.005350477430555556,0.5030519599332789,19,40,1013,5.23,2.92,183,2.39,0.008000000000000007,13.77
2020-3-12 15:04,10000,2268.6589192708334,181.29016276037422,0.4421247734338922,13.975386880557599,0.005338541666666667,0.494188665917756,19,40,1013,5.23,2.89,181,2.43,0.010999999999999987,13.77
2020-3-12 15:04,10000,2365.5285112847223,188.3114019097176,0.44227036981494283,14.402695002088015,0.005303819444444444,0.5038429713031045,19,40,1013,5.23,2.87,178,2.48,0.012999999999999989,13.77
2020-3-12 15:04,10000,2265.4890972222224,180.20290689959936,0.4415823264791371,13.692348940335114,0.005339626736111111,0.4922315878608388,19,40,1013,5.23,2.82,178,2.44,0.018000000000000016,13.77
2020-3-12 15:04,10000,2372.1881119791665,188.7067632378462,0.4420898428948538,14.28304059704064,0.005354817708333333,0.5046069367851308,19,41,1012.9,5.58,2.9,177,2.54,0.010000000000000007,13.42
2020-3-12 15:05,10000,2224.3167144097224,177.58176214700876,0.44248205316327316,13.556876637692882,0.005319010416666666,0.4915594149986383,19,41,1012.9,5.58,2.96,177,2.59,0.0040000000000000036,13.42
2020-3-12 15:05,10000,2351.0423133680556,187.7296896701389,0.442425772949074,14.163201426469527,0.005225694444444444,0.5048561580882354,19,41,1012.9,5.58,2.97,176,2.62,0.00299999999999998,13.42
2020-3-12 15:05,10000,2224.9054340277776,178.29371419185003,0.44301986868687304,13.440202479478193,0.005308159722222222,0.49235420921840956,19,41,1012.9,5.58,2.98,177,2.61,0.0020000000000000018,13.42
2020-3-12 15:05,10000,2337.6022786458334,187.38104600694444,0.44266636057999076,14.010282917739518,0.005313585069444444,0.5018715405433006,19,41,1012.8,5.58,2.92,177,2.56,0.008000000000000007,13.42
2020-3-12 15:06,10000,2266.6541796875,184.23360676630742,0.44627217706933503,13.512450609676215,0.005425347222222222,0.492237902539488,19,41,1012.8,5.58,2.93,179,2.51,0.006999999999999984,13.42
2020-3-12 15:06,10000,2376.9871484375,189.14906249999544,0.44336578900923024,13.978767478464047,0.005407986111111111,0.5020086805555555,19,41,1012.8,5.58,2.97,181,2.49,0.00299999999999998,13.42
2020-3-12 15:06,10000,2262.6560286458334,182.21305338534117,0.444684673560519,13.254488164744112,0.005411241319444445,0.4932785181781046,19,41,1012.8,5.58,3.07,183,2.51,0,13.42
2020-3-12 15:06,10000,2404.8727821180555,192.58043836782483,0.4440820397306694,13.948106923816718,0.005394965277777778,0.5050942478553921,19,41,1012.8,5.58,3.03,185,2.42,0,13.42
2020-3-12 15:07,10000,2174.670060763889,174.98850474781474,0.4446606653824221,12.88302184055254,0.005374348958333333,0.4861222043504902,19,41,1012.8,5.58,3.04,186,2.39,0,13.42
2020-3-12 15:07,10000,2358.790642361111,188.2917188,0.44257039824643657,13.780201879485745,0.0053125,0.5070222758374183,19,41,1012.8,5.58,3.06,187,2.38,0,13.42
2020-3-12 15:07,10000,2194.843302951389,176.5198155381191,0.44429938389695905,12.95378778475383,0.005320095486111111,0.4894800091911765,19,41,1012.8,5.58,3.08,187,2.39,0,13.42
2020-3-12 15:07,10000,2374.8650477430556,189.7925726996423,0.4437065453002583,13.591242048848896,0.005291883680555555,0.5062913092320261,19,41,1012.7,5.58,3.15,186,2.48,0,13.42
2020-3-12 15:08,10000,2206.5123871527776,178.98156900973854,0.4458656450845512,12.794601285777997,0.005416666666666667,0.4871524756604031,19,41,1012.7,5.58,3.19,185,2.54,0,13.42
2020-3-12 15:08,10000,2393.9043055555558,190.78611762152778,0.4427780169499855,13.671706657705984,0.005325520833333333,0.5049363468477669,19,41,1012.7,5.58,3.21,183,2.63,0,13.42
2020-3-12 15:08,10000,2189.8932638888887,178.32285373259657,0.44607078467861866,12.839904274185836,0.005390625,0.4893492774714052,19,41,1012.7,5.58,3.08,181,2.58,0,13.42
2020-3-12 15:08,10000,2421.127829861111,193.87625651041665,0.4439639805640158,13.707618138029392,0.005391710069444444,0.5074985617510893,19,41,1012.7,5.58,3.01,181,2.53,0,13.42
2020-3-12 15:09,10000,2215.6444010416667,178.74120008431424,0.4457251664462898,12.768219320603013,0.005401475694444445,0.48865440325435733,19,41,1012.7,5.58,2.91,180,2.46,0.008999999999999985,13.42
2020-3-12 15:09,10000,2394.9475868055556,191.73323350694446,0.4429769041616619,13.573038760933562,0.005345052083333334,0.5069053947099673,19,41,1012.7,5.58,2.88,178,2.5,0.01200000000000001,13.42
2020-3-12 15:09,10000,2201.0305902777777,178.69629882574094,0.44500804858940424,12.770835841276131,0.005389539930555556,0.49009783496732023,19,41,1012.7,5.58,2.84,177,2.48,0.016000000000000014,13.42
2020-3-12 15:09,10000,2417.1598394097223,192.37832682291668,0.442701207035535,13.607668115949165,0.005359157986111111,0.5076971081835512,19,41,1012.7,5.58,2.79,178,2.42,0.020999999999999998,13.42
2020-3-12 15:10,10000,2200.1281770833334,177.99094943576273,0.4454497873566802,12.743626442203833,0.005404730902777778,0.49051014859068626,19,41,1012.7,5.58,2.67,178,2.31,0.03300000000000001,13.42
2020-3-12 15:10,10000,2373.2047395833333,189.17348849826263,0.44301753981043857,13.268404473250806,0.005275607638888889,0.5031918487881264,19,41,1012.7,5.58,2.55,178,2.21,0.04500000000000001,13.42
2020-3-12 15:10,10000,2182.6955989583334,177.6008181423188,0.4453605040915931,12.662925738959355,0.005341797,0.48975779547930287,19,41,1012.7,5.58,2.63,179,2.26,0.037000000000000005,13.42
2020-3-12 15:10,10000,2339.7028211805555,189.98824761284612,0.4456335434286319,13.067288633971165,0.005342881944444444,0.4986206724877451,19,41,1012.7,5.58,2.73,179,2.34,0.027000000000000003,13.42
2020-3-12 15:11,10000,2188.6173394097223,178.44358181409353,0.44554092611338025,12.563641663723297,0.0054058159722222224,0.4863748425585512,19,41,1012.7,5.58,2.83,179,2.42,0.01699999999999999,13.42
2020-3-12 15:11,10000,2306.469079861111,186.57952690971763,0.4450568202358411,12.854749968836133,0.005350477430555556,0.49398985140931373,19,41,1012.7,5.58,2.86,181,2.4,0.014000000000000012,13.42
2020-3-12 15:11,10000,2205.165842013889,176.9246809895644,0.44340960134542673,12.611858173256886,0.005410156,0.4897561572372004,19,41,1012.7,5.58,2.87,182,2.38,0.012999999999999989,13.42
2020-3-12 15:11,10000,2284.520520833333,185.51673502604044,0.4444444722858697,12.817435519646505,0.005315755208333333,0.49250746357570807,19,42,1012.7,5.93,2.87,182,2.38,0.012999999999999989,13.07
2020-3-12 15:12,10000,2187.380859,178.4980544704756,0.4454303242710028,12.626484608184128,0.005387369791666667,0.48935117953431373,19,42,1012.7,5.93,2.94,182,2.43,0.006000000000000005,13.07
2020-3-12 15:12,10000,2253.8218489583332,182.74141276041667,0.4457864978996638,12.84800909289065,0.005379774305555555,0.4919906641476035,19,42,1012.7,5.93,3.02,183,2.48,0,13.07
2020-3-12 15:12,10000,2158.6077604166667,175.18043077242677,0.44463847709669596,12.55165750948303,0.005350477430555556,0.4866320763548475,19,42,1012.7,5.93,2.98,184,2.41,0.0020000000000000018,13.07
2020-3-12 15:12,10000,2261.739197048611,183.82212673606853,0.4466099127596264,12.85349942017915,0.005368923611111111,0.4921480162377451,19.1,42,1012.7,6.02,2.94,184,2.38,0.006000000000000005,13.080000000000002
2020-3-12 15:13,10000,2165.4811675347223,175.65147135228287,0.44567855969905185,12.49377600414904,0.005316840277777778,0.4867677355664488,19.1,42,1012.7,6.02,2.94,183,2.41,0.006000000000000005,13.080000000000002
2020-3-12 15:13,10000,2208.1687065972224,178.58976128472221,0.4444407624434066,12.733325258466406,0.005287543402777778,0.49330457261029415,19.1,42,1012.7,6.02,2.97,183,2.43,0.00299999999999998,13.080000000000002
2020-3-12 15:13,10000,2161.0504904513887,175.944020182149,0.4464977300150916,12.484239407048234,0.005290798611111111,0.4868464179942811,19.1,42,1012.7,6.02,3.02,182,2.51,0,13.080000000000002
2020-3-12 15:13,10000,2184.222730034722,176.93978407117945,0.44549376801162954,12.731673404395357,0.005307074652777778,0.49037492340686273,19.1,42,1012.7,6.02,3.03,182,2.51,0,13.080000000000002
2020-3-12 15:14,10000,2150.096032986111,175.26119357637,0.44676030924804877,12.609231408639484,0.0054210069444444444,0.483492698120915,19.1,42,1012.7,6.02,3.06,181,2.57,0,13.080000000000002
2020-3-12 15:14,10000,2114.9583680555556,169.8536686197905,0.4448604295708992,12.484901477087172,0.005431857638888889,0.48024489804602394,19.1,42,1012.7,6.02,3.15,181,2.64,0,13.080000000000002
2020-3-12 15:14,10000,2084.986775173611,167.3430642361111,0.4446301265768611,12.382692866907318,0.005381944444444444,0.47727413534858387,19.1,42,1012.7,6.02,3.22,180,2.73,0,13.080000000000002
2020-3-12 15:14,10000,2021.2971527777777,163.1338248697906,0.44654801272268346,12.246075197905073,0.0054871961805555555,0.4713436819172113,19.1,41,1012.6,5.67,3.23,180,2.73,0,13.430000000000001
2020-3-12 15:15,10000,1948.6896527777778,156.22019965275882,0.4460479034474713,11.991058876505528,0.0054720052083333335,0.46579126668028326,19.1,41,1012.6,5.67,3.2,180,2.71,0,13.430000000000001
2020-3-12 15:15,10000,1884.8510416666666,150.07092990451278,0.44402293847412244,11.967235466914822,0.005451388888888889,0.4618102830541939,19.1,41,1012.6,5.67,3.25,180,2.76,0,13.430000000000001
2020-3-12 15:15,10000,1908.2530381944443,152.45001736111112,0.4461077919163057,11.992566245979317,0.005419922,0.46289534824346407,19.1,41,1012.6,5.67,3.28,179,2.81,0,13.430000000000001
2020-3-12 15:15,10000,1931.5324522569445,152.76231987842974,0.44490291679205507,12.045629329436862,0.005424262152777777,0.4641434887322985,19.1,41,1012.6,5.67,3.28,179,2.81,0,13.430000000000001
2020-3-12 15:16,10000,1960.6290668402778,157.63547417534602,0.4467132386402356,12.114122954352247,0.005398220486111111,0.46546832022739654,19.1,41,1012.6,5.67,3.27,180,2.77,0,13.430000000000001
2020-3-12 15:16,10000,1971.4103862847223,157.24893880207878,0.4455072276565047,12.12967056848487,0.005458984,0.46687841264978214,19.1,41,1012.6,5.67,3.17,181,2.66,0,13.430000000000001
2020-3-12 15:16,10000,1934.312482638889,154.36689453123103,0.4461079139849652,12.03197101354676,0.005368923611111111,0.4637087673611111,19.1,41,1012.6,5.67,3.13,180,2.65,0,13.430000000000001
2020-3-12 15:16,10000,1917.2251649305556,154.00417426209518,0.4464170936385584,12.162888542356672,0.005449219,0.464674513208061,19.1,42,1012.6,6.02,3.09,179,2.65,0,13.080000000000002
2020-3-12 15:17,10000,1962.265781,157.86138671867468,0.44553449749443624,12.20178962495495,0.005373263888888889,0.4678649407679738,19.1,42,1012.6,6.02,3.11,178,2.69,0,13.080000000000002
2020-3-12 15:17,10000,1891.8514973958333,149.9249934895788,0.44427106658189675,11.951588055729431,0.005347222222222222,0.4637634123093682,19.1,42,1012.6,6.02,2.96,178,2.56,0.0040000000000000036,13.080000000000002
2020-3-12 15:17,10000,1942.8270052083333,155.4429676648729,0.4440207049165502,12.062137311954809,0.005363498263888889,0.4667488808891612,19.1,42,1012.6,6.02,2.93,178,2.53,0.006999999999999984,13.080000000000002
2020-3-12 15:17,10000,1884.8533550347222,150.25359157984218,0.44454630916365434,12.057453434549142,0.005367838541666667,0.46309693287037035,19.1,42,1012.6,6.02,2.95,178,2.55,0.004999999999999982,13.080000000000002
2020-3-12 15:18,10000,1959.0346961805556,156.27458875739848,0.44587531392899543,12.039274760524851,0.005447048611111111,0.4651490842864924,19.1,42,1012.6,6.02,2.87,177,2.51,0.012999999999999989,13.080000000000002
2020-3-12 15:18,10000,1920.2631727430555,153.06329427083332,0.4444753787072211,12.141939052644064,0.005419922,0.4649197133714597,19.1,42,1012.6,6.02,2.85,177,2.49,0.014999999999999989,13.080000000000002
2020-3-12 15:18,10000,1973.5588975694445,159.46187717013888,0.4451912203529754,12.163848458394883,0.005397135416666666,0.4678240953499455,19.1,42,1012.6,6.02,2.87,178,2.49,0.012999999999999989,13.080000000000002
2020-3-12 15:18,10000,1951.8993489583333,157.54258897567547,0.4466302393747068,12.149225811178848,0.005411241319444445,0.46606769556781047,19.1,42,1012.6,6.02,2.9,179,2.49,0.010000000000000007,13.080000000000002
2020-3-12 15:19,10000,1990.3099782986112,159.03693359375,0.44431234538746445,12.174023996098354,0.005438368055555556,0.46776929296023967,19.1,42,1012.6,6.02,2.86,180,2.43,0.014000000000000012,13.080000000000002
2020-3-12 15:19,10000,1949.4809505208334,155.91720377604057,0.44494276695876056,12.206202275439091,0.005350477430555556,0.46680192163671025,19.1,42,1012.6,6.02,2.82,180,2.4,0.018000000000000016,13.080000000000002
2020-3-12 15:19,10000,1970.6641015625,158.75893120656772,0.4456400540412606,12.238656704863219,0.005474175347222222,0.4678668726171024,19.1,42,1012.6,6.02,2.76,180,2.34,0.02400000000000002,13.080000000000002
2020-3-12 15:19,10000,1958.2701996527778,156.50978081597222,0.4454347993904933,12.222040153773197,0.005409071180555555,0.4668433287377451,19.1,42,1012.6,6.02,2.64,179,2.27,0.03599999999999998,13.080000000000002
2020-3-12 15:20,10000,1950.3176258680555,155.91777126679114,0.4454320525492042,12.216376783755345,0.005361328,0.46703528390522875,19.1,42,1012.6,6.02,2.67,179,2.29,0.03300000000000001,13.080000000000002
2020-3-12 15:20,10000,1939.8455815972222,154.33399522569445,0.44358711615474866,12.309816496411244,0.005343967013888889,0.4679161730664488,19.1,42,1012.6,6.02,2.62,179,2.24,0.037999999999999985,13.080000000000002
2020-3-12 15:20,10000,1950.5491493055556,156.52832248127783,0.44493695487286944,12.183136106324085,0.005355902777777778,0.4661951976102941,19.1,42,1012.6,6.02,2.48,180,2.11,0.052,13.080000000000002
2020-3-12 15:20,10000,1942.9344878472223,156.1866016,0.445119067194667,12.12989496295725,0.005385199652777777,0.46639973532815904,19.2,42,1012.6,6.11,2.39,181,2,0.060999999999999985,13.09
2020-3-12 15:21,10000,1993.492891,161.28930772567566,0.44652939334523073,12.218502281071368,0.005464409722222222,0.46912637867647056,19.2,42,1012.6,6.11,2.42,182,2.01,0.058,13.09
2020-3-12 15:21,10000,1987.6314019097222,158.1683691406239,0.4442715874550754,12.21063389682198,0.005390625,0.4696195108251634,19.2,42,1012.6,6.11,2.54,184,2.06,0.04599999999999999,13.09
2020-3-12 15:21,10000,2071.5281119791666,166.62498046874538,0.44403550800921116,12.396004042987725,0.005407986111111111,0.47522036271105667,19.2,42,1012.6,6.11,2.55,184,2.06,0.04500000000000001,13.09
2020-3-12 15:21,10000,2084.8841015625,167.5235536024295,0.44526890872804936,12.590255313652658,0.005400391,0.4781062942538126,19.2,42,1012.6,6.11,2.64,185,2.11,0.03599999999999998,13.09
2020-3-12 15:22,10000,2161.7282161458334,176.90977755609094,0.44650742991116016,12.627542493492289,0.005393880208333333,0.48456247872412855,19.2,42,1012.6,6.11,2.74,187,2.13,0.025999999999999978,13.09
2020-3-12 15:22,10000,2184.2946614583334,177.78138237847222,0.4460998733430141,12.69550541464332,0.005313585069444444,0.48883533752042485,19.2,42,1012.6,6.11,2.86,187,2.22,0.014000000000000012,13.09
2020-3-12 15:22,10000,2219.7137065972224,178.5548285560843,0.4441936125474014,12.65852750663058,0.005390625,0.49014963745915036,19.2,42,1012.6,6.11,2.98,188,2.28,0.0020000000000000018,13.09
2020-3-12 15:22,10000,2203.8014192708333,178.58520507812398,0.4452559006887506,12.882835430862293,0.005424262152777777,0.4905035445601852,19.2,42,1012.6,6.11,3.15,188,2.41,0,13.09
2020-3-12 15:23,10000,2217.1276215277776,179.7963519953221,0.44533774419117556,12.791510758293747,0.005359157986111111,0.4919223473243464,19.2,42,1012.6,6.11,3.21,189,2.42,0,13.09
2020-3-12 15:23,10000,2146.0378819444445,173.78275390625,0.4449014357200806,12.66323845266608,0.005428602430555556,0.48751002093545753,19.2,42,1012.6,6.11,3.22,191,2.35,0,13.09
2020-3-12 15:23,10000,2232.436618923611,178.9277593315867,0.44364111890074615,12.789518345489828,0.005316840277777778,0.4932214648011982,19.2,42,1012.6,6.11,3.32,194,2.3,0,13.09
2020-3-12 15:23,10000,2164.708107638889,175.9563107638889,0.4460548536751057,12.66746130642036,0.005326605902777778,0.4873660896650327,19.2,41,1012.7,5.76,3.34,197,2.19,0,13.44
2020-3-12 15:24,10000,2248.277808159722,182.5028200954285,0.44581882443774984,12.879358482030636,0.005409071180555555,0.4916061155364924,19.2,41,1012.7,5.76,3.32,199,2.09,0,13.44
2020-3-12 15:24,10000,2121.441901041667,172.51170572914768,0.44526471690781944,12.566248607638164,0.005394965277777778,0.48143954673883443,19.2,41,1012.7,5.76,3.32,201,2,0,13.44
2020-3-12 15:24,10000,2156.717322048611,173.4583376734935,0.4446785523422546,12.687405222042646,0.005400391,0.48537545955882355,19.2,41,1012.7,5.76,3.38,204,1.89,0,13.44
2020-3-12 15:24,10000,2119.7258637152777,172.58337673611112,0.44562271181557384,12.623137588900525,0.005391710069444444,0.4818488136574074,19.2,41,1012.7,5.76,3.35,204,1.87,0,13.44
2020-3-12 15:25,10000,2145.1900824652776,174.87666124105468,0.4467209528694596,12.7096850829727,0.005380859,0.48395586533224405,19.2,41,1012.7,5.76,3.28,204,1.83,0,13.44
2020-3-12 15:25,10000,2079.348246527778,169.1888498263889,0.445835543936564,12.477904769682969,0.005398220486111111,0.4796288977396514,19.2,41,1012.7,5.76,3.24,204,1.81,0,13.44
2020-3-12 15:25,10000,2094.4680425347224,169.70928384992808,0.4451154232108817,12.587035540807559,0.005411241319444445,0.4804147901348039,19.2,41,1012.7,5.76,3.23,202,1.9,0,13.44
2020-3-12 15:25,10000,2047.7588541666667,163.9475781,0.44546761278679103,12.431345962447486,0.005422092013888889,0.47420336328976037,19.1,40,1012.8,5.32,3.18,200,1.96,0,13.780000000000001
2020-3-12 15:26,10000,2070.6279210069442,166.20194118456303,0.44545263796095974,12.530729821237983,0.005422092013888889,0.4759596481821895,19.1,40,1012.8,5.32,3.1,200,1.91,0,13.780000000000001
2020-3-12 15:26,10000,1996.9487109375,160.81326822916665,0.4466706472479836,12.335313185952277,0.005367838541666667,0.4710738868464053,19.1,40,1012.8,5.32,2.93,198,1.88,0.006999999999999984,13.780000000000001
2020-3-12 15:26,10000,2035.3380729166668,164.23318250867945,0.44602945127772875,12.409687410568045,0.005435112847222222,0.47366754748774514,19.1,40,1012.8,5.32,2.8,198,1.8,0.020000000000000014,13.780000000000001
2020-3-12 15:26,10000,2031.4429557291667,162.40827690972222,0.4457553817475246,12.473330479971574,0.005397135416666666,0.4716954273897059,19.2,41,1012.8,5.76,2.73,196,1.83,0.027000000000000003,13.44
2020-3-12 15:27,10000,2023.4336458333332,162.06678710440067,0.4441435785807205,12.508108366811038,0.005335286458333333,0.4752534126497821,19.2,41,1012.8,5.76,2.7,197,1.77,0.029999999999999978,13.44
2020-3-12 15:27,10000,1956.165859,157.0718033853977,0.44517436521173,12.279645138842472,0.005330946180555555,0.471604681542756,19.2,41,1012.8,5.76,2.72,197,1.79,0.02799999999999998,13.44
2020-3-12 15:27,10000,2029.152282986111,162.85314018848098,0.4438940714483974,12.4664747564217,0.0053059895833333336,0.4772094779752179,19.2,41,1012.8,5.76,2.77,198,1.78,0.022999999999999996,13.44
2020-3-12 15:27,10000,2035.4114496527777,163.1360720486111,0.44483575841147516,12.561772594663905,0.005316840277777778,0.47793788722086056,19.2,41,1012.9,5.76,2.83,200,1.74,0.01699999999999999,13.44
2020-3-12 15:28,10000,2144.9648828125,174.01154730533548,0.4459887667647746,12.649814185034717,0.005400391,0.48382418470860566,19.2,41,1012.9,5.76,2.97,201,1.79,0.00299999999999998,13.44
2020-3-12 15:28,10000,2108.914027777778,171.41960503472222,0.4458110463496624,12.63876928612595,0.005385199652777777,0.48350223396650327,19.2,41,1012.9,5.76,3.2,202,1.88,0,13.44
2020-3-12 15:28,10000,2217.6802604166664,179.13691297737287,0.44446504978559354,12.79561720333958,0.005348307291666667,0.4915257608251634,19.2,41,1012.9,5.76,3.37,204,1.88,0,13.44
2020-3-12 15:28,10000,2133.2103385416667,175.58873806422557,0.4475773024734085,12.696046673117618,0.005334201388888889,0.4863417841094771,19.2,41,1012.9,5.76,3.42,206,1.81,0,13.44
2020-3-12 15:29,10000,2160.7765798611113,176.5190093209713,0.4453600746875198,12.764052313616334,0.005366753472222222,0.4896111749387255,19.2,41,1012.9,5.76,3.44,205,1.87,0,13.44
2020-3-12 15:29,10000,2167.3076258680558,175.74118055555556,0.44517245223531665,12.72743842945997,0.005360243055555556,0.4901445823120915,19.2,41,1012.9,5.76,3.44,205,1.87,0,13.44
2020-3-12 15:29,10000,2207.9041927083335,176.43933810367815,0.44293532912544453,12.742668429093069,0.0053363715277777776,0.4915408156318083,19.2,41,1012.9,5.76,3.4,205,1.85,0,13.44
2020-3-12 15:29,10000,2134.0439930555553,173.22623697916666,0.4459069303599766,12.56203690649191,0.005367838541666667,0.48403913058278863,19.1,41,1013,5.67,3.36,203,1.93,0,13.430000000000001
2020-3-12 15:30,10000,2201.5882161458335,178.47145399152967,0.4454517154994002,12.886271088786653,0.0052669270833333335,0.4925740272671568,19.1,41,1013,5.67,3.4,202,2,0,13.430000000000001
2020-3-12 15:30,10000,2128.749665798611,172.5723654513889,0.4457405623916914,12.735818246178496,0.0052669270833333335,0.4865062338303377,19.1,41,1013,5.67,3.43,201,2.07,0,13.430000000000001
2020-3-12 15:30,10000,2204.871480034722,179.1962738540036,0.4443169478905663,13.001681447034724,0.005264756944444444,0.49594260620915037,19.1,41,1013,5.67,3.48,200,2.14,0,13.430000000000001
2020-3-12 15:30,10000,2122.519900173611,173.2727756076389,0.44671330502830586,12.643447231559467,0.005338541666666667,0.485116021582244,19.1,41,1013,5.67,3.57,198,2.29,0,13.430000000000001
2020-3-12 15:31,10000,2155.295785590278,175.47483289659286,0.44507910381448473,12.797224013914457,0.005365668402777778,0.4896222043504902,19.1,41,1013,5.67,3.69,199,2.32,0,13.430000000000001
2020-3-12 15:31,10000,2085.161137152778,169.02799696180554,0.4449482965681799,12.537186934106108,0.005353732638888889,0.4810454835580065,19.1,41,1013,5.67,3.74,198,2.4,0,13.430000000000001
2020-3-12 15:31,10000,2213.272035590278,178.89553058963236,0.44237184510848576,12.977541079734314,0.005298394097222222,0.49486120898011987,19.1,41,1013,5.67,3.77,198,2.42,0,13.430000000000001
2020-3-12 15:31,10000,2134.3158897569447,174.04860460069443,0.4468364728980992,12.627309268144842,0.005338541666666667,0.4860748783020153,19.1,41,1013,5.67,3.74,198,2.4,0,13.430000000000001
2020-3-12 15:32,10000,2129.6065494791665,172.77309243960914,0.4443097574082996,12.74550538991235,0.005374348958333333,0.49131173832380176,19.1,41,1013,5.67,3.7,198,2.38,0,13.430000000000001
2020-3-12 15:32,10000,2149.3202213541667,175.3691797,0.44557554966624857,12.680088659127211,0.005296223958333333,0.48819660181781044,19.1,41,1013,5.67,3.64,198,2.34,0,13.430000000000001
2020-3-12 15:32,10000,2168.720729166667,174.51153971311663,0.4429129950575095,12.796405836162815,0.005313585069444444,0.4931382803989651,19.1,41,1013,5.67,3.54,198,2.28,0,13.430000000000001
2020-3-12 15:32,10000,2150.140212673611,175.22689453125,0.44606437197188475,12.542916560769122,0.005404730902777778,0.48628838592728757,19.1,41,1013.1,5.67,3.46,198,2.22,0,13.430000000000001
2020-3-12 15:33,10000,2216.7115494791665,178.0023719572797,0.44410798128474993,12.94886880402922,0.0052549913194444445,0.49856939338235295,19.1,41,1013.1,5.67,3.39,196,2.27,0,13.430000000000001
2020-3-12 15:33,10000,2061.402417534722,166.6640234,0.4450680281407536,12.385767665633072,0.005272352430555556,0.48120456324891064,19.1,41,1013.1,5.67,3.32,195,2.27,0,13.430000000000001
2020-3-12 15:33,10000,2149.9206684027777,173.4034895761702,0.4434215117267284,12.71637138198073,0.005303819444444444,0.4950797547317538,19.1,41,1013.1,5.67,3.33,196,2.23,0,13.430000000000001
2020-3-12 15:33,10000,2109.0984895833335,171.6765993923611,0.4468263137627223,12.504787891564998,0.0052940538194444445,0.4849243515114379,19.1,41,1013.1,5.67,3.39,198,2.18,0,13.430000000000001
2020-3-12 15:34,10000,2184.119279513889,175.5350173571503,0.44362849048910835,12.971626947552638,0.005349392361111111,0.49642953005855117,19.1,41,1013.1,5.67,3.41,201,2.05,0,13.430000000000001
2020-3-12 15:34,10000,2127.1079774305554,173.3820746527778,0.44738274506102815,12.572462310268117,0.005337456597222222,0.4857878199891068,19.1,41,1013.1,5.67,3.37,202,1.98,0,13.430000000000001
2020-3-12 15:34,10000,2206.3250694444446,177.2902397990651,0.44265357721370496,12.95161830804057,0.005307074652777778,0.49762348090277775,19.1,41,1013.1,5.67,3.41,203,1.95,0,13.430000000000001
2020-3-12 15:34,10000,2160.815368923611,176.5032790798611,0.4457582374943512,12.73545542621835,0.005431857638888889,0.48829942810457516,19.1,42,1013.1,6.02,3.44,204,1.92,0,13.080000000000002
2020-3-12 15:35,10000,2128.223220486111,170.81868054875503,0.44417574124394943,12.844683368571136,0.005271267361111111,0.4913181934232026,19.1,42,1013.1,6.02,3.42,207,1.76,0,13.080000000000002
2020-3-12 15:35,10000,2067.1177864583333,165.77960069444444,0.44394427842394635,12.519422561795286,0.005272352430555556,0.4800164802900327,19.1,42,1013.1,6.02,3.45,208,1.72,0,13.080000000000002
2020-3-12 15:35,10000,2129.0539822048613,170.69957355708254,0.4430343117801209,12.797401172603864,0.005288628472222222,0.4907793479370915,19.1,42,1013.1,6.02,3.43,208,1.72,0,13.080000000000002
2020-3-12 15:35,10000,2079.9435416666665,167.97301649305555,0.44582100577598227,12.570083508884297,0.005368923611111111,0.48057132948665576,19.2,42,1013.1,6.11,3.38,206,1.79,0,13.09
2020-3-12 15:36,10000,2174.3910026041667,174.245268010541,0.44314609840644176,12.867573411511957,0.005400391,0.49051745046977124,19.2,42,1013.1,6.11,3.29,205,1.79,0,13.09
2020-3-12 15:36,10000,2097.3658203125,168.18410698784615,0.44517026333369997,12.552174051665856,0.005398220486111111,0.47994619332107846,19.2,42,1013.1,6.11,3.24,207,1.67,0,13.09
2020-3-12 15:36,10000,2170.164453,173.7225271265371,0.44288409942404916,12.921426083499423,0.005345052083333334,0.49157086567265795,19.2,42,1013.1,6.11,3.21,207,1.65,0,13.09
2020-3-12 15:36,10000,2073.175642361111,166.26516710069444,0.4451029752775833,12.491188729097834,0.00546875,0.47802510552832245,19.2,41,1013.2,5.76,3.23,207,1.66,0,13.44
2020-3-12 15:37,10000,2110.6837847222223,168.68300346645307,0.4418698321304292,12.711978457954967,0.005299479166666667,0.48893868719362743,19.2,41,1013.2,5.76,3.36,207,1.73,0,13.44
2020-3-12 15:37,10000,2031.4127560763889,163.83702473958334,0.4451000372106706,12.304961731582459,0.005316840277777778,0.47805034296704796,19.2,41,1013.2,5.76,3.43,209,1.66,0,13.44
2020-3-12 15:37,10000,2099.1831336805553,168.09263563129645,0.44167561662245824,12.622998305228275,0.0053092447916666665,0.4895896735430283,19.2,41,1013.2,5.76,3.5,210,1.64,0,13.44
2020-3-12 15:37,10000,2044.7484895833334,164.3819141,0.44521805999206093,12.268940752176949,0.005398220486111111,0.4785005318967865,19.2,41,1013.2,5.76,3.66,211,1.66,0,13.44
2020-3-12 15:38,10000,2102.651697048611,170.36958984269046,0.4458579376887,12.349663765376574,0.005415581597222222,0.4778790764569717,19.2,41,1013.2,5.76,3.72,212,1.63,0,13.44
2020-3-12 15:38,10000,2094.8158897569447,170.19698350694443,0.4451526619465932,12.351305219745432,0.005423177083333334,0.4810238502519063,19.2,41,1013.2,5.76,3.8,212,1.67,0,13.44
2020-3-12 15:38,10000,2113.907816840278,170.23022135228294,0.4438270211655684,12.356385249199437,0.005422092013888889,0.48133589920343134,19.2,41,1013.2,5.76,3.82,213,1.61,0,13.44
2020-3-12 15:38,10000,2117.8079774305556,172.26026041664778,0.4460355034843828,12.539882263392698,0.005429688,0.48396391612200435,19.1,41,1013.2,5.67,3.72,215,1.45,0,13.430000000000001
2020-3-12 15:39,10000,2159.5524131944444,172.32515842013888,0.44429126029865185,12.543686818378312,0.005427517361111111,0.48412547232434644,19.1,41,1013.2,5.67,3.6,218,1.23,0,13.430000000000001
2020-3-12 15:39,10000,2097.9015755208334,169.79725911458334,0.4452761347330141,12.459419640199505,0.005356987847222223,0.4825570278458606,19.1,41,1013.2,5.67,3.54,221,1.03,0,13.430000000000001
2020-3-12 15:39,10000,2112.2137413194446,170.049130859374,0.44438491325652596,12.367482736235887,0.005383029513888889,0.4809592481958061,19.1,41,1013.2,5.67,3.53,223,0.91,0,13.430000000000001
2020-3-12 15:39,10000,2084.9260980902777,166.69579427081436,0.44463245731318723,12.30645874090555,0.005380859,0.47798300483387796,19,41,1013.3,5.58,3.35,224,0.81,0,13.42
2020-3-12 15:40,10000,2081.527456597222,166.79172309016,0.44444721072580473,12.324857411375886,0.005373263888888889,0.4774532696759259,19,41,1013.3,5.58,3.23,225,0.73,0,13.42
2020-3-12 15:40,10000,2044.704552951389,162.8635492621517,0.44373901986888004,12.294163540015534,0.005358072916666666,0.4782397705610022,19,41,1013.3,5.58,3.14,225,0.71,0,13.42
2020-3-12 15:40,10000,2071.4981640625,166.3856043751741,0.4440311501034018,12.250720543286066,0.005358072916666666,0.4786755897671569,19,41,1013.3,5.58,3.07,225,0.69,0,13.42
2020-3-12 15:40,10000,2060.0401085069443,166.3865809461511,0.44514256457135676,12.273982169473937,0.005391710069444444,0.4779361681304466,18.9,41,1013.2,5.49,3.03,226,0.63,0,13.409999999999998
2020-3-12 15:41,10000,2109.795863715278,170.28231119779895,0.44537487484568594,12.36589316316885,0.005457899305555555,0.47890607979302835,18.9,41,1013.2,5.49,3,226,0.62,0,13.409999999999998
2020-3-12 15:41,10000,2057.381427951389,166.3848806423611,0.4448001490876574,12.202161116601323,0.0054329427083333335,0.4766551606753813,18.9,41,1013.2,5.49,2.88,226,0.6,0.01200000000000001,13.409999999999998
2020-3-12 15:41,10000,2092.983932291667,167.80334852392417,0.4434043361143194,12.21983621675006,0.005422092013888889,0.4790670955882353,18.9,41,1013.2,5.49,2.68,225,0.6,0.03199999999999999,13.409999999999998
2020-3-12 15:41,10000,2051.0856293402776,165.6300781,0.44467660446235735,12.194965555712557,0.005406901041666667,0.4753451116557734,18.9,42,1013.2,5.84,2.58,226,0.54,0.041999999999999996,13.059999999999999
2020-3-12 15:42,10000,2103.478142361111,169.51962565084258,0.44496900608937295,12.288456299557117,0.005422092013888889,0.4787356004901961,18.9,42,1013.2,5.84,2.63,226,0.55,0.037000000000000005,13.059999999999999
2020-3-12 15:42,10000,2041.2399696180555,163.8293337673611,0.4445969549323703,12.124901424830739,0.005345052083333334,0.4769580780228758,18.9,42,1013.2,5.84,2.65,228,0.46,0.03500000000000001,13.059999999999999
2020-3-12 15:42,10000,2092.6667795138887,167.35431206550135,0.4434606365740351,12.276587972157119,0.005423177083333334,0.4797940155228758,18.9,42,1013.2,5.84,2.69,229,0.42,0.031000000000000003,13.059999999999999
2020-3-12 15:42,10000,2084.8350520833333,167.22319878472223,0.4457645939511644,12.169121091407657,0.005435112847222222,0.47715727975217864,19,42,1013.2,5.93,2.77,229,0.43,0.022999999999999996,13.07
2020-3-12 15:43,10000,2097.0937109375,169.44476996510832,0.44520103429550056,12.229292331307636,0.005313585069444444,0.4811892361111111,19,42,1013.2,5.93,2.84,230,0.4,0.016000000000000014,13.07
2020-3-12 15:43,10000,2102.0592491319444,170.05985243055557,0.44605194321288705,12.212195220861075,0.005323350694444445,0.48383674598311543,19,42,1013.2,5.93,2.94,230,0.41,0.006000000000000005,13.07
2020-3-12 15:43,10000,2149.3881119791668,176.05413845484225,0.4460856707992126,12.31736570574759,0.005322266,0.4881224766816449,19,42,1013.2,5.93,3,231,0.36,0,13.07
2020-3-12 15:43,10000,2104.1026866319444,170.74257161458334,0.44655730280582656,12.274667764919316,0.005358072916666666,0.48331410420070803,19,42,1013.2,5.93,3.16,231,0.38,0,13.07
2020-3-12 15:44,10000,2101.1638541666666,169.50423502561685,0.44509199582234815,12.209916328107335,0.005442708333333333,0.47893732979302833,19,42,1013.2,5.93,3.2,232,0.33,0,13.07
2020-3-12 15:44,10000,2113.5813758680556,170.1541797,0.4450000455803092,12.311558257532788,0.005410156,0.48233722256263617,19,42,1013.2,5.93,3.25,230,0.45,0,13.07
2020-3-12 15:44,10000,2190.1477777777777,179.67665907112283,0.4457707753673571,12.485853238286506,0.0054361979166666664,0.4887111162173203,19,42,1013.2,5.93,3.24,230,0.45,0,13.07
2020-3-12 15:44,10000,2093.761662326389,168.6444141,0.44581426042202005,12.269193040581056,0.0054568142361111115,0.480033479711329,19,41,1013.3,5.58,3.2,227,0.61,0,13.42
2020-3-12 15:45,10000,2124.1053255208335,171.92828342013888,0.44549943328654734,12.24030922586939,0.005396050347222223,0.48159574142156863,19,41,1013.3,5.58,3.09,225,0.7,0,13.42
2020-3-12 15:45,10000,2065.140169270833,165.40011284722223,0.44423442158184845,12.109667530130567,0.005367838541666667,0.47771803938589325,19,41,1013.3,5.58,2.96,227,0.56,0.0040000000000000036,13.42
2020-3-12 15:45,10000,2069.1515104166665,166.68464735144028,0.44469883163483565,12.138475146983053,0.005359157986111111,0.47791504119008715,19,41,1013.3,5.58,2.92,228,0.51,0.008000000000000007,13.42
2020-3-12 15:45,10000,2049.6754644097223,163.54971571180096,0.44544473175016974,12.174874850112536,0.005412326388888889,0.47550827631399784,18.9,42,1013.4,5.84,2.93,229,0.46,0.006999999999999984,13.059999999999999
2020-3-12 15:46,10000,2118.3366796875,169.58513454830978,0.4461027569879161,12.368306449339942,0.005470920138888889,0.47686389399509804,18.9,42,1013.4,5.84,2.97,231,0.36,0.00299999999999998,13.059999999999999
2020-3-12 15:46,10000,2059.3980338541664,166.81830078125,0.4481275630108368,12.226079687136062,0.0054752604166666665,0.4741615689678649,18.9,42,1013.4,5.84,2.92,233,0.25,0.008000000000000007,13.059999999999999
2020-3-12 15:46,10000,2113.814904513889,170.23172634534345,0.44663926868577875,12.381821043684653,0.005555555555555556,0.47752809266067536,18.9,42,1013.4,5.84,2.96,234,0.21,0.0040000000000000036,13.059999999999999
2020-3-12 15:46,10000,2058.8888411458333,166.59008897569444,0.4485736593822653,12.217592186022,0.0054871961805555555,0.47197837520424835,18.9,43,1013.4,6.18,3,236,0.1,0,12.719999999999999
2020-3-12 15:47,10000,2023.2015104166667,162.51762478170392,0.44605826614795246,12.117468288107016,0.0054839409722222225,0.4722642037717865,18.9,43,1013.4,6.18,3.09,238,0,0,12.719999999999999
2020-3-12 15:47,10000,1905.0312065972223,152.16505859375,0.44534625939382916,11.942488394384267,0.005377604166666667,0.4639994383169935,18.9,43,1013.4,6.18,3.22,238,0,0,12.719999999999999
2020-3-12 15:47,10000,1898.1170225694445,150.94170789930556,0.4449591562151428,11.924939719007565,0.005412326388888889,0.463357145288671,18.9,43,1013.4,6.18,3.35,237,0.06,0,12.719999999999999
2020-3-12 15:47,10000,1920.4514149305555,153.47193359375,0.44610461392023903,11.824286837565039,0.005441623263888889,0.4638366140727124,18.9,43,1013.4,6.18,3.33,237,0.06,0,12.719999999999999
2020-3-12 15:48,10000,1963.8347135416666,157.6181130642256,0.4474471249317961,12.014808032224368,0.005519748263888889,0.46579810049019604,18.9,43,1013.4,6.18,3.32,237,0.06,0,12.719999999999999
2020-3-12 15:48,10000,1896.7036979166667,151.65316623263888,0.4468102235946919,11.920438110446336,0.005482855902777778,0.4592772373706427,18.9,43,1013.4,6.18,3.37,237,0.06,0,12.719999999999999
2020-3-12 15:48,10000,1957.8265451388888,156.16459960202707,0.4455819226612241,12.150229301137372,0.005481770833333333,0.46475548491966234,18.9,43,1013.4,6.18,3.33,237,0.06,0,12.719999999999999
2020-3-12 15:48,10000,1920.5811371527777,154.5150607638889,0.4469212061445711,12.0635321469515,0.005476345486111111,0.45982813351034857,18.8,43,1013.4,6.08,3.3,237,0.06,0,12.72
2020-3-12 15:49,10000,2010.4512109375,162.93290147539318,0.44673464431134485,12.316423708518633,0.005481770833333333,0.4684245259735839,18.8,43,1013.4,6.08,3.25,238,0,0,12.72
2020-3-12 15:49,10000,1905.0716536458333,153.17653862847223,0.446969354679221,12.070951407305296,0.005496961805555555,0.4613884633714597,18.8,43,1013.4,6.08,3.31,238,0,0,12.72
2020-3-12 15:49,10000,2009.8223046875,160.30871309286985,0.4450177335652107,12.286045677718187,0.005473090277777778,0.47021857553785407,18.8,43,1013.4,6.08,3.34,238,0,0,12.72
2020-3-12 15:49,10000,1949.5269184027777,155.15522135416208,0.4452615730556809,12.155662260381394,0.005507813,0.46373281335103483,18.8,43,1013.4,6.08,3.36,237,0.06,0,12.72
2020-3-12 15:50,10000,1948.6736371527777,155.7353103261689,0.4452245624695505,12.291720748771615,0.0054448784722222225,0.46592302815223313,18.8,43,1013.4,6.08,3.36,237,0.06,0,12.72
2020-3-12 15:50,10000,1905.2175737847222,152.02071397569443,0.44583794878381955,12.135829449805176,0.005364583333333333,0.46110047743055554,18.8,43,1013.4,6.08,3.34,237,0.06,0,12.72
2020-3-12 15:50,10000,1979.5090538194445,158.1429720039261,0.44495105976780963,12.297856092449118,0.005450303819444445,0.4664733285675381,18.8,43,1013.4,6.08,3.36,237,0.06,0,12.72
2020-3-12 15:50,10000,1959.9599956597222,157.19835394965168,0.44616045964955714,12.28018826471291,0.005525173611111111,0.46355227907135077,18.8,44,1013.4,6.42,3.37,238,0,0,12.38
2020-3-12 15:51,10000,2094.6749305555554,166.79003037109362,0.44375306469008674,12.73262905819842,0.0054600694444444445,0.47417020697167755,18.8,44,1013.4,6.42,3.42,237,0.06,0,12.38
2020-3-12 15:51,10000,2125.672052951389,170.35826822916667,0.4448619530582309,12.697433268605659,0.005489366319444445,0.4788886803853486,18.8,44,1013.4,6.42,3.36,236,0.12,0,12.38
2020-3-12 15:51,10000,2271.4830208333333,182.34262695006265,0.4444968353426111,12.890466507863312,0.005470920138888889,0.4914828048406863,18.8,44,1013.4,6.42,3.3,235,0.17,0,12.38
2020-3-12 15:51,10000,2167.7765928819445,174.27557183159607,0.4451127562779943,12.762555537394322,0.0054752604166666665,0.4814956214256536,18.7,43,1013.4,5.99,3.28,235,0.17,0,12.709999999999999
2020-3-12 15:52,10000,2260.4061328125,184.1194466097608,0.4446872062945639,13.312254895666152,0.005439453,0.49656289147603483,18.7,43,1013.4,5.99,3.25,235,0.17,0,12.709999999999999
2020-3-12 15:52,10000,2182.663146701389,177.94384765625,0.4460455120513298,12.877284090465341,0.005481770833333333,0.48567378982843135,18.7,43,1013.4,5.99,3.28,234,0.23,0,12.709999999999999
2020-3-12 15:52,10000,2226.7648741319445,180.73705294656637,0.44433544314218176,13.013570394038856,0.005414496527777778,0.4900328839869281,18.7,43,1013.4,5.99,3.27,232,0.34,0,12.709999999999999
2020-3-12 15:52,10000,2178.100082465278,179.3844162326389,0.4478131612933296,12.839649294850974,0.005505642361111111,0.48527767565359475,18.7,43,1013.5,5.99,3.23,231,0.39,0,12.709999999999999
2020-3-12 15:53,10000,2200.493220486111,179.15181531879648,0.44585631431652867,12.959639740885134,0.005450303819444445,0.4898772765182462,18.7,43,1013.5,5.99,3.17,231,0.39,0,12.709999999999999
2020-3-12 15:53,10000,2106.618281,169.15778211805556,0.4452190236703182,12.568247017799967,0.005378689236111111,0.48055867034313726,18.7,43,1013.5,5.99,3.11,231,0.38,0,12.709999999999999
2020-3-12 15:53,10000,2128.008732638889,170.82106987236864,0.4441314501717963,12.795890094635007,0.005364583333333333,0.4851052176947168,18.7,43,1013.5,5.99,3.11,233,0.27,0,12.709999999999999
2020-3-12 15:53,10000,2007.1769314236112,161.82044921875,0.44735736812448057,12.28081692453691,0.005524088541666666,0.4710875799972767,18.7,43,1013.5,5.99,3.08,233,0.27,0,12.709999999999999
2020-3-12 15:54,10000,2028.842478298611,161.5744335447523,0.4444164497389931,12.691538480945493,0.005543619791666667,0.47379832601443356,18.7,43,1013.5,5.99,3.03,233,0.26,0,12.709999999999999
2020-3-12 15:54,10000,1947.0357248263888,154.83912977430555,0.4452525291749354,12.180539325763906,0.005496961805555555,0.46341437738289765,18.7,43,1013.5,5.99,2.95,233,0.26,0.004999999999999982,12.709999999999999
2020-3-12 15:54,10000,2008.9399565972221,161.24480902709968,0.4433776329499313,12.700760133575669,0.005531684027777778,0.47398134106072987,18.7,43,1013.5,5.99,2.89,234,0.2,0.010999999999999987,12.709999999999999
2020-3-12 15:54,10000,1972.6296744791666,159.55328776041668,0.4466500408788176,12.380105193318897,0.0055295138888888885,0.46448271973720046,18.7,42,1013.5,5.65,2.86,236,0.1,0.014000000000000012,13.049999999999999
2020-3-12 15:55,10000,2068.1068446180557,162.86095484300787,0.441808121178921,12.93605358314952,0.005518663194444444,0.47929441976443354,18.7,42,1013.5,5.65,2.8,236,0.1,0.020000000000000014,13.049999999999999
2020-3-12 15:55,10000,1944.9864713541667,153.81809895833334,0.4450939555234836,12.292504225752472,0.0054568142361111115,0.46222419236791934,18.7,42,1013.5,5.65,2.77,237,0.05,0.022999999999999996,13.049999999999999
2020-3-12 15:55,10000,2008.1506336805555,158.60116534648,0.44125718840399225,12.762473018584187,0.005462239583333334,0.47519708265250543,18.7,42,1013.5,5.65,2.69,236,0.09,0.031000000000000003,13.049999999999999
2020-3-12 15:55,10000,2044.3733246527777,163.09430555555085,0.4458683679207249,12.464024640195838,0.005496961805555555,0.46928200316584967,18.7,43,1013.5,5.99,2.67,235,0.14,0.03300000000000001,12.709999999999999
2020-3-12 15:56,10000,2136.9874913194444,172.15155490013282,0.4437733691497989,13.099889418123617,0.005396050347222223,0.48909056287445535,18.7,43,1013.5,5.99,2.66,236,0.09,0.03399999999999998,12.709999999999999
2020-3-12 15:56,10000,2135.6086805555556,174.30146918402778,0.4461445413129908,12.696121990935634,0.005373263888888889,0.48349613630174293,18.7,43,1013.5,5.99,2.61,236,0.09,0.03900000000000001,12.709999999999999
2020-3-12 15:56,10000,2263.362813,181.33625542317012,0.44202996970118774,13.28248030018093,0.005371094,0.49979136880446623,18.7,43,1013.5,5.99,2.55,237,0.04,0.04500000000000001,12.709999999999999
2020-3-12 15:56,10000,2212.8990972222223,178.08292317708333,0.4459995253939226,12.869079167975267,0.005401475694444445,0.4893073725149782,18.6,43,1013.5,5.9,2.56,236,0.09,0.04399999999999999,12.700000000000001
2020-3-12 15:57,10000,2216.977426215278,178.12333875429957,0.4424272358354676,13.195608840148976,0.005333116319444445,0.49855593001089327,18.6,43,1013.5,5.9,2.6,235,0.14,0.03999999999999999,12.700000000000001
2020-3-12 15:57,10000,2128.376931423611,172.01701605902778,0.44381993263741837,12.615806765874888,0.005367838541666667,0.48558492051334423,18.6,43,1013.5,5.9,2.55,236,0.09,0.04500000000000001,12.700000000000001
2020-3-12 15:57,10000,2230.942266,178.80129662026178,0.4407772604796445,13.198733659750499,0.0052582465277777775,0.5009063053172658,18.6,43,1013.5,5.9,2.49,236,0.09,0.050999999999999976,12.700000000000001
2020-3-12 15:57,10000,2117.9510243055556,171.5035177951389,0.44532897392989335,12.63315499453826,0.005317925347222223,0.48476409313725494,18.6,42,1013.5,5.56,2.54,235,0.13,0.04599999999999999,13.040000000000003
2020-3-12 15:58,10000,2200.8141493055555,178.79809678139398,0.4438644515560774,13.141587616049241,0.005404730902777778,0.49600339562908496,18.6,42,1013.5,5.56,2.6,235,0.14,0.03999999999999999,13.040000000000003
2020-3-12 15:58,10000,2096.690954861111,171.02153428819443,0.4453527956183543,12.574507117768466,0.005392795138888889,0.481592030909586,18.6,42,1013.5,5.56,2.7,235,0.14,0.029999999999999978,13.040000000000003
2020-3-12 15:58,10000,2121.8033506944444,169.46509548441108,0.44280732641864345,12.826154631055134,0.005371094,0.4878955099400871,18.6,42,1013.5,5.56,2.83,234,0.2,0.01699999999999999,13.040000000000003
2020-3-12 15:58,10000,2067.9943229166665,166.14643229166666,0.4447489677260048,12.445082290407044,0.005419922,0.4751687985089869,18.6,44,1013.5,6.23,2.9,235,0.15,0.010000000000000007,12.370000000000001
2020-3-12 15:59,10000,2127.8428602430554,171.56259222680444,0.4431500549005046,12.798681435894613,0.005330946180555555,0.48609858813317,18.6,44,1013.5,6.23,2.92,236,0.1,0.008000000000000007,12.370000000000001
2020-3-12 15:59,10000,2057.9361762152776,165.9114236111111,0.4446882837673285,12.488002676813492,0.005326605902777778,0.47933929057734204,18.6,44,1013.5,6.23,3.02,235,0.16,0,12.370000000000001
2020-3-12 15:59,10000,2184.842708333333,175.2556380176496,0.4424276733678176,12.783592824012262,0.005392795138888889,0.492381442333878,18.6,44,1013.5,6.23,3.09,236,0.11,0,12.370000000000001
2020-3-12 15:59,10000,2184.732266,177.45283854166667,0.44565352188458246,12.721981346841861,0.005407986111111111,0.4868310355392157,18.6,43,1013.5,5.9,3.03,236,0.11,0,12.700000000000001
2020-3-12 16:00,10000,2241.589704861111,181.7779459629188,0.44499781649168496,12.844717264469727,0.005353732638888889,0.4886101154003268,18.6,43,1013.5,5.9,2.97,237,0.05,0.00299999999999998,12.700000000000001
2020-3-12 16:00,10000,2162.747074652778,175.1625781,0.4443129390573949,12.85856418030511,0.005356987847222223,0.48639681627859477,18.6,43,1013.5,5.9,2.95,237,0.05,0.004999999999999982,12.700000000000001
2020-3-12 16:00,10000,2191.3712803819444,177.01535698698888,0.4433704925742495,12.906085828322874,0.005361328,0.49216323274101303,18.6,43,1013.5,5.9,2.93,237,0.05,0.006999999999999984,12.700000000000001
2020-3-12 16:00,10000,2225.098676215278,179.76363606770713,0.44438329749155575,13.08647001403054,0.005399305555555556,0.49197040526279956,18.6,43,1013.6,5.9,2.91,238,0,0.008999999999999985,12.700000000000001
2020-3-12 16:01,10000,2315.438342013889,186.68892577954998,0.4433810197544484,13.353682750104808,0.005409071180555555,0.4976206809980937,18.6,43,1013.6,5.9,2.92,237,0.05,0.008000000000000007,12.700000000000001
2020-3-12 16:01,10000,2278.6473524305557,182.5928331163184,0.4422606169446803,13.309920908154066,0.005358072916666666,0.49453655620234205,18.6,43,1013.6,5.9,2.87,236,0.1,0.012999999999999989,12.700000000000001
2020-3-12 16:01,10000,2309.1744444444444,185.12547309025894,0.4425008923711736,13.361106324146496,0.005424262152777777,0.49558090788398695,18.6,43,1013.6,5.9,2.83,235,0.15,0.01699999999999999,12.700000000000001
2020-3-12 16:01,10000,2317.0332725694443,183.31157443576274,0.4417111235592742,13.373936286352093,0.005410156,0.494907415917756,18.5,43,1013.6,5.81,2.78,236,0.1,0.02200000000000002,12.690000000000001
2020-3-12 16:02,10000,2257.0824088541667,183.57617621516005,0.4452210986905424,13.26848571232496,0.0054361979166666664,0.4916356762322984,18.5,43,1013.6,5.81,2.72,236,0.09,0.02799999999999998,12.690000000000001
2020-3-12 16:02,10000,2217.4894618055555,179.70683702256832,0.44451102427195033,13.346697013788466,0.005404730902777778,0.4869320065699891,18.5,43,1013.6,5.81,2.59,237,0.05,0.041000000000000016,12.690000000000001
2020-3-12 16:02,10000,2127.695269097222,170.8492220047833,0.44315641490963825,13.118597665496967,0.005457899305555555,0.4782654845792484,18.5,43,1013.6,5.81,2.43,236,0.08,0.05699999999999998,12.690000000000001
2020-3-12 16:02,10000,2062.2826866319447,164.87441840277302,0.44405025311217106,12.998882192359492,0.005737847222222222,0.46983391629221133,18.5,43,1013.6,5.81,2.25,236,0.08,0.075,12.690000000000001
2020-3-12 16:03,10000,2087.382330729167,166.8577452256898,0.44436761771562516,13.185832155086752,0.006577690972222223,0.4713794849537037,18.5,43,1013.6,5.81,2.13,236,0.07,0.08700000000000001,12.690000000000001
2020-3-12 16:03,10000,2048.0852864583335,160.9351475694397,0.44176665896962997,13.179048224297336,0.006287977430555556,0.47023773658769064,18.5,43,1013.6,5.81,2.01,235,0.11,0.09900000000000002,12.690000000000001
2020-3-12 16:03,10000,2137.4353298611113,168.62949001464835,0.4421121289159158,13.836654909428514,0.008372395833333334,0.47550494025735296,18.5,43,1013.6,5.81,1.95,236,0.07,0.10500000000000001,12.690000000000001
2020-3-12 16:03,10000,2207.2685026041668,175.84662434894773,0.44401119170946096,13.960346687451185,0.008141276041666666,0.47803983694172114,18.5,44,1013.6,6.14,1.9,235,0.1,0.11,12.36
2020-3-12 16:04,10000,2134.509318576389,168.5446430120951,0.44327817365806244,13.77737240499174,0.008159722222222223,0.47093662343409587,18.5,44,1013.6,6.14,1.87,234,0.13,0.11299999999999999,12.36
2020-3-12 16:04,10000,2112.5382291666665,167.66125651041193,0.44338875592456384,13.569576690772816,0.007043185763888889,0.47081553393927017,18.5,44,1013.6,6.14,1.87,234,0.13,0.11299999999999999,12.36
2020-3-12 16:04,10000,2096.3997135416666,165.94586479752036,0.4420364834395951,13.509314686317632,0.006348741319444445,0.46957214222494553,18.5,44,1013.6,6.14,1.86,235,0.1,0.11399999999999998,12.36
2020-3-12 16:04,10000,2088.2273090277777,166.1532790798611,0.44284685353513326,13.557389580168733,0.006427951388888889,0.46915596490332245,18.4,44,1013.6,6.05,1.86,235,0.1,0.11399999999999998,12.349999999999998
2020-3-12 16:05,10000,2099.4382725694445,166.44217447916665,0.4425637053181866,13.569781546268022,0.006287977430555556,0.4716213490604575,18.4,44,1013.6,6.05,1.88,236,0.07,0.112,12.349999999999998
2020-3-12 16:05,10000,2078.5286979166667,165.17229926212335,0.44302790159575306,13.502884988904091,0.005856119791666667,0.4712462767224946,18.4,44,1013.6,6.05,1.92,235,0.1,0.10800000000000001,12.349999999999998
2020-3-12 16:05,10000,2075.2054427083335,166.25303385122328,0.4437863879681336,13.35809433249346,0.005890842013888889,0.4694684266067538,18.4,44,1013.6,6.05,1.91,236,0.07,0.109,12.349999999999998
2020-3-12 16:05,10000,2149.133315972222,171.08766601562382,0.4437138184702819,13.618315366826005,0.005934244791666667,0.47681254255174293,18.5,44,1013.6,6.14,1.92,235,0.1,0.10800000000000001,12.36
2020-3-12 16:06,10000,2308.0800260416668,187.11777126689023,0.44608374544052093,13.910266988417208,0.0061805555555555555,0.487167692163671,18.5,44,1013.6,6.14,1.9,235,0.1,0.11,12.36
2020-3-12 16:06,10000,2440.959370659722,193.16208116317563,0.44211398723006207,14.304762159136848,0.0061534288194444444,0.501173491966231,18.5,44,1013.6,6.14,1.9,234,0.13,0.11,12.36
2020-3-12 16:06,10000,2450.411032986111,196.28237955655564,0.4433914306864784,14.245998742198642,0.0062586805555555555,0.5006581180215142,18.5,44,1013.6,6.14,1.9,233,0.17,0.11,12.36
2020-3-12 16:06,10000,2458.6506336805555,195.531059027759,0.4426132957005195,14.291394343531822,0.0059375,0.5018950759123094,18.5,45,1013.6,6.47,1.93,235,0.1,0.107,12.030000000000001
2020-3-12 16:07,10000,2473.4924088541666,194.7967068136133,0.4406421776915967,14.178981605703909,0.006353081597222222,0.505503629663671,18.5,45,1013.6,6.47,1.9,237,0.03,0.11,12.030000000000001
2020-3-12 16:07,10000,2439.3773046875,192.14324978295656,0.43965204437195016,14.151059611570261,0.0059364149305555555,0.5046965337350218,18.5,45,1013.6,6.47,1.88,238,0,0.112,12.030000000000001
2020-3-12 16:07,10000,2389.805490451389,190.57560004227136,0.4414878305108775,13.980853028787871,0.006385633680555555,0.4984296279275599,18.5,45,1013.6,6.47,1.94,239,-0.03,0.106,12.030000000000001
2020-3-12 16:07,10000,2454.776245659722,194.32500217013424,0.4417846287283043,14.275657976933,0.0075217013888888885,0.5038988374863834,18.5,45,1013.6,6.47,1.97,240,-0.07,0.103,12.030000000000001
2020-3-12 16:08,10000,2497.387769097222,199.29203450520725,0.44319439804750016,14.267175779689415,0.007773438,0.5046742110906862,18.5,45,1013.6,6.47,2.07,244,-0.22,0.09300000000000001,12.030000000000001
2020-3-12 16:08,10000,2509.497465277778,199.68941623263888,0.44204610990275867,14.42845652027582,0.007878689236111111,0.5078433797998365,18.5,45,1013.6,6.47,2.13,246,-0.3,0.08700000000000001,12.030000000000001
2020-3-12 16:08,10000,2483.502790798611,196.47043077254003,0.4424373017807345,14.291919928741763,0.007613932291666667,0.503642373876634,18.5,45,1013.6,6.47,2.18,248,-0.38,0.08199999999999998,12.030000000000001
2020-3-12 16:08,10000,2469.4777604166666,195.70230143228105,0.4424222766623713,14.172404685667479,0.006714409722222222,0.5033126574414488,18.5,46,1013.7,6.78,2.24,247,-0.35,0.07599999999999997,11.719999999999999
2020-3-12 16:09,10000,2462.0183376736113,194.8327441394935,0.4415759981651724,14.001086111197191,0.006123047,0.503674951491013,18.5,46,1013.7,6.78,2.28,247,-0.36,0.07200000000000002,11.719999999999999
2020-3-12 16:09,10000,2446.0069444444443,193.5070171440961,0.44122486201559125,14.060595720623697,0.005791016,0.5047977856072985,18.5,46,1013.7,6.78,2.33,246,-0.32,0.06699999999999999,11.719999999999999
2020-3-12 16:09,10000,2438.1742664930557,191.80695312495763,0.44065369874903454,13.965346781435178,0.006194661458333334,0.5005113528050109,18.5,46,1013.7,6.78,2.3,247,-0.36,0.07000000000000002,11.719999999999999
2020-3-12 16:09,10000,2329.6363368055554,188.37952473956452,0.444966832041751,13.650626453399104,0.005602213541666666,0.49409146071623095,18.5,44,1013.7,6.14,2.3,247,-0.36,0.07000000000000002,12.36
2020-3-12 16:10,10000,2252.135173611111,182.57090928817573,0.4458766256200543,13.304175564746727,0.005629340277777777,0.48727256518927015,18.5,44,1013.7,6.14,2.23,246,-0.31,0.077,12.36
2020-3-12 16:10,10000,2134.704904513889,171.91013346353105,0.44416880980322815,13.18653264350767,0.005644531,0.47913028918164485,18.5,44,1013.7,6.14,2.18,244,-0.23,0.08199999999999998,12.36
2020-3-12 16:10,10000,2060.4778559027777,164.56869683133232,0.44440272270689773,12.88738377394872,0.005480685763888889,0.46863625919117646,18.5,44,1013.7,6.14,2.12,243,-0.18,0.08799999999999998,12.36
2020-3-12 16:10,10000,2016.3304644097223,161.9186306423611,0.4448263945606579,12.942955873569659,0.005539279513888889,0.46793550006808277,18.5,44,1013.7,6.14,2.09,243,-0.18,0.09100000000000001,12.36
2020-3-12 16:11,10000,2025.1446223958333,162.37807508657477,0.4448670348027025,12.66641722114844,0.0055295138888888885,0.46398470264842046,18.5,44,1013.7,6.14,2.06,244,-0.22,0.09399999999999999,12.36
2020-3-12 16:11,10000,2065.173281,164.3430121527778,0.44342538195240955,13.046611323222546,0.006080729166666667,0.4689849707244009,18.5,44,1013.7,6.14,2.08,247,-0.32,0.09199999999999998,12.36
2020-3-12 16:11,10000,2205.315547,176.67147894964216,0.44339365580623097,13.5850096340065,0.00787326388888889,0.4779192325367647,18.5,44,1013.7,6.14,2.05,248,-0.36,0.09500000000000001,12.36
2020-3-12 16:11,10000,2364.2969618055554,188.52107096353112,0.4434499100795745,14.244019761071927,0.008333333333333333,0.49074875748910674,18.5,45,1013.7,6.47,2.02,248,-0.35,0.09799999999999999,12.030000000000001
2020-3-12 16:12,10000,2520.9445616319445,197.87064778117303,0.44182607343067365,14.68695052161887,0.00854275173611111,0.4993589537377451,18.5,45,1013.7,6.47,2,250,-0.42,0.09999999999999999,12.030000000000001
2020-3-12 16:12,10000,2486.6032118055555,195.3013769531144,0.4410229809732613,14.501498563972666,0.008350694444444445,0.5027274816176471,18.5,45,1013.7,6.47,1.99,252,-0.48,0.10099999999999999,12.030000000000001
2020-3-12 16:12,10000,2523.455529513889,197.91714301201006,0.4407230750117554,14.283109163824697,0.00790798611111111,0.5046988187636166,18.5,45,1013.7,6.47,1.97,252,-0.48,0.103,12.030000000000001
2020-3-12 16:12,10000,2503.604939236111,197.7627180989477,0.44128224856280074,14.256532090736064,0.007674696180555556,0.5053302313112744,18.5,45,1013.7,6.47,1.92,252,-0.47,0.10800000000000001,12.030000000000001
2020-3-12 16:13,10000,2455.9788932291667,194.52070413939748,0.44228846283061274,14.088271323488057,0.006877170138888889,0.5019788517837691,18.5,45,1013.7,6.47,1.86,251,-0.42,0.11399999999999998,12.030000000000001
2020-3-12 16:13,10000,2450.1564583333334,193.91184787323445,0.44179763594776944,14.119236802787318,0.006855469,0.5037126693559368,18.5,45,1013.7,6.47,1.77,249,-0.34,0.12299999999999998,12.030000000000001
2020-3-12 16:13,10000,2414.8358680555557,192.28463106808132,0.4423572947443824,13.871987865676235,0.006752387152777778,0.49974954895152507,18.5,45,1013.7,6.47,1.74,247,-0.27,0.126,12.030000000000001
2020-3-12 16:13,10000,2390.2052994791666,191.4506282552071,0.4441880762281257,13.978471813549023,0.007039930555555555,0.4996411781726579,18.5,47,1013.7,7.1,1.72,247,-0.27,0.128,11.4
2020-3-12 16:14,10000,2407.7151085069445,192.02233506852124,0.4440457355154403,13.88444159416102,0.007056206597222222,0.4966479524101307,18.5,47,1013.7,7.1,1.73,246,-0.24,0.127,11.4
2020-3-12 16:14,10000,2330.3904166666666,186.79517903642892,0.44362919369389997,13.849848851432888,0.007004123263888889,0.4933184529888344,18.5,47,1013.7,7.1,1.78,243,-0.16,0.122,11.4
2020-3-12 16:14,10000,2320.933628472222,186.13509114582862,0.44421928317835435,13.68324963683303,0.007484809027777778,0.48928110957924836,18.5,47,1013.7,7.1,1.86,243,-0.16,0.11399999999999998,11.4
2020-3-12 16:14,10000,2323.6149609375,187.76995551214225,0.44445423888627245,13.79777575307723,0.006712239583333333,0.48988858677151415,18.4,47,1013.7,7,1.96,243,-0.17,0.104,11.399999999999999
2020-3-12 16:15,10000,2357.2323177083335,190.11397026889816,0.4441702490041791,13.827850879161392,0.007236328,0.49276511863425926,18.4,47,1013.7,7,2.04,243,-0.18,0.096,11.399999999999999
2020-3-12 16:15,10000,2343.674787326389,188.64699869791667,0.44413246248435956,13.830676939664778,0.0072775607638888885,0.4928253506263617,18.4,47,1013.7,7,2.14,243,-0.19,0.08599999999999998,11.399999999999999
2020-3-12 16:15,10000,2328.3372743055556,186.38271267255155,0.44363182614731606,13.836705108739647,0.007515190972222223,0.49075867204520696,18.4,47,1013.7,7,2.23,244,-0.23,0.077,11.399999999999999
2020-3-12 16:15,10000,2245.0332899305554,180.15285915798498,0.4451189967954194,13.63489776354116,0.007480469,0.4820878821146514,18.4,46,1013.7,6.69,2.33,245,-0.28,0.06699999999999999,11.709999999999997
2020-3-12 16:16,10000,2270.4722786458333,180.3939257808685,0.44494107803061206,13.891242502611872,0.008364800347222222,0.48069848686002176,18.4,46,1013.7,6.69,2.39,244,-0.25,0.060999999999999985,11.709999999999997
2020-3-12 16:16,10000,2174.151753472222,171.9213726128366,0.44357006311174574,13.865130770053653,0.008453776041666666,0.4740233821827342,18.4,46,1013.7,6.69,2.39,246,-0.33,0.060999999999999985,11.709999999999997
2020-3-12 16:16,10000,2163.7565581597223,172.76414062495758,0.44490721334790073,13.72487762552223,0.008358289930555556,0.4734052457788671,18.4,46,1013.7,6.69,2.35,247,-0.37,0.06499999999999999,11.709999999999997
2020-3-12 16:16,10000,2189.611332465278,174.18755316839213,0.4451150405679907,13.880848500905207,0.008510199652777778,0.4748007599741286,18.4,45,1013.6,6.37,2.3,248,-0.4,0.07000000000000002,12.029999999999998
2020-3-12 16:17,10000,2237.0026779513887,177.23740124667015,0.44494050938510404,14.048397004514724,0.008339844,0.4785818227464597,18.4,45,1013.6,6.37,2.28,248,-0.4,0.07200000000000002,12.029999999999998
2020-3-12 16:17,10000,2281.1036414930554,180.3754155815961,0.44342981484155625,14.158356350271337,0.008414713541666667,0.4838734638820806,18.4,45,1013.6,6.37,2.21,248,-0.38,0.079,12.029999999999998
2020-3-12 16:17,10000,2378.2781901041667,188.0565820311746,0.4422344545849575,14.286668913573843,0.008306206597222223,0.4918348822167756,18.4,45,1013.6,6.37,2.11,246,-0.29,0.08900000000000001,12.029999999999998
2020-3-12 16:17,10000,2432.715807291667,191.80115342880885,0.4418427541465708,14.512456515013568,0.008332248263888889,0.4982522850285948,18.4,45,1013.6,6.37,1.95,242,-0.14,0.10500000000000001,12.029999999999998
2020-3-12 16:18,10000,2485.226540798611,196.88069986905572,0.44262714561502003,14.570688739801277,0.008420138888888888,0.5017297496255446,18.4,45,1013.6,6.37,1.81,240,-0.06,0.119,12.029999999999998
2020-3-12 16:18,10000,2505.9620399305554,196.4008886717795,0.441189493837074,14.536488582217046,0.008311631944444444,0.5041286679602396,18.4,45,1013.6,6.37,1.71,238,0,0.129,12.029999999999998
2020-3-12 16:18,10000,2467.2112890625,194.99545572573345,0.4419208707477386,14.444292788551587,0.008206380208333334,0.4994966809640523,18.4,45,1013.6,6.37,1.6,236,0.06,0.13999999999999999,12.029999999999998
2020-3-12 16:18,10000,2339.4727256944443,188.01924479166195,0.4445850930549667,14.083634226039633,0.008047960069444445,0.48970922266476036,18.4,46,1013.6,6.69,1.53,235,0.08,0.147,11.709999999999997
2020-3-12 16:19,10000,2211.4262022569446,176.73680555551311,0.4448266145186919,13.706764262280089,0.008120659722222222,0.47774496187363835,18.4,46,1013.6,6.69,1.44,234,0.1,0.156,11.709999999999997
2020-3-12 16:19,10000,2132.4302864583333,169.76006076388413,0.44359178879354944,13.541743190021455,0.00790798611111111,0.4724354192197713,18.4,46,1013.6,6.69,1.48,233,0.13,0.152,11.709999999999997
2020-3-12 16:19,10000,2136.2930598958333,168.3231694860564,0.44321902058239115,13.631948127544023,0.008309461805555555,0.46999702563317,18.4,46,1013.6,6.69,1.53,233,0.13,0.147,11.709999999999997
2020-3-12 16:19,10000,2257.2200520833335,179.95471896698436,0.444803742857543,14.25020332186875,0.008610026041666666,0.4775042168777233,18.4,47,1013.6,7,1.56,236,0.05,0.144,11.399999999999999
2020-3-12 16:20,10000,2293.6585850694446,182.62855685445524,0.4449354047365861,14.36606479022264,0.008591579861111111,0.48141058176742924,18.4,47,1013.6,7,1.62,235,0.08,0.13799999999999998,11.399999999999999
2020-3-12 16:20,10000,2465.6876041666665,193.22853732637,0.4416727352443452,15.157677604839417,0.00863064236111111,0.49212995727805015,18.4,47,1013.6,7,1.69,234,0.12,0.131,11.399999999999999
2020-3-12 16:20,10000,2549.6370616319446,199.5537966579284,0.44289440597037366,15.281490905729461,0.008717447916666666,0.49911202171840957,18.4,47,1013.6,7,1.74,234,0.12,0.126,11.399999999999999
2020-3-12 16:20,10000,2591.6312890625,202.36842773437397,0.4420560650289513,15.289447319985484,0.008831380208333333,0.5032332984409041,18.4,45,1013.6,6.37,1.75,233,0.15,0.125,12.029999999999998
2020-3-12 16:21,10000,2659.3938585069445,206.72685112726654,0.44181764573919396,15.44839586176208,0.009004991319444445,0.50583106958061,18.4,45,1013.6,6.37,1.73,234,0.12,0.127,12.029999999999998
2020-3-12 16:21,10000,2585.109826388889,200.54072482638426,0.4400228037996794,15.190231684241587,0.008700086805555556,0.5048518603622004,18.4,45,1013.6,6.37,1.69,235,0.09,0.131,12.029999999999998
2020-3-12 16:21,10000,2566.235078,200.8713585052442,0.44026585184839045,14.952754052853129,0.008466797,0.5039673840890524,18.4,45,1013.6,6.37,1.67,238,0,0.133,12.029999999999998
2020-3-12 16:21,10000,2554.6552647569442,200.38303602430082,0.4416795956828526,14.926321204603651,0.008467881944444445,0.5049716733047386,18.5,44,1013.6,6.14,1.71,239,-0.03,0.129,12.36
2020-3-12 16:22,10000,2573.744787326389,203.69549587672546,0.44250251577673444,14.911880170203863,0.008478732638888889,0.5075918309163944,18.5,44,1013.6,6.14,1.67,242,-0.12,0.133,12.36
2020-3-12 16:22,10000,2490.5146788194443,195.28573350694444,0.4406304189690813,14.713577548464933,0.00836154513888889,0.5024525505514706,18.5,44,1013.6,6.14,1.57,243,-0.14,0.143,12.36
2020-3-12 16:22,10000,2552.531362847222,201.6887554253462,0.4418766805159311,14.819839008036524,0.008400607638888889,0.5074798645152506,18.5,44,1013.6,6.14,1.54,242,-0.11,0.146,12.36
2020-3-12 16:22,10000,2563.3366232638887,201.38750759547557,0.4413309738046755,14.874953304218627,0.008472222222222223,0.5092802159926471,18.5,44,1013.6,6.14,1.52,243,-0.13,0.148,12.36
2020-3-12 16:23,10000,2544.541853298611,200.10433159654397,0.44251112652670194,14.877032244180626,0.008519965277777777,0.5058126659517974,18.5,44,1013.6,6.14,1.58,241,-0.08,0.142,12.36
2020-3-12 16:23,10000,2572.303576388889,200.44767144097221,0.4414624619354561,15.076134183952014,0.008461371527777779,0.5094121008646515,18.5,44,1013.6,6.14,1.61,239,-0.03,0.13899999999999998,12.36
2020-3-12 16:23,10000,2702.9201215277776,211.92331595170754,0.44268836932365774,15.55374873800849,0.008734809027777778,0.5153306227873093,18.5,44,1013.6,6.14,1.63,237,0.03,0.137,12.36
2020-3-12 16:23,10000,2682.0523350694443,210.90659722222222,0.44315853696844104,15.557782274683985,0.008798828,0.5115117144948257,18.5,45,1013.6,6.47,1.67,237,0.03,0.133,12.030000000000001
2020-3-12 16:24,10000,2631.740260416667,206.46299370531514,0.44291806508430254,15.342179118153613,0.008634982638888889,0.506845601000817,18.5,45,1013.6,6.47,1.7,237,0.03,0.13,12.030000000000001
2020-3-12 16:24,10000,2554.1560850694445,198.43963107638433,0.440511327144951,15.048279340546253,0.008491753472222223,0.5051166428376906,18.5,45,1013.6,6.47,1.77,238,0,0.12299999999999998,12.030000000000001
2020-3-12 16:24,10000,2603.1305078125,205.26156141478785,0.44281810766109936,14.94939096646127,0.008634982638888889,0.5020677891816449,18.5,45,1013.6,6.47,1.8,240,-0.06,0.11999999999999998,12.030000000000001
2020-3-12 16:24,10000,2719.258185763889,213.29780924479044,0.44372294939996254,15.568991248213862,0.008740234,0.5134213813997821,18.5,45,1013.6,6.47,1.84,240,-0.06,0.11599999999999999,12.030000000000001
2020-3-12 16:25,10000,2728.708415798611,214.25635633431403,0.44465105381273157,15.335415958395716,0.008774956597222222,0.5071821767769608,18.5,45,1013.6,6.47,1.82,240,-0.06,0.118,12.030000000000001
2020-3-12 16:25,10000,2741.095698784722,212.88177408854048,0.44287202398297837,15.762061047137708,0.008911675347222222,0.5134040798611111,18.5,45,1013.6,6.47,1.79,240,-0.06,0.121,12.030000000000001
2020-3-12 16:25,10000,2768.2123307291668,216.42636935492624,0.4423993367919952,15.82804067477507,0.008973524305555555,0.5136873680895969,18.5,45,1013.6,6.47,1.75,239,-0.03,0.125,12.030000000000001
2020-3-12 16:25,10000,2739.359001736111,213.63074327256837,0.4434929780091708,15.576095988655254,0.008958333333333334,0.5137533105255991,18.5,44,1013.6,6.14,1.72,237,0.03,0.128,12.36
2020-3-12 16:26,10000,2757.990646701389,217.37327582462342,0.44552811680622095,15.766533632186146,0.009029947916666666,0.5143803700299564,18.5,44,1013.6,6.14,1.73,235,0.09,0.127,12.36
2020-3-12 16:26,10000,2689.166345486111,209.4638433159722,0.4438012290229266,15.38460219410638,0.00871310763888889,0.5143785147739651,18.5,44,1013.6,6.14,1.7,234,0.12,0.13,12.36
2020-3-12 16:26,10000,2673.5184461805557,210.97545681397116,0.4433456457943743,15.215038196640489,0.00884982638888889,0.5137968196827343,18.5,44,1013.6,6.14,1.66,233,0.14,0.134,12.36
2020-3-12 16:26,10000,2614.9504730902777,206.21791232637003,0.44456318678167195,14.953215039447615,0.008632813,0.5094557972494553,18.5,44,1013.6,6.14,1.62,231,0.2,0.13799999999999998,12.36
2020-3-12 16:27,10000,2589.866154513889,204.5288617621421,0.44386720781077965,14.921185427971192,0.008475477430555555,0.510476388037854,18.5,44,1013.6,6.14,1.59,231,0.19,0.141,12.36
2020-3-12 16:27,10000,2500.1248285590277,195.85988823781776,0.4416593436572643,14.680542728979306,0.008548177083333334,0.5059383510348584,18.5,44,1013.6,6.14,1.6,231,0.19,0.13999999999999999,12.36
2020-3-12 16:27,10000,2572.5331553819447,201.75148437407714,0.4428097531270357,15.048119281773904,0.008909505208333333,0.5032866838575708,18.5,44,1013.6,6.14,1.63,230,0.23,0.137,12.36
2020-3-12 16:27,10000,2494.315494791667,196.50406249999534,0.4444716265572971,14.880776397193934,0.008758680555555556,0.49716574329384533,18.5,44,1013.6,6.14,1.65,231,0.2,0.135,12.36
2020-3-12 16:28,10000,2429.904236111111,194.1491015624811,0.4450570603365322,14.356135893217552,0.008447266,0.49404086243872547,18.5,44,1013.6,6.14,1.67,232,0.17,0.133,12.36
2020-3-12 16:28,10000,2362.655920138889,188.50107313367943,0.4442261123630252,14.214382003908666,0.008356119791666667,0.4924004076456972,18.5,44,1013.6,6.14,1.7,232,0.18,0.13,12.36
2020-3-12 16:28,10000,2367.000972222222,188.4815245201854,0.44373680418029643,14.132048296501775,0.008422309027777778,0.4907203329248366,18.5,44,1013.6,6.14,1.75,232,0.18,0.125,12.36
2020-3-12 16:28,10000,2304.5647786458335,184.2027083333287,0.44515165450273164,13.948121374904689,0.008210720486111111,0.4873447542211329,18.5,44,1013.7,6.14,1.76,231,0.21,0.124,12.36
2020-3-12 16:29,10000,2349.929144965278,188.35013997394776,0.445177107314547,14.250305332575312,0.008452690972222222,0.48927696503948803,18.5,44,1013.7,6.14,1.78,231,0.22,0.122,12.36
2020-3-12 16:29,10000,2273.846089409722,181.86628255208333,0.4445710827010326,13.876661503215782,0.008195529513888888,0.48684737540849676,18.5,44,1013.7,6.14,1.74,230,0.24,0.126,12.36
2020-3-12 16:29,10000,2285.7966883680556,182.19715603272113,0.4431954149171931,13.726597244238812,0.008023003472222222,0.486576784620098,18.5,44,1013.7,6.14,1.69,227,0.32,0.131,12.36
2020-3-12 16:29,10000,2304.742560763889,185.06856119791667,0.44430728619742227,13.856220240260695,0.008159722222222223,0.4890147399237473,18.5,43,1013.7,5.81,1.65,224,0.4,0.135,12.690000000000001
2020-3-12 16:30,10000,2304.4473958333333,186.08871636284613,0.44574471717816216,13.76855641965483,0.00789279513888889,0.49120194631672115,18.5,43,1013.7,5.81,1.59,221,0.46,0.141,12.690000000000001
2020-3-12 16:30,10000,2383.378793402778,187.62689561631828,0.44190071414638776,14.045544561108443,0.0076334635416666664,0.4988836933210784,18.5,43,1013.7,5.81,1.55,217,0.55,0.145,12.690000000000001
2020-3-12 16:30,10000,2490.5936328125,196.91390949588242,0.4413905735015115,14.412158100981264,0.008125,0.506891237745098,18.5,43,1013.7,5.81,1.53,212,0.67,0.147,12.690000000000001
2020-3-12 16:30,10000,2478.8085416666668,196.93027343749532,0.4426734974681294,14.450763583209751,0.007855902777777778,0.5085061870234204,18.5,44,1013.7,6.14,1.61,208,0.8,0.13899999999999998,12.36
2020-3-12 16:31,10000,2520.140091145833,199.76172525949363,0.4426803500616894,14.520336542826296,0.008156467013888889,0.504620961839597,18.5,44,1013.7,6.14,1.63,202,0.96,0.137,12.36
2020-3-12 16:31,10000,2655.8381857638888,206.56934027777308,0.44188438291343674,15.384459340024929,0.008735894097222223,0.510880144505719,18.5,44,1013.7,6.14,1.66,197,1.09,0.134,12.36
2020-3-12 16:31,10000,2756.9719661458334,216.0043142347499,0.44287119814265563,15.825688392117787,0.008851996527777777,0.5139233260144336,18.5,44,1013.7,6.14,1.72,192,1.24,0.128,12.36
2020-3-12 16:31,10000,2654.1017990451387,208.56210069442582,0.4433758790342352,15.380552055729602,0.008798828,0.5104338277845861,18.5,44,1013.7,6.14,1.82,187,1.41,0.118,12.36
2020-3-12 16:32,10000,2675.7453428819445,211.06796223878743,0.44406852627733406,15.600373792325765,0.008754340277777778,0.5107163373161765,18.5,44,1013.7,6.14,1.99,180,1.69,0.10099999999999999,12.36
2020-3-12 16:32,10000,2696.262677951389,210.14464843748112,0.4435527297855265,15.835106933454801,0.008983289930555555,0.5089897407747821,18.5,44,1013.7,6.14,2.26,171,2.08,0.07400000000000001,12.36
2020-3-12 16:32,10000,2678.736840277778,209.71383246527304,0.4439216887029413,15.822920172709713,0.009142795138888889,0.5040769846132898,18.5,44,1013.7,6.14,2.55,165,2.44,0.04500000000000001,12.36
2020-3-12 16:32,10000,2667.9186675347223,208.02549587664075,0.4462906571383863,15.973143364345017,0.009169922,0.4995017105800654,18.5,44,1013.6,6.14,2.78,159,2.73,0.02200000000000002,12.36
2020-3-12 16:33,10000,2655.371896701389,206.77498914928657,0.4466628835289594,16.023006073431507,0.00927517361111111,0.49611060049019606,18.5,44,1013.6,6.14,3.12,155,3.09,0,12.36
2020-3-12 16:33,10000,2563.382730034722,200.46587456597223,0.44610272029060977,15.782931414239012,0.009182942708333334,0.48972457107843137,18.5,44,1013.6,6.14,3.46,150,3.46,0,12.36
2020-3-12 16:33,9000,2477.663672,193.85126085067566,0.4466894293911469,15.417866272473622,0.009301215277777778,0.48215468409586054,18.5,44,1013.6,6.14,3.81,147,3.81,0,12.36
2020-3-12 16:33,7000,2403.963732638889,188.11874891483524,0.4468330862717173,15.113957566299794,0.009278428819444445,0.4790910181781046,18.5,47,1013.7,7.1,4.12,142,4.09,0,11.4
2020-3-12 16:34,6000,2573.2113151041667,201.94269096798357,0.4482518437111535,15.793502062218888,0.009509548611111111,0.48467846200980397,18.5,47,1013.7,7.1,4.36,141,4.32,0,11.4
2020-3-12 16:34,5000,2592.7216276041668,201.273334418345,0.4485114135973064,15.943825292429983,0.009412977430555556,0.485059453295207,18.5,47,1013.7,7.1,4.51,142,4.49,0,11.4
2020-3-12 16:34,5000,2547.5833506944446,199.1845399299857,0.4466479921369015,15.566384563088405,0.009313151041666667,0.4846562925517429,18.5,47,1013.7,7.1,4.6,141,4.57,0,11.4
2020-3-12 16:34,5000,2480.0908723958332,195.01277777777779,0.44652821468407666,15.337613972558154,0.009299045138888889,0.4858023939610566,18.1,53,1013.6,8.48,4.7,140,4.65,0,9.620000000000001
2020-3-12 16:35,5000,2495.8972309027777,197.21933702247412,0.44553508555851074,15.306095392460453,0.008983289930555555,0.4893801530160676,18.1,53,1013.6,8.48,4.73,140,4.68,0,9.620000000000001
2020-3-12 16:35,5000,2527.1333897569443,198.01839518226217,0.4439857734610515,15.409853209133964,0.008924696180555556,0.4952583486519608,18.1,53,1013.6,8.48,4.69,139,4.63,0,9.620000000000001
2020-3-12 16:35,5000,2591.6428385416666,202.53345052071555,0.44303080329981537,15.485381917068262,0.008933376736111111,0.49983943525326796,18.1,53,1013.6,8.48,4.64,138,4.57,0,9.620000000000001
2020-3-12 16:35,5000,2612.864292534722,203.94514539930555,0.44434781402326895,15.475152808298075,0.009130859,0.5023298100490196,17.8,56,1013.6,9,4.61,139,4.55,0,8.8
2020-3-12 16:36,5000,2652.003324652778,207.8234787326201,0.44445315875740166,15.503889611012799,0.009147135416666667,0.5019354107094227,17.8,56,1013.6,9,4.51,137,4.43,0,8.8
2020-3-12 16:36,4900,2610.340998263889,203.16658094617935,0.4434184699298664,15.293298754243574,0.009078776041666667,0.5018925440836057,17.8,56,1013.6,9,4.35,137,4.27,0,8.8
2020-3-12 16:36,4900,2585.903806423611,201.47473090247638,0.44324525896112593,15.077788307844694,0.009108072916666666,0.49920547385620917,17.8,56,1013.6,9,4.21,135,4.11,0,8.8
2020-3-12 16:36,4900,2609.403166232639,204.23886176209504,0.4443121951494064,15.42499491618138,0.009147135416666667,0.49791910488153596,17.6,57,1013.6,9.08,4.15,133,4.01,0,8.520000000000001
2020-3-12 16:37,4900,2594.1301193576387,200.5522558593739,0.4429657455643004,15.414719675221853,0.009169922,0.49790707975898696,17.6,57,1013.6,9.08,4.04,132,3.89,0,8.520000000000001
2020-3-12 16:37,4900,2564.2659809027778,198.06986219617926,0.4415513037541351,15.38544113752674,0.008993055555555556,0.4979107264433551,17.6,57,1013.6,9.08,3.97,131,3.79,0,8.520000000000001
2020-3-12 16:37,4900,2707.7701475694444,210.29742945597988,0.4434922555957791,15.797959844125812,0.009288194444444444,0.5055734698393246,17.6,57,1013.6,9.08,3.89,130,3.7,0,8.520000000000001
2020-3-12 16:37,4900,2777.3012413194447,216.2599609,0.4435083243422812,16.084013298695197,0.009164496527777777,0.5131551393995099,17.4,58,1013.6,9.14,3.79,131,3.62,0,8.259999999999998
2020-3-12 16:38,4900,2824.6308289930557,220.67008354992217,0.4444342164704516,16.069448644725764,0.009138454861111112,0.5157334048202614,17.4,58,1013.6,9.14,3.7,131,3.54,0,8.259999999999998
2020-3-12 16:38,4900,2783.4650824652776,216.94483615450332,0.44294890340979376,15.85821359371461,0.009186197916666666,0.5144608609068627,17.4,58,1013.6,9.14,3.77,131,3.61,0,8.259999999999998
2020-3-12 16:38,4900,2717.285625,213.39027886067026,0.4435548396701478,15.537991988018522,0.009046223958333334,0.5119173517497276,17.4,58,1013.6,9.14,3.83,131,3.66,0,8.259999999999998
2020-3-12 16:38,4900,2684.4734288194445,210.82710394964224,0.4430880364040923,15.218649230798878,0.008857422,0.5110880693423203,17.4,59,1013.6,9.39,3.72,132,3.58,0,8.009999999999998
2020-3-12 16:39,4800,2699.308589409722,211.98312825517888,0.4431030393288604,15.310601264609653,0.00895724826388889,0.5124585928989651,17.4,59,1013.6,9.39,3.78,132,3.63,0,8.009999999999998
2020-3-12 16:39,4800,2658.889683159722,208.57715603297532,0.44246436944112433,15.065340031642892,0.008963758680555555,0.5115758612472767,17.4,59,1013.6,9.39,3.87,132,3.72,0,8.009999999999998
2020-3-12 16:39,4800,2652.5644921875,208.1939268658001,0.4417532739558886,14.922945452283953,0.008554688,0.5123552389705883,17.4,59,1013.6,9.39,3.88,132,3.73,0,8.009999999999998
2020-3-12 16:39,4800,2650.943355034722,207.9515885416244,0.4412459355155491,14.932120240906379,0.008739149305555555,0.5109430317265795,17.3,59,1013.6,9.3,3.94,130,3.74,0,8
2020-3-12 16:40,4800,2563.724136284722,202.52660155673064,0.4427677533099545,14.559827338971823,0.008467881944444445,0.5066660283905229,17.3,59,1013.6,9.3,4.09,129,3.86,0,8
2020-3-12 16:40,4800,2606.8552560763887,203.64052951388416,0.4412201428770181,14.754333116435452,0.008564453,0.508669164453976,17.3,59,1013.6,9.3,4.14,129,3.92,0,8
2020-3-12 16:40,4800,2568.372677951389,200.53096354166198,0.4402697481454438,14.445072947457243,0.008072916666666667,0.5076979890046297,17.3,59,1013.6,9.3,4.22,129,3.99,0,8
2020-3-12 16:40,4800,2423.309392361111,192.4336729600683,0.441811068509761,13.9921305367048,0.007326388888888889,0.5001464205473857,17.3,59,1013.7,9.3,4.42,129,4.18,0,8
2020-3-12 16:41,4800,2413.400212673611,192.3539626736064,0.4438174875582419,14.06719781689784,0.008269314236111111,0.4940884225217865,17.3,59,1013.7,9.3,4.49,128,4.22,0,8
2020-3-12 16:41,4800,2316.5364322916666,184.66981228298488,0.44307234876350166,13.846844570286404,0.008311631944444444,0.487177151416122,17.3,59,1013.7,9.3,4.47,128,4.2,0,8
2020-3-12 16:41,4800,2183.6110460069444,173.24214518177234,0.44370536433458263,13.482515059064507,0.008202039930555556,0.47469978468818086,17.3,59,1013.7,9.3,4.4,129,4.16,0,8
2020-3-12 16:41,4800,2156.397534722222,170.31214084201267,0.4436704407524305,13.385737583261841,0.008172743055555556,0.4714945108251634,17.2,59,1013.7,9.21,4.36,131,4.16,0,7.989999999999998
2020-3-12 16:42,4800,2138.702595486111,168.6721777340347,0.44347415150244324,13.37221488365126,0.007732204861111111,0.47086250680827885,17.2,59,1013.7,9.21,4.38,131,4.18,0,7.989999999999998
2020-3-12 16:42,4800,2140.1728211805557,169.20715494789778,0.44224530810946877,13.335177013773043,0.007960069444444445,0.47241082005718954,17.2,59,1013.7,9.21,4.4,131,4.21,0,7.989999999999998
2020-3-12 16:42,4800,2108.9754600694446,167.6137000865042,0.44312819905210443,13.144261934654782,0.006737196180555556,0.47090975200844226,17.2,59,1013.7,9.21,4.38,131,4.19,0,7.989999999999998
2020-3-12 16:42,4800,2112.276753472222,168.05142035590163,0.44368456777622706,13.148080890865955,0.007202690972222222,0.4691872446895425,17.2,59,1013.7,9.21,4.29,132,4.12,0,7.989999999999998
2020-3-12 16:43,4800,2102.8855859375,167.19870117184558,0.4438501847462075,13.12718799271051,0.006755642361111111,0.4695828142020697,17.2,59,1013.7,9.21,4.11,133,3.97,0,7.989999999999998
2020-3-12 16:43,4800,2096.276037326389,166.30647894959512,0.44374942738039913,13.291051620654306,0.006888020833333334,0.47139354830473856,17.2,59,1013.7,9.21,4.08,133,3.94,0,7.989999999999998
2020-3-12 16:43,4800,2114.741345486111,167.12213649913534,0.44262139199164163,13.406084853038044,0.007348090277777778,0.47344303598175386,17.2,59,1013.7,9.21,4.19,132,4.03,0,7.989999999999998
2020-3-12 16:43,4800,2118.4021440972224,167.67462022552488,0.4442741218708341,13.506539772175834,0.007197266,0.47116304125816993,17.2,59,1013.7,9.21,4.26,131,4.07,0,7.989999999999998
2020-3-12 16:44,4800,2197.6940104166665,174.08762695286015,0.44463669489808894,14.00275062109873,0.008130425347222222,0.4729190665849673,17.2,59,1013.7,9.21,4.27,131,4.08,0,7.989999999999998
2020-3-12 16:44,4800,2317.4860112847223,181.36546766487294,0.4443798727968443,14.639254374713015,0.008886719,0.4771926189746732,17.2,59,1013.7,9.21,4.22,131,4.03,0,7.989999999999998
2020-3-12 16:44,4800,2258.345737847222,177.880678166791,0.44396915574537826,14.521306186514009,0.00888454861111111,0.473501063793573,17.2,59,1013.7,9.21,4.2,130,4,0,7.989999999999998
2020-3-12 16:44,4800,2213.2234201388887,175.59287434886303,0.445101251463701,14.319014761362707,0.008644748263888889,0.47022120098039216,17.1,60,1013.7,9.36,4.19,129,3.96,0,7.740000000000002
2020-3-12 16:45,4800,2313.471232638889,183.10462782116997,0.44666634198508687,14.844757779467374,0.00886935763888889,0.47480307478894335,17.1,60,1013.7,9.36,4.36,129,4.12,0,7.740000000000002
2020-3-12 16:45,4800,2518.9708333333333,196.59611436628992,0.44595485629442705,15.704838887005389,0.009437934027777779,0.48180064933959693,17.1,60,1013.7,9.36,4.51,129,4.26,0,7.740000000000002
2020-3-12 16:45,4700,2639.3419010416665,205.45966687839547,0.44653462505288477,16.37089300493252,0.009465060763888889,0.4878952035675381,17.1,60,1013.7,9.36,4.49,129,4.25,0,7.740000000000002
2020-3-12 16:45,4700,2558.7287109375,198.53443142360632,0.4465881396440551,15.980873251378267,0.009491102430555556,0.4826026731004902,17.1,59,1013.7,9.11,4.51,128,4.24,0,7.990000000000002
2020-3-12 16:46,4800,2494.759766,196.8246929253366,0.4487733195488252,15.691120016591018,0.009396701388888888,0.48297550296160136,17.1,59,1013.7,9.11,4.49,126,4.16,0,7.990000000000002
2020-3-12 16:46,4800,2521.2050868055558,196.405042317613,0.44846945996082477,15.756943634252528,0.009337022569444445,0.48278320738017433,17.1,59,1013.7,9.11,4.51,126,4.18,0,7.990000000000002
2020-3-12 16:46,4800,2487.4392491319445,196.00966796874536,0.4483658679549386,15.665686824997254,0.009295789930555555,0.4816649135348584,17.1,59,1013.7,9.11,4.43,125,4.08,0,7.990000000000002
2020-3-12 16:46,4800,2527.6990321180556,199.9174587673563,0.44946795907525733,15.759622457530497,0.009396701388888888,0.48317480255991285,17.1,60,1013.7,9.36,4.44,125,4.09,0,7.740000000000002
2020-3-12 16:47,4700,2508.4013758680558,197.07252495659617,0.4482225251800616,15.74738860996645,0.009447699652777778,0.4849987532339325,17.1,60,1013.7,9.36,4.35,126,4.04,0,7.740000000000002
2020-3-12 16:47,4700,2443.407266,193.1940115017255,0.44678558781855293,15.345581048600165,0.009167751736111111,0.48478276909722223,17.1,60,1013.7,9.36,4.21,127,3.93,0,7.740000000000002
2020-3-12 16:47,4800,2448.184435763889,192.4344270833144,0.4454130954532342,15.115818845048487,0.009144965277777778,0.4860056295955882,17.1,60,1013.7,9.36,4.25,128,4,0,7.740000000000002
2020-3-12 16:47,4800,2483.0402039930555,196.73362630208334,0.44674953172816945,15.198129363962021,0.00927951388888889,0.4897852115672658,17,60,1013.7,9.26,4.19,129,3.97,0,7.74
2020-3-12 16:48,4800,2532.0007595486113,199.09641927036236,0.4450209375535519,15.15378863309374,0.009151475694444444,0.49574811921296297,17,60,1013.7,9.26,4.12,131,3.94,0,7.74
2020-3-12 16:48,4800,2492.7071918402776,195.4889724392349,0.44348926042256315,14.804591809082341,0.008735894097222223,0.49725181695942267,17,60,1013.7,9.26,4.07,132,3.91,0,7.74
2020-3-12 16:48,4700,2592.3294487847224,204.2608420084448,0.44360278077600757,14.86983333487057,0.008669704861111112,0.5074550994008714,17,60,1013.7,9.26,4.18,134,4.06,0,7.74
2020-3-12 16:48,4700,2635.1950130208334,207.01173936630894,0.44376862355516716,15.125520893196875,0.00885959201388889,0.5101940997753268,17.1,60,1013.7,9.36,4.24,135,4.13,0,7.740000000000002
2020-3-12 16:49,4700,2652.8015885416667,208.72642469608502,0.44386468272861185,15.037483941329098,0.008969184027777778,0.5106557606549564,17.1,60,1013.7,9.36,4.27,134,4.14,0,7.740000000000002
2020-3-12 16:49,4700,2636.738763020833,207.3015787760124,0.4435969283763738,15.040479447588346,0.008833550347222222,0.5111798364311002,17.1,60,1013.7,9.36,4.29,134,4.16,0,7.740000000000002
2020-3-12 16:49,4700,2639.5147960069444,207.64649630963237,0.44278806827271616,15.02169359304661,0.008930121527777777,0.5113122234136711,17.1,60,1013.7,9.36,4.35,134,4.22,0,7.740000000000002
2020-3-12 16:49,4700,2690.0026388888887,212.4064105902355,0.44466924702895766,15.230258835802237,0.009078776041666667,0.5129921109068627,17,60,1013.7,9.26,4.35,135,4.24,0,7.74
2020-3-12 16:50,4700,2663.6714930555554,210.3339767779021,0.4446117948196848,15.071492906343437,0.008948567708333334,0.5120315053104575,17,60,1013.7,9.26,4.37,134,4.25,0,7.74
2020-3-12 16:50,4700,2600.523810763889,203.83418511275198,0.4422535962825469,14.930527512665822,0.008883463541666666,0.5109152837350218,17,60,1013.7,9.26,4.38,134,4.25,0,7.74
2020-3-12 16:50,4700,2575.6331119791666,202.86465386275174,0.44137472285571927,14.774014632408916,0.00886501736111111,0.5097451873978758,17,60,1013.7,9.26,4.25,132,4.08,0,7.74
2020-3-12 16:50,4700,2587.2928515625,202.60929687499527,0.443144985405704,14.86181400278052,0.008780381944444445,0.5093456180215141,17,60,1013.7,9.26,4.15,133,4.01,0,7.74
2020-3-12 16:51,4700,2588.2805338541666,203.3287901474269,0.4431686179281818,14.906406088455402,0.008807508680555555,0.5085264629289216,17,60,1013.7,9.26,4.11,134,3.99,0,7.74
2020-3-12 16:51,4700,2628.419548611111,205.9892339409722,0.4426287832038786,14.99583507485047,0.00875,0.5100134420955882,17,60,1013.7,9.26,3.96,134,3.84,0,7.74
2020-3-12 16:51,4700,2584.310373263889,202.53644097221743,0.44216781791161475,14.676484318491518,0.008885633680555555,0.5068830039828431,17,60,1013.7,9.26,3.8,134,3.68,0,7.74
2020-3-12 16:51,4700,2618.155277777778,205.28892578120755,0.44258884657033204,14.96704784901866,0.008681641,0.5089363553581154,17,60,1013.7,9.26,3.78,135,3.69,0,7.74
2020-3-12 16:52,4700,2571.6393446180555,201.20548285580753,0.44340873164545735,14.843511461454606,0.008745659722222222,0.5037450725081699,17,60,1013.7,9.26,3.75,135,3.66,0,7.74
2020-3-12 16:52,4700,2536.8065104166667,197.1650661892255,0.4416893179429377,14.783862999362494,0.008652344,0.4995143697235839,17,60,1013.7,9.26,3.72,134,3.61,0,7.74
2020-3-12 16:52,4700,2486.5749565972224,196.29890733505886,0.44396896519263096,15.030868658115885,0.008744574652777778,0.4943668981481481,17,60,1013.7,9.26,3.75,134,3.64,0,7.74
2020-3-12 16:52,4700,2490.1432769097223,197.51386610241997,0.4461655054252107,15.128872908543464,0.009065755208333333,0.4926185449005991,16.9,60,1013.7,9.17,3.69,134,3.59,0,7.729999999999999
2020-3-12 16:53,4700,2404.792517361111,190.8763747815438,0.44671078541377623,14.714138500273545,0.008980034722222223,0.48523278781998913,16.9,60,1013.7,9.17,3.64,133,3.52,0,7.729999999999999
2020-3-12 16:53,4700,2305.6510503472223,180.67800130206447,0.44438860326752483,14.433784872239082,0.008971354166666667,0.4796230638956972,16.9,60,1013.7,9.17,3.64,133,3.52,0,7.729999999999999
2020-3-12 16:53,4700,2273.663927951389,178.93497721291877,0.44515448333761837,14.179308731093808,0.008807508680555555,0.47677875646786494,16.9,60,1013.7,9.17,3.54,133,3.42,0,7.729999999999999
2020-3-12 16:53,4700,2241.009340277778,178.34667860242925,0.44656064935864714,14.119689322505568,0.008734809027777778,0.47591972188180826,16.9,60,1013.8,9.17,3.41,133,3.3,0,7.729999999999999
2020-3-12 16:54,4700,2268.398984,179.48159179635576,0.4468915488488252,14.257127743662698,0.008933376736111111,0.47494655926606755,16.9,60,1013.8,9.17,3.25,133,3.13,0,7.729999999999999
2020-3-12 16:54,4700,2305.729947916667,183.39118272568982,0.44793250443292537,14.520394431884935,0.009154730902777778,0.4776565308415033,16.9,60,1013.8,9.17,3.03,134,2.94,0,7.729999999999999
2020-3-12 16:54,4700,2346.2857118055554,185.6746484371986,0.4458841516309885,14.684718922018074,0.009194878472222221,0.47785578363289766,16.9,60,1013.8,9.17,2.84,136,2.78,0.016000000000000014,7.729999999999999
2020-3-12 16:54,4700,2306.083598090278,180.86643988714223,0.44611467821484757,14.644217476004524,0.009150391,0.4760034807325708,16.9,61,1013.8,9.41,2.79,139,2.76,0.020999999999999998,7.489999999999998
2020-3-12 16:55,4700,2351.655642361111,186.31119899913523,0.4465931928585673,14.697261051975556,0.00920681423611111,0.4787768203635621,16.9,61,1013.8,9.41,2.69,140,2.66,0.031000000000000003,7.489999999999998
2020-3-12 16:55,4700,2399.127955729167,186.77824761275176,0.44562023143297835,15.053468843544715,0.00921657986111111,0.4801899807666122,16.9,61,1013.8,9.41,2.67,141,2.65,0.03300000000000001,7.489999999999998
2020-3-12 16:55,4600,2432.0173263888887,190.02180338534117,0.44538235258389747,15.185902071335995,0.009177517361111111,0.4823698810253268,16.9,61,1013.8,9.41,2.77,142,2.75,0.022999999999999996,7.489999999999998
2020-3-12 16:55,4600,2360.5979817708335,185.3931901041479,0.44610294586867344,14.834951660386919,0.009053819444444444,0.4808942759395425,16.9,62,1013.8,9.65,2.92,142,2.91,0.008000000000000007,7.249999999999998
2020-3-12 16:56,4600,2507.839822048611,195.2910470894129,0.4464466953583562,15.558092169197064,0.009310980902777778,0.48477693950844225,16.9,62,1013.8,9.65,3.03,142,3.01,0,7.249999999999998
2020-3-12 16:56,4700,2535.3274001736113,197.92398437499537,0.4459883434775564,15.753175295281165,0.009214409722222223,0.4875602660334967,16.9,62,1013.8,9.65,3.17,142,3.16,0,7.249999999999998
2020-3-12 16:56,4700,2578.6391796875,200.7958409286769,0.44515493014157304,16.0485633712382,0.009322916666666667,0.4908662002995643,16.9,62,1013.8,9.65,3.29,141,3.27,0,7.249999999999998
2020-3-12 16:56,4700,2639.009652777778,206.7936263020785,0.44744315810559987,16.33099042076944,0.009356553819444445,0.49501453993055555,16.9,61,1013.8,9.41,3.35,140,3.31,0,7.489999999999998
2020-3-12 16:57,4700,2770.0650477430554,214.82054578919445,0.44744007313929085,16.901076881730333,0.00952365451388889,0.49849287258306096,16.9,61,1013.8,9.41,3.46,140,3.43,0,7.489999999999998
2020-3-12 16:57,4700,3006.0747569444443,233.14652669270703,0.4521574055887373,17.671036850656243,0.01,0.5037097460511982,16.9,61,1013.8,9.41,3.52,141,3.5,0,7.489999999999998
2020-3-12 16:57,4700,3192.6575303819445,249.09796114823968,0.45605017704706335,18.200123167074167,0.010397135416666667,0.508812819138072,16.9,61,1013.8,9.41,3.44,142,3.42,0,7.489999999999998
2020-3-12 16:57,4700,3103.563411458333,240.01982204740543,0.4541592154224179,17.775754729085772,0.010308159722222222,0.5066278935185186,16.9,60,1013.8,9.17,3.3,141,3.28,0,7.729999999999999
2020-3-12 16:58,4600,2902.433589409722,226.57534613688796,0.452184161694176,16.79349141550146,0.009716797,0.5026652156522331,16.9,60,1013.8,9.17,3.25,141,3.23,0,7.729999999999999
2020-3-12 16:58,4600,2780.3850021701387,216.39655490399457,0.4492190704328983,16.27155764180683,0.009561631944444444,0.5009553079044118,16.9,60,1013.8,9.17,3.28,140,3.25,0,7.729999999999999
2020-3-12 16:58,4600,2705.4342838541666,211.56498263850727,0.4469990751013541,15.903754935847743,0.009436848958333334,0.4997248093681917,16.9,60,1013.8,9.17,3.34,139,3.3,0,7.729999999999999
2020-3-12 16:58,4700,2628.840807291667,205.96109157985646,0.44745223886778945,15.688056182592602,0.009397786458333333,0.4976393058959695,16.9,61,1013.8,9.41,3.42,138,3.37,0,7.489999999999998
2020-3-12 16:59,4700,2700.9225564236112,211.23676214908548,0.4483274580732711,15.851231557355234,0.009588758680555556,0.5005779930895969,16.9,61,1013.8,9.41,3.48,136,3.41,0,7.489999999999998
2020-3-12 16:59,4600,2727.046332465278,211.1068088107533,0.4461616071910401,15.931547852832649,0.009517144097222222,0.5030958180147059,16.9,61,1013.8,9.41,3.48,133,3.36,0,7.489999999999998
2020-3-12 16:59,4600,2701.0305338541666,210.24182725690216,0.44518663885249254,15.59777857317861,0.009442274305555555,0.5049975107230392,16.9,61,1013.8,9.41,3.57,131,3.41,0,7.489999999999998
2020-3-12 16:59,4600,3227.689435763889,233.44349934767627,0.43944771188929327,23.707300378430823,0.009320746527777778,0.41533253336056647,16.9,61,1013.8,9.41,3.64,131,3.48,0,7.489999999999998
2020-3-12 17:00,4600,4839.057391493056,314.43574218105266,0.4126730466299409,37.371168758743096,0.01219943576388889,0.4153562134055011,16.9,61,1013.8,9.41,3.63,130,3.45,0,7.489999999999998
2020-3-12 17:00,4600,5418.182955729167,427.2702137476026,0.44897596879747176,57.69038723699624,0.019042969,0.4494957405705338,16.9,61,1013.8,9.41,3.54,130,3.36,0,7.489999999999998
2020-3-12 17:00,4600,5638.435023871528,461.8148783889158,0.4569288720813635,58.02859060989069,0.022825520833333335,0.4455391135620915,16.9,61,1013.8,9.41,3.42,130,3.25,0,7.489999999999998
2020-3-12 17:00,4600,5590.745974392361,450.00265725238813,0.45283923336579235,58.33368996435226,0.021980251736111112,0.44648308568218953,16.8,61,1013.8,9.32,3.28,129,3.1,0,7.48
2020-3-12 17:01,4600,5710.1730338541665,463.90522026836135,0.45565253527672117,58.337464256521535,0.02195095486111111,0.446947133714597,16.8,61,1013.8,9.32,3.08,129,2.91,0,7.48
2020-3-12 17:01,4600,5736.932994791667,459.0497774238575,0.45372107055724736,58.951719140054706,0.022923177083333333,0.4449226154003268,16.8,61,1013.8,9.32,2.98,131,2.85,0.0020000000000000018,7.48
2020-3-12 17:01,4600,6021.277144097222,496.5727560741094,0.4607016941900099,59.88330007018741,0.028136935763888888,0.4383597962622549,16.8,61,1013.8,9.32,2.81,133,2.71,0.018999999999999993,7.48
2020-3-12 17:01,4600,6042.082486979167,490.2597623069655,0.4580769902622232,60.388404673246065,0.02758572048611111,0.43325668487881264,16.8,62,1013.9,9.56,2.68,135,2.62,0.03199999999999999,7.24
2020-3-12 17:02,4600,6091.296909722222,499.7797047839505,0.4614704654354148,60.66903839222683,0.027108289930555557,0.43228254357298473,16.8,62,1013.9,9.56,2.59,136,2.54,0.041000000000000016,7.24
2020-3-12 17:02,4600,5990.567272135417,485.50020820041226,0.4587743169456338,60.67853793834577,0.025753038194444446,0.42766773046023965,16.8,62,1013.9,9.56,2.53,137,2.49,0.04700000000000002,7.24
2020-3-12 17:02,4600,5963.0181293402775,488.62506922267875,0.46046727722573194,60.615834327066004,0.025980902777777776,0.42375399986383444,16.8,62,1013.9,9.56,2.43,137,2.39,0.05699999999999998,7.24
2020-3-12 17:02,4600,5922.301356336806,478.3270722649422,0.45872949571704713,60.669427342339944,0.024952256944444445,0.41939309300108935,16.7,62,1013.9,9.46,2.38,140,2.35,0.062000000000000006,7.239999999999998
2020-3-12 17:03,4600,5859.4574978298615,480.79713307110313,0.4615850134064482,60.30172829899575,0.026137152777777777,0.41518091299019605,16.7,62,1013.9,9.46,2.49,139,2.45,0.050999999999999976,7.239999999999998
2020-3-12 17:03,4600,5706.435386284722,460.63257046559556,0.4587951200718597,59.739074727282514,0.024635416666666667,0.4149407849945534,16.7,62,1013.9,9.46,2.62,138,2.58,0.037999999999999985,7.239999999999998
2020-3-12 17:03,4600,5814.011427951389,473.8071949786612,0.4623135607169719,59.3684928251728,0.027261284722222223,0.41428902420343133,16.7,62,1013.9,9.46,2.76,137,2.71,0.02400000000000002,7.239999999999998
2020-3-12 17:03,4700,5813.344850260417,469.3938245928434,0.45996392650057294,59.38198446163087,0.028162977430555555,0.41651153577750544,16.7,62,1013.9,9.46,2.89,136,2.83,0.010999999999999987,7.239999999999998
2020-3-12 17:04,4700,5949.243263888889,488.6408721108328,0.4635406746896295,59.608710929705175,0.028628472222222222,0.4164280918096405,16.7,62,1013.9,9.46,2.99,138,2.95,0.0009999999999999788,7.239999999999998
2020-3-12 17:04,4700,5910.93462890625,477.3479857068049,0.4603207525026271,59.692367321984314,0.028822699652777777,0.42018930844907404,16.7,62,1013.9,9.46,3.07,138,3.03,0,7.239999999999998
2020-3-12 17:04,4700,5943.210690104167,487.2069938933007,0.4616545696491377,59.56144113407113,0.02828884548611111,0.4266460163058279,16.7,62,1013.9,9.46,3.22,139,3.18,0,7.239999999999998
2020-3-12 17:04,4700,5942.572521701389,484.3468108756442,0.4601390893103157,59.99343001643968,0.027701822916666667,0.4289740306712963,16.7,62,1013.9,9.46,3.3,138,3.25,0,7.239999999999998
2020-3-12 17:05,4700,6081.309969618055,497.07752929526276,0.4621849531573383,60.80650069434818,0.027871094,0.4263931993804466,16.7,62,1013.9,9.46,3.33,139,3.28,0,7.239999999999998
2020-3-12 17:05,4700,5981.099596354166,483.276415844716,0.4600831293783121,60.86244172529435,0.028046875,0.4253829018586601,16.7,62,1013.9,9.46,3.29,139,3.25,0,7.239999999999998
2020-3-12 17:05,4700,5998.5633333333335,493.93888011602695,0.46339043883336445,60.360532580412205,0.028528645833333335,0.42341433483115465,16.7,62,1013.9,9.46,3.32,139,3.28,0,7.239999999999998
2020-3-12 17:05,4700,5915.9647265625,477.6239732942888,0.4598750749885293,59.93643890967323,0.027630208333333333,0.4230523897058824,16.7,62,1013.9,9.46,3.36,139,3.32,0,7.239999999999998
2020-3-12 17:06,4700,6091.748901909722,503.5327569507914,0.46416417247174646,59.84439644504675,0.02957790798611111,0.4263644556781046,16.7,62,1013.9,9.46,3.44,137,3.38,0,7.239999999999998
2020-3-12 17:06,4700,6116.231662326389,495.33548066677434,0.46151664923341645,60.62273739332892,0.029786241319444445,0.4254574440019063,16.7,62,1013.9,9.46,3.47,137,3.41,0,7.239999999999998
2020-3-12 17:06,4700,6211.631232638889,510.50926623297346,0.46254136508274585,61.18859285040893,0.030628255208333333,0.4278915824142157,16.7,62,1013.9,9.46,3.45,136,3.38,0,7.239999999999998
2020-3-12 17:06,4700,6103.8737890625,497.02581904743226,0.4594704599767513,61.061333632186866,0.02705295138888889,0.4327160905160675,16.7,62,1013.9,9.46,3.49,136,3.42,0,7.239999999999998
2020-3-12 17:07,4700,6100.193315972222,505.755106112991,0.4611454125056961,61.18053316869982,0.028056641,0.4339080073869826,16.7,62,1013.9,9.46,3.49,136,3.41,0,7.239999999999998
2020-3-12 17:07,4700,6096.268047,493.3063334364704,0.4592801342110854,61.42030271288191,0.028021918402777776,0.43237244689542487,16.7,62,1013.9,9.46,3.55,136,3.47,0,7.239999999999998
2020-3-12 17:07,4700,6170.057955729167,507.80005851415945,0.4627146863821694,61.223971251957366,0.03041449652777778,0.42951417824074073,16.7,62,1013.9,9.46,3.52,135,3.42,0,7.239999999999998
2020-3-12 17:07,4700,6052.453129340278,492.0749531192251,0.460100207646047,60.63300379242735,0.02764431423611111,0.4287101673134532,16.7,62,1013.9,9.46,3.42,134,3.32,0,7.239999999999998
2020-3-12 17:08,4700,6061.0725694444445,501.5717240999845,0.4623119378987947,59.44242878596277,0.027646484,0.4299917236860022,16.7,62,1013.9,9.46,3.36,133,3.25,0,7.239999999999998
2020-3-12 17:08,4700,6120.797100694444,499.92670767753987,0.45961859771224556,60.332618725400295,0.02617838541666667,0.4303053640727124,16.7,62,1013.9,9.46,3.38,132,3.25,0,7.239999999999998
2020-3-12 17:08,4700,6459.958213975695,531.9553079191801,0.46345446279363217,62.068224444905354,0.031440972222222224,0.42633280994689543,16.7,62,1013.9,9.46,3.45,131,3.3,0,7.239999999999998
2020-3-12 17:08,4700,6539.323213975695,531.655325502141,0.461584161679089,62.85325054367241,0.033012152777777776,0.42596340124591503,16.6,62,1013.9,9.37,3.52,130,3.35,0,7.230000000000002
2020-3-12 17:09,4700,6838.861182725695,566.4513644470212,0.4669922549930994,63.421075404385114,0.03798285590277778,0.4239932683142702,16.6,62,1013.9,9.37,3.6,129,3.4,0,7.230000000000002
2020-3-12 17:09,4700,6733.486293402778,554.4356336673268,0.46532314674646724,63.92035796523304,0.03789822048611111,0.424925270629085,16.6,62,1013.9,9.37,3.62,129,3.43,0,7.230000000000002
2020-3-12 17:09,4700,6679.573289930556,549.5877397947415,0.4657783725492314,63.76614813757534,0.03895833333333333,0.42302078652641617,16.6,62,1013.9,9.37,3.65,129,3.45,0,7.230000000000002
2020-3-12 17:09,4700,6486.092842881944,528.6624911735626,0.4634991270058897,63.71970112821699,0.03526909722222222,0.4203811274509804,16.6,62,1013.9,9.37,3.71,129,3.5,0,7.230000000000002
2020-3-12 17:10,4700,6199.3914973958335,509.98978818455316,0.46560471074277165,62.090087335121154,0.03389105902777778,0.41926476970996734,16.6,62,1013.9,9.37,3.69,131,3.53,0,7.230000000000002
2020-3-12 17:10,4700,5928.875503472223,482.07761208992923,0.46255394583050036,60.74289659589117,0.030875651041666667,0.418929759837963,16.6,62,1013.9,9.37,3.63,131,3.47,0,7.230000000000002
2020-3-12 17:10,4700,5761.6470768229165,475.6398567674002,0.4639279062628859,59.26493955009096,0.02810763888888889,0.41722869008714597,16.6,62,1013.9,9.37,3.51,130,3.34,0,7.230000000000002
2020-3-12 17:10,4700,5704.9392578125,462.07568652196693,0.45993708267475447,58.88643794049811,0.02628363715277778,0.417437265965414,16.5,62,1013.9,9.27,3.34,130,3.18,0,7.23
2020-3-12 17:11,4700,5975.895299479167,489.8061489229732,0.46410542883519096,59.3259636569485,0.030270182291666666,0.41506084473720045,16.5,62,1013.9,9.27,3.23,130,3.07,0,7.23
2020-3-12 17:11,4700,5821.958198784722,470.28121503510187,0.45759939888664364,59.76669912935745,0.02352105034722222,0.42162188946759255,16.5,62,1013.9,9.27,3.08,130,2.93,0,7.23
2020-3-12 17:11,4700,6184.655557725694,511.5025422325123,0.46314039460040707,60.69286802909165,0.028985460069444444,0.42027480766612196,16.5,62,1013.9,9.27,2.95,130,2.8,0.004999999999999982,7.23
2020-3-12 17:11,4700,6114.426310763889,490.7580379623416,0.45704876064529076,61.34226061525585,0.025316840277777777,0.42207419747412855,16.5,62,1013.9,9.27,2.81,129,2.65,0.018999999999999993,7.23
2020-3-12 17:12,4700,6235.001488715277,514.8129089421861,0.46327808824274835,61.699182157484344,0.028007813,0.4203485072848584,16.5,62,1013.9,9.27,2.75,129,2.6,0.024999999999999998,7.23
2020-3-12 17:12,4700,6049.5952777777775,486.56272781364515,0.45678064299287074,61.97635936360303,0.023261719,0.42249839154411767,16.5,62,1013.9,9.27,2.75,129,2.6,0.024999999999999998,7.23
2020-3-12 17:12,4700,6262.9154253472225,513.2353090554685,0.462791101975733,62.057500264870946,0.029561631944444444,0.418732596337146,16.5,62,1013.9,9.27,2.75,130,2.61,0.024999999999999998,7.23
2020-3-12 17:12,4700,5981.534526909722,483.0601898485809,0.4587645464200744,61.13406753997588,0.023896484,0.4199914853962418,16.5,63,1013.9,9.51,2.69,131,2.57,0.031000000000000003,6.99
2020-3-12 17:13,4700,6077.1938693576385,498.6943130780432,0.46336876641766256,60.35966634297008,0.02828884548611111,0.4196077239923747,16.5,63,1013.9,9.51,2.62,132,2.52,0.037999999999999985,6.99
2020-3-12 17:13,4700,5926.911037326389,472.4540590321282,0.45609449061324236,60.02741190986766,0.024615885416666667,0.4232059887322984,16.5,63,1013.9,9.51,2.56,133,2.48,0.04399999999999999,6.99
2020-3-12 17:13,4700,6154.181846788195,506.5235314925853,0.461939443951837,60.3963059990743,0.027981770833333332,0.42097457533360566,16.5,63,1013.9,9.51,2.61,134,2.53,0.03900000000000001,6.99
2020-3-12 17:13,4700,5940.087452256945,478.7136196051658,0.4557221135742559,60.56943807087408,0.022014973958333333,0.4216701601647604,16.5,63,1013.9,9.51,2.63,136,2.57,0.037000000000000005,6.99
2020-3-12 17:14,4700,6108.930690104166,503.2163273255903,0.4611863663709936,60.51007456526644,0.02421657986111111,0.4184449082584422,16.5,63,1013.9,9.51,2.57,135,2.51,0.04300000000000002,6.99
2020-3-12 17:14,4700,5927.717118055555,472.1234652991778,0.4550764475058284,60.40330012816791,0.020091145833333334,0.41848109426062097,16.5,63,1013.9,9.51,2.48,137,2.43,0.052,6.99
2020-3-12 17:14,4700,6018.642100694445,496.4164441556002,0.4623943124691019,60.213012309770306,0.024040798611111112,0.41389859494144876,16.5,63,1013.9,9.51,2.46,139,2.43,0.054000000000000006,6.99
2020-3-12 17:14,4700,5941.599958767361,472.74432146893616,0.4566915192286757,60.051533361200164,0.022816840277777778,0.41570939287173203,16.5,63,1013.9,9.51,2.6,140,2.58,0.03999999999999999,6.99
2020-3-12 17:15,4700,6092.629639756944,501.9410425680357,0.46428650009821953,59.71818119779205,0.02750217013888889,0.4130843290441176,16.5,63,1013.9,9.51,2.74,141,2.72,0.025999999999999978,6.99
2020-3-12 17:15,4700,5920.185,474.969373702267,0.4586767669188884,59.48202151519149,0.023025173611111113,0.4164067053036492,16.5,63,1013.9,9.51,2.88,143,2.87,0.01200000000000001,6.99
2020-3-12 17:15,4700,6264.8810546875,517.5802470133041,0.4661614123299114,60.12373185723138,0.03170247395833333,0.41151574840005445,16.5,63,1013.9,9.51,2.95,144,2.95,0.004999999999999982,6.99
2020-3-12 17:15,4700,6271.565203993056,505.2639798953968,0.4607543386408312,60.90533224934396,0.02822048611111111,0.4141461226851852,16.4,63,1013.9,9.41,3.05,146,3.04,0,6.989999999999998
2020-3-12 17:16,4700,6355.919184027778,520.1005149362246,0.4649872836746575,61.1385887044814,0.030838758680555557,0.4120198929398148,16.4,63,1013.9,9.41,3.15,148,3.15,0,6.989999999999998
2020-3-12 17:16,4700,6163.5927560763885,494.0814539122358,0.4598921584266841,61.53535098233672,0.027473958333333333,0.4133794764433551,16.4,63,1013.9,9.41,3.24,149,3.24,0,6.989999999999998
2020-3-12 17:16,4700,6305.602335069444,520.7879295884827,0.46635245925749413,61.67436881347898,0.03219835069444445,0.411454669628268,16.4,63,1013.9,9.41,3.27,149,3.27,0,6.989999999999998
2020-3-12 17:16,4700,6190.723519965278,498.1608636771305,0.4613455005425189,61.34935364899083,0.029925130208333334,0.4158458478009259,16.4,63,1013.9,9.41,3.2,149,3.2,0,6.989999999999998
2020-3-12 17:17,4700,6381.925295138889,525.9625661811252,0.46811671484244843,61.025124459468195,0.03710828993055556,0.4171764408020152,16.4,63,1013.9,9.41,3.06,150,3.06,0,6.989999999999998
2020-3-12 17:17,4700,6513.903975694445,533.4463855595047,0.46843665044855815,60.725615918997995,0.04178927951388889,0.4208164828431373,16.4,63,1013.9,9.41,3,150,3,0,6.989999999999998
2020-3-12 17:17,4700,6900.53044921875,575.3253342007109,0.4728222047450355,61.2904350948492,0.050801866319444444,0.42228211805555554,16.4,63,1013.9,9.41,2.96,150,2.95,0.0040000000000000036,6.989999999999998
2020-3-12 17:17,4600,6803.615043402778,554.7806139552317,0.4680223042030877,61.04512004273612,0.04693684895833333,0.4237340516067538,16.4,63,1014,9.41,2.89,150,2.89,0.010999999999999987,6.989999999999998
2020-3-12 17:18,4600,7021.313344184028,585.0562564403203,0.47171692277951177,60.960512914301646,0.050494791666666664,0.4214779794730392,16.4,63,1014,9.41,2.87,150,2.87,0.012999999999999989,6.989999999999998
2020-3-12 17:18,4600,6851.7151475694445,559.2817989980438,0.46625303314103383,61.23411081036354,0.04366753472222222,0.41957412939133987,16.4,63,1014,9.41,2.86,149,2.86,0.014000000000000012,6.989999999999998
2020-3-12 17:18,4600,7065.112276475695,587.2494899712034,0.4701797149562459,61.656049989750116,0.04611436631944445,0.4132833392905773,16.4,63,1014,9.41,2.84,147,2.84,0.016000000000000014,6.989999999999998
2020-3-12 17:18,4600,6762.9201041666665,542.5070420927775,0.46058332920183975,62.434274786598216,0.03769314236111111,0.4177636676198257,16.4,63,1014,9.41,2.81,148,2.81,0.018999999999999993,6.989999999999998
2020-3-12 17:19,4600,6981.050692274305,580.0002426174539,0.46920242247225186,62.67201922911217,0.04437174479166667,0.41760791547521786,16.4,63,1014,9.41,2.94,147,2.94,0.006000000000000005,6.989999999999998
2020-3-12 17:19,4600,6763.069869791667,550.9320258153269,0.46420894428865467,63.252227375321276,0.03891710069444444,0.41921650752314815,16.4,63,1014,9.41,3,147,3,0,6.989999999999998
2020-3-12 17:19,4600,6882.007393663194,573.7695648617108,0.46991109674254805,63.187331715944346,0.045123697916666664,0.4153975396582244,16.4,63,1014,9.41,3.03,146,3.03,0,6.989999999999998
2020-3-12 17:19,4600,6617.054878472222,538.2062042693666,0.4637987336483394,63.2841821299849,0.037092013888888886,0.4166819001906318,16.4,63,1014,9.41,3.07,146,3.07,0,6.989999999999998
2020-3-12 17:20,4600,6716.102256944445,553.6075951503751,0.468709392866503,63.076286096289984,0.04505750868055555,0.4138580558959695,16.4,63,1014,9.41,3.07,146,3.07,0,6.989999999999998
2020-3-12 17:20,4600,6593.420334201389,538.9146864140724,0.4670533481016676,63.55579016526023,0.04387369791666667,0.4138165977328431,16.4,63,1014,9.41,3.07,147,3.07,0,6.989999999999998
2020-3-12 17:20,4600,6686.433624131944,555.2750455138407,0.46935998632838277,63.55378689953892,0.04659396701388889,0.4139139220792484,16.4,63,1014,9.41,3.14,148,3.14,0,6.989999999999998
2020-3-12 17:20,4600,6470.407834201389,530.6621874954741,0.4674644860986591,63.465003878380706,0.043540581597222225,0.41325414028458607,16.4,64,1014,9.65,3.27,147,3.27,0,6.749999999999998
2020-3-12 17:21,4600,6469.723962673611,531.8231757775189,0.4686032461259121,63.03495551543572,0.043094618055555554,0.410936231958061,16.4,64,1014,9.65,3.22,146,3.22,0,6.749999999999998
2020-3-12 17:21,4600,6276.027907986111,509.6785034497567,0.46469894626844177,62.89945067499463,0.039217664930555556,0.4108749659586057,16.4,64,1014,9.65,3.15,146,3.15,0,6.749999999999998
2020-3-12 17:21,4600,6439.386056857639,528.1920310817716,0.46768046363787874,62.72401764819105,0.040927734,0.411185036254085,16.4,64,1014,9.65,3.25,146,3.25,0,6.749999999999998
2020-3-12 17:21,4600,6511.6092708333335,533.1592881935215,0.46570896114601706,63.16871735618104,0.03920789930555556,0.4139279981958061,16.4,64,1014,9.65,3.32,146,3.32,0,6.749999999999998
2020-3-12 17:22,4600,6737.7040234375,560.5047037053697,0.4701959084872811,63.22859649871779,0.04383246527777778,0.41335083912037035,16.4,64,1014,9.65,3.36,147,3.36,0,6.749999999999998
2020-3-12 17:22,4600,6657.7186458333335,546.3704241582977,0.46820212860226074,62.76106425123765,0.043551432291666664,0.4126130301947168,16.4,64,1014,9.65,3.4,147,3.4,0,6.749999999999998
2020-3-12 17:22,4600,6678.88876953125,553.3101790364478,0.471108810218295,62.22949732056109,0.046610243055555556,0.4100779675585512,16.4,64,1014,9.65,3.39,146,3.39,0,6.749999999999998
2020-3-12 17:22,4600,6533.515855034722,534.1028992546175,0.46824427000911173,61.85494882895308,0.044521484,0.4099475507216776,16.3,64,1014,9.55,3.4,147,3.4,0,6.75
2020-3-12 17:23,4500,6523.5043337673615,541.7215950481227,0.4710404091739814,61.82569686165098,0.04564561631944444,0.40905839801198257,16.3,64,1014,9.55,3.54,148,3.54,0,6.75
2020-3-12 17:23,4600,6355.074618055555,518.9727202243274,0.46741444521380976,61.740436198302575,0.04203884548611111,0.40999989362064265,16.3,64,1014,9.55,3.63,148,3.63,0,6.75
2020-3-12 17:23,4500,6375.734600694444,519.0698556419081,0.4673057106014388,61.69004829597411,0.041943359,0.4089225260416667,16.3,64,1014,9.55,3.57,148,3.57,0,6.75
2020-3-12 17:23,4600,6357.675959201389,518.3835598582693,0.4674434367543519,61.59923271640173,0.042421875,0.40715829248366014,16.3,64,1014,9.55,3.57,148,3.57,0,6.75
2020-3-12 17:24,4600,6524.178556857639,539.1331651459576,0.47119139476532307,61.313025119152705,0.04398220486111111,0.40599914470996734,16.3,64,1014,9.55,3.56,147,3.56,0,6.75
2020-3-12 17:24,4600,6356.380989583334,521.1525661859287,0.46874497774811813,61.11855222018595,0.042675781,0.4055868353417756,16.3,64,1014,9.55,3.58,148,3.58,0,6.75
2020-3-12 17:24,4600,6535.772344,542.6051627451154,0.4733378121975365,60.923329045227135,0.04943142361111111,0.4033968120234205,16.3,64,1014,9.55,3.64,149,3.64,0,6.75
2020-3-12 17:24,4600,6466.580716145833,529.0123076132305,0.4705187322333378,60.67293255795362,0.046680772569444445,0.40462137459150327,16.3,64,1014.1,9.55,3.66,148,3.66,0,6.75
2020-3-12 17:25,4600,6595.4305859375,550.8632452514919,0.47588612067216807,60.20002610004976,0.05408854166666666,0.40180686189406317,16.3,64,1014.1,9.55,3.62,147,3.62,0,6.75
2020-3-12 17:25,4600,6400.9502170138885,521.3407269405742,0.4700848163859473,59.98256499828369,0.04833658854166667,0.4044366617306645,16.3,64,1014.1,9.55,3.6,147,3.6,0,6.75
2020-3-12 17:25,4600,6633.53173828125,553.477428385398,0.47541319658200376,60.09285735410065,0.05364691840277778,0.40243771701388886,16.3,64,1014.1,9.55,3.65,148,3.65,0,6.75
2020-3-12 17:25,4600,6374.392005208333,512.9753320011091,0.46582343674286664,60.15174476562047,0.04307074652777778,0.4070007318899782,16.3,64,1014.1,9.55,3.59,148,3.59,0,6.75
2020-3-12 17:26,4600,6757.410744357639,563.1078425047654,0.47403333429359945,61.099659363408435,0.051534288194444444,0.40627563316993465,16.3,64,1014.1,9.55,3.59,149,3.59,0,6.75
2020-3-12 17:26,4600,6614.816892361111,540.1811447362539,0.46713292516944144,61.91418621046467,0.04248697916666667,0.4094961831086601,16.3,64,1014.1,9.55,3.63,149,3.63,0,6.75
2020-3-12 17:26,4600,6894.5875,569.8118044470787,0.46986720109564073,62.93370994494456,0.047766927083333334,0.40897204350490196,16.3,64,1014.1,9.55,3.57,149,3.57,0,6.75
2020-3-12 17:26,4600,6684.9560373263885,540.2078524408685,0.4634686131414578,63.38382430212028,0.03770724826388889,0.4116998102192266,16.2,64,1014.1,9.46,3.47,149,3.47,0,6.739999999999998
2020-3-12 17:27,4600,6755.249661458333,561.6925922296207,0.4696826170064216,63.43596241015354,0.042571614583333334,0.4067517446214597,16.2,64,1014.1,9.46,3.41,149,3.41,0,6.739999999999998
2020-3-12 17:27,4600,6544.488081597222,532.5901722375548,0.4663779832537297,63.312247262402494,0.04091688368055556,0.40613024662990194,16.2,64,1014.1,9.46,3.33,151,3.32,0,6.739999999999998
2020-3-12 17:27,4600,6489.256458333333,534.8257800296254,0.4696537228102418,62.41517220948541,0.042775607638888886,0.4036109834558823,16.2,64,1014.1,9.46,3.24,152,3.23,0,6.739999999999998
2020-3-12 17:27,4600,6336.445638020833,518.8998262328911,0.469175561673744,61.77382406016633,0.043538411458333336,0.4017954622821351,16.2,64,1014.1,9.46,3.26,152,3.25,0,6.739999999999998
2020-3-12 17:28,4600,6492.611690538194,540.8273339746252,0.4733858448595796,61.66364306232231,0.04468967013888889,0.3994328618600218,16.2,64,1014.1,9.46,3.32,153,3.31,0,6.739999999999998
2020-3-12 17:28,4600,6344.946219618056,512.3179283139441,0.4654513071053061,61.933853681088564,0.03867730034722222,0.402325865502451,16.2,64,1014.1,9.46,3.29,153,3.27,0,6.739999999999998
2020-3-12 17:28,4600,6583.207326388889,550.817845706204,0.47164498305080743,62.13051073189047,0.04207248263888889,0.4009466996868192,16.2,64,1014.1,9.46,3.26,153,3.25,0,6.739999999999998
2020-3-12 17:28,4600,6467.6757204861115,528.7181075300808,0.4652406675103698,62.726461376642476,0.03651258680555555,0.4033028067129629,16.2,64,1014.1,9.46,3.38,154,3.36,0,6.739999999999998
2020-3-12 17:29,4600,6616.1150499131945,548.5720854030847,0.4674230302984151,63.39503431316823,0.03780707465277778,0.4034594737200436,16.2,64,1014.1,9.46,3.36,154,3.34,0,6.739999999999998
2020-3-12 17:29,4600,6597.560540364583,534.0791666357674,0.46242667571572066,64.70450493382295,0.03300021701388889,0.4067323708129085,16.2,64,1014.1,9.46,3.38,153,3.37,0,6.739999999999998
2020-3-12 17:29,4600,6764.0082790798615,555.7300507954906,0.4648947911390276,65.69033731645426,0.034128689236111114,0.40526369740604573,16.2,64,1014.1,9.46,3.3,151,3.29,0,6.739999999999998
2020-3-12 17:29,4600,6659.312990451389,538.7816373112418,0.4615607349818954,65.55055824727954,0.031510416666666666,0.403792721949891,16.2,64,1014.1,9.46,3.26,151,3.26,0,6.739999999999998
2020-3-12 17:30,4600,6708.695086805556,552.0853027159789,0.46647857590879527,65.27272484261793,0.03299153645833333,0.4008971737132353,16.2,64,1014.1,9.46,3.17,152,3.16,0,6.739999999999998
2020-3-12 17:30,4600,6527.9681597222225,527.1896212280827,0.4629267282934572,64.98599175407853,0.03174587673611111,0.4004334320533769,16.2,64,1014.1,9.46,3.15,152,3.14,0,6.739999999999998
2020-3-12 17:30,4600,6589.620598958333,541.2859905603091,0.4671853887704672,64.16108444683077,0.03512586805555556,0.3965117400258715,16.2,64,1014.1,9.46,3.13,150,3.13,0,6.739999999999998
2020-3-12 17:30,4600,6464.332063802083,524.2945104733677,0.46516326328670415,63.59430558372652,0.033505859,0.39792484511165577,16.2,64,1014.1,9.46,3.07,150,3.07,0,6.739999999999998
2020-3-12 17:31,4700,6612.004657118056,545.0742552297331,0.4686397018260321,63.29421897025164,0.038034939236111114,0.39703796892020693,16.2,64,1014.1,9.46,3.2,151,3.2,0,6.739999999999998
2020-3-12 17:31,4700,6499.0943424479165,525.9284156688361,0.46614768048902044,62.944311411627204,0.03676540798611111,0.3982986281318083,16.2,64,1014.1,9.46,3.29,150,3.29,0,6.739999999999998
2020-3-12 17:31,4700,6589.032144097222,542.723748827182,0.46897869604819487,62.94414805339011,0.039471571180555554,0.39856122344771244,16.2,64,1014.1,9.46,3.49,150,3.48,0,6.739999999999998
2020-3-12 17:31,4700,6495.955607638889,527.4929101560803,0.46482011128677564,63.06261667376847,0.03456380208333333,0.3971143833401416,16.1,64,1014.1,9.36,3.56,149,3.56,0,6.740000000000002
2020-3-12 17:32,4700,6567.423096788194,540.2647373852718,0.4668856097309367,63.37684545663045,0.034549696180555554,0.3956206086601307,16.1,64,1014.1,9.36,3.6,150,3.6,0,6.740000000000002
2020-3-12 17:32,4700,6501.424529079861,525.5596819456582,0.46305551680411366,64.11422782511329,0.03164279513888889,0.39377672674972763,16.1,64,1014.1,9.36,3.66,149,3.65,0,6.740000000000002
2020-3-12 17:32,4700,6563.133470052083,536.733540576312,0.4642342268125884,64.38484255592266,0.03107855902777778,0.3942587528935185,16.1,64,1014.1,9.36,3.72,150,3.71,0,6.740000000000002
2020-3-12 17:32,4700,6461.078611111111,520.6760977570524,0.46080871562705833,64.5624185545334,0.027120225694444444,0.39373333248229847,16.1,64,1014.1,9.36,3.78,150,3.78,0,6.740000000000002
2020-3-12 17:33,4700,6505.097864583333,533.018033613624,0.46417089544765994,64.5683901037074,0.028105469,0.39097152437363836,16.1,64,1014.1,9.36,3.75,149,3.74,0,6.740000000000002
2020-3-12 17:33,4700,6383.620394965278,506.308130394066,0.4577299858754795,65.03969463863709,0.025608723958333333,0.39467449618736383,16.1,64,1014.1,9.36,3.71,150,3.71,0,6.740000000000002
2020-3-12 17:33,4700,6553.769861111111,534.8931520898503,0.46364174776388967,64.97743346267994,0.029274088541666667,0.391262782543573,16.1,64,1014.1,9.36,3.59,151,3.58,0,6.740000000000002
2020-3-12 17:33,4600,6395.971019965278,509.6662237623429,0.45777693572827055,65.04750432977858,0.025028211805555554,0.3967015335648148,16.1,64,1014.1,9.36,3.49,151,3.49,0,6.740000000000002
2020-3-12 17:34,4600,6656.354166666667,545.110916660892,0.4650777070534726,65.04377371055007,0.029881727430555557,0.393733209082244,16.1,64,1014.1,9.36,3.42,150,3.41,0,6.740000000000002
2020-3-12 17:34,4600,6387.056117621528,500.83913067937647,0.45671574509203283,64.80812285927541,0.02493706597222222,0.39884080541939,16.1,64,1014.1,9.36,3.37,150,3.37,0,6.740000000000002
2020-3-12 17:34,4600,6602.880781,542.8716383417155,0.46586053325682597,64.67494516525824,0.031640625,0.3952178181168301,16.1,64,1014.1,9.36,3.36,151,3.36,0,6.740000000000002
2020-3-12 17:34,4600,6471.423980034722,519.7782940490679,0.4610020731850098,64.59766536046469,0.02859917534722222,0.3978102830541939,16.1,64,1014.1,9.36,3.27,151,3.27,0,6.740000000000002
2020-3-12 17:35,4600,6611.718459201389,538.4680216061333,0.4647312494222047,64.46304306949213,0.032281901041666665,0.39631092558551195,16.1,64,1014.1,9.36,3.19,153,3.18,0,6.740000000000002
2020-3-12 17:35,4600,6474.980980902777,518.2102450484477,0.4610528712944127,64.06987841282961,0.030086805555555554,0.3973714767156863,16.1,64,1014.1,9.36,3.12,153,3.11,0,6.740000000000002
2020-3-12 17:35,4600,6628.915868055556,544.0949021320857,0.46620925541763814,64.10635844623269,0.03435004340277778,0.3937648548134532,16.1,64,1014.1,9.36,3.12,155,3.1,0,6.740000000000002
2020-3-12 17:35,4600,6541.331449652777,527.6605533118304,0.46330972128059766,64.0898840730628,0.03216145833333333,0.3938375970179739,16.1,64,1014.1,9.36,3.16,154,3.15,0,6.740000000000002
2020-3-12 17:36,4600,6666.182612847222,545.8404425104163,0.4653463615250679,64.20117834382765,0.03288953993055556,0.3927479319852941,16.1,64,1014.1,9.36,3.31,155,3.29,0,6.740000000000002
2020-3-12 17:36,4600,6539.331111111111,524.0134894949408,0.4613857303735633,64.6014836153783,0.030294053819444444,0.3941696623093682,16.1,64,1014.1,9.36,3.42,155,3.4,0,6.740000000000002
2020-3-12 17:36,4600,6652.501506076389,543.3330276352199,0.46415549849693133,65.03412429892892,0.030125868055555557,0.39485260501770153,16.1,64,1014.1,9.36,3.5,155,3.48,0,6.740000000000002
2020-3-12 17:36,4600,6579.119639756945,531.5701494088584,0.4615994319754257,65.60098442567273,0.028031684027777778,0.39531691261574076,16.1,65,1014.1,9.59,3.6,156,3.56,0,6.510000000000002
2020-3-12 17:37,4600,6563.031430121528,532.3150649996111,0.4628409797011275,65.74424494046738,0.028346354166666667,0.393012914453976,16.1,65,1014.1,9.59,3.68,156,3.64,0,6.510000000000002
2020-3-12 17:37,4600,6453.215143229167,512.5779675822492,0.4586501440090045,65.89328607024515,0.02707790798611111,0.39429548355800653,16.1,65,1014.1,9.59,3.74,156,3.7,0,6.510000000000002
2020-3-12 17:37,4600,6625.21193359375,541.7672045049553,0.46371633341962293,65.91334053830685,0.028167317708333334,0.3935625042551743,16.1,65,1014.1,9.59,3.77,155,3.74,0,6.510000000000002
2020-3-12 17:37,4600,6468.994937065972,511.1531984464668,0.457494961129503,65.57149525107837,0.026411675347222222,0.39582581869553374,16,65,1014.1,9.49,3.77,155,3.74,0,6.51
2020-3-12 17:38,4600,6656.475245225694,542.7481531346452,0.4648604600501907,64.74243933694763,0.03088650173611111,0.3933979694308279,16,65,1014.1,9.49,3.7,154,3.68,0,6.51
2020-3-12 17:38,4600,6602.714982638889,534.4286934943303,0.4630199217734585,64.52447736845863,0.03130967881944444,0.3948106575095316,16,65,1014.1,9.49,3.68,155,3.65,0,6.51
2020-3-12 17:38,4600,6739.726397569444,551.2816578951188,0.4662852662514531,64.27967935594519,0.03539605034722222,0.3914425508918845,16,65,1014.1,9.49,3.68,155,3.66,0,6.51
2020-3-12 17:38,4600,6634.392664930556,535.9297504264924,0.4649760115442112,63.481820672258465,0.035210503472222224,0.39209126923338783,16,65,1014.1,9.49,3.72,154,3.7,0,6.51
2020-3-12 17:39,4600,6758.350713975695,559.0667999520468,0.46967497711123185,62.99350234812487,0.03958116319444444,0.3940333818423203,16,65,1014.1,9.49,3.72,153,3.7,0,6.51
2020-3-12 17:39,4600,6686.609127604167,541.3308732477532,0.4672786263818715,62.435327071849656,0.04036349826388889,0.3957127246732026,16,65,1014.1,9.49,3.75,153,3.74,0,6.51
2020-3-12 17:39,4600,6779.551267361111,555.4996353321031,0.46928485284565424,61.9999915676886,0.04370334201388889,0.39647900497004357,16,65,1014.1,9.49,3.8,154,3.78,0,6.51
2020-3-12 17:39,4600,6791.262087673611,557.0224196649997,0.4696755006436778,62.310708733545994,0.044661458333333334,0.3975832014229303,16,65,1014.1,9.49,3.79,155,3.76,0,6.51
2020-3-12 17:40,4600,6925.197378472222,571.424102592128,0.47066439628794554,62.655852916793506,0.04719292534722222,0.40045760569852945,16,65,1014.1,9.49,3.79,156,3.75,0,6.51
2020-3-12 17:40,4600,6807.288342013889,552.601400753981,0.4660831281967678,63.36208698206837,0.041107855902777775,0.40458607792075163,16,65,1014.1,9.49,3.65,155,3.63,0,6.51
2020-3-12 17:40,4600,7017.01896484375,579.5135024996113,0.46991039717722205,63.6358964699634,0.04667426215277778,0.4046263488902505,16,65,1014.1,9.49,3.61,154,3.6,0,6.51
2020-3-12 17:40,4600,6884.687335069444,556.5157906735725,0.46509431365280257,64.24723168236126,0.04269314236111111,0.40852039930555556,16,65,1014.1,9.49,3.51,154,3.5,0,6.51
2020-3-12 17:41,4600,7064.000588107639,578.8610750035591,0.4681798491550523,64.49564800204138,0.044727647569444445,0.40873100915713506,16,65,1014.1,9.49,3.52,154,3.5,0,6.51
2020-3-12 17:41,4600,6969.4843142361115,564.8557779194291,0.46503881184892987,64.93861760379947,0.04198893229166667,0.41102242051334426,16,65,1014.1,9.49,3.54,154,3.52,0,6.51
2020-3-12 17:41,4600,7080.903081597222,578.305985214403,0.46739104615809396,64.82491827339648,0.043730469,0.4110218418096405,16,65,1014.1,9.49,3.52,153,3.51,0,6.51
2020-3-12 17:41,4600,7016.816571180556,567.6417183289657,0.4658665949053845,64.60708788250943,0.043212891,0.41164890131399784,16,65,1014.1,9.49,3.58,152,3.57,0,6.51
2020-3-12 17:42,4600,7148.23404296875,592.2368684778098,0.47065490444844316,64.27577633064155,0.047271050347222225,0.41033545241013075,16,65,1014.1,9.49,3.66,152,3.65,0,6.51
2020-3-12 17:42,4600,7012.379971788195,563.1220214770267,0.465304381669417,63.81303651226194,0.04412326388888889,0.4125763931440632,16,65,1014.1,9.49,3.8,152,3.79,0,6.51
2020-3-12 17:42,4600,7210.512013888889,597.2302177123919,0.4721736684807659,63.324354770543195,0.053876953,0.4085167313453159,16,65,1014.1,9.49,3.81,151,3.8,0,6.51
2020-3-12 17:42,4600,6958.6753515625,560.1080902553558,0.46518373522626155,62.96985809248961,0.044842664930555554,0.4143313376565904,15.9,65,1014,9.4,3.81,151,3.81,0,6.5
2020-3-12 17:43,4600,7252.460896267361,607.9151518879456,0.47522669488730335,62.620301316572174,0.05859375,0.4105710443899782,15.9,65,1014,9.4,3.81,150,3.81,0,6.5
2020-3-12 17:43,4600,7156.728602430556,585.1535134511689,0.4705497280734501,62.7584386772784,0.055336371527777775,0.41577351409313723,15.9,65,1014,9.4,3.82,149,3.82,0,6.5
2020-3-12 17:43,4500,7186.543079427083,597.3521700629295,0.47362709316267776,62.35760021258268,0.05680881076388889,0.4096389995234205,15.9,65,1014,9.4,3.84,149,3.84,0,6.5
2020-3-12 17:43,4500,6996.490581597222,562.1210090349927,0.4660336278787707,62.94160297730981,0.046966145833333334,0.41456434674564274,15.9,66,1014.1,9.62,3.82,149,3.81,0,6.280000000000001
2020-3-12 17:44,4500,7360.498511284723,609.2744756322213,0.4725000154652544,63.31859725743625,0.05712022569444444,0.4135824993191721,15.9,66,1014.1,9.62,3.78,148,3.78,0,6.280000000000001
2020-3-12 17:44,4500,7260.118205295139,597.4411957410833,0.47125396166530825,63.057178557816115,0.05629665798611111,0.4139756221064815,15.9,66,1014.1,9.62,3.7,148,3.7,0,6.280000000000001
2020-3-12 17:44,4500,7356.589409722223,616.6114572304512,0.47497645778471376,62.84220217116527,0.06005208333333333,0.4123719022331155,15.9,66,1014.1,9.62,3.66,149,3.66,0,6.280000000000001
2020-3-12 17:44,4500,7262.05841796875,601.4658854163654,0.4721321397466603,62.688029864290286,0.056163194444444446,0.4147599741285403,15.9,66,1014.1,9.62,3.7,148,3.7,0,6.280000000000001
2020-3-12 17:45,4500,7286.289722222222,602.3781444181045,0.4731599123109709,62.39412235412786,0.06078776041666667,0.41421474162581695,15.9,66,1014.1,9.62,3.65,148,3.65,0,6.280000000000001
2020-3-12 17:45,4500,7202.222278645833,596.3178558973332,0.47341297416959005,62.269107316846274,0.06113715277777778,0.41507361451525054,15.9,66,1014.1,9.62,3.59,148,3.59,0,6.280000000000001
2020-3-12 17:45,4500,7269.20529296875,602.5818575954863,0.4743404338551819,62.15629972799566,0.06029079861111111,0.41337317453022876,15.9,66,1014.1,9.62,3.57,147,3.57,0,6.280000000000001
2020-3-12 17:45,4500,7133.239688,590.3089429914638,0.47186449001569136,62.621226256402245,0.05799913194444444,0.41422913688044666,15.9,66,1014.1,9.62,3.57,147,3.57,0,6.280000000000001
2020-3-12 17:46,4500,7186.640496961805,603.4376897643184,0.4752676188026386,63.09728132342626,0.058714192708333335,0.4120369519335512,15.9,66,1014.1,9.62,3.59,148,3.59,0,6.280000000000001
2020-3-12 17:46,4400,6976.085894097222,566.732629990637,0.46878558394719283,63.74198710252213,0.04960394965277778,0.4136103239038671,15.9,66,1014.1,9.62,3.64,149,3.64,0,6.280000000000001
2020-3-12 17:46,4400,7130.697497829861,588.9422656136925,0.4711262046598584,64.33373253791355,0.05180338541666667,0.4117444555078976,15.9,66,1014.1,9.62,3.64,148,3.64,0,6.280000000000001
2020-3-12 17:46,4400,6776.169275173611,540.4816438712969,0.46153846665188847,64.89059362205946,0.038736979166666664,0.41430286203022876,15.8,67,1014,9.75,3.56,149,3.56,0,6.050000000000001
2020-3-12 17:47,4400,6976.364555121528,574.2518377514831,0.46788678478960977,65.60411661877532,0.04453125,0.4101809980936819,15.8,67,1014,9.75,3.59,149,3.59,0,6.050000000000001
2020-3-12 17:47,4400,6589.519297,518.9795540348467,0.45726894047839245,66.07355497632166,0.03406684027777778,0.4121447014569717,15.8,67,1014,9.75,3.65,149,3.65,0,6.050000000000001
2020-3-12 17:47,4400,6822.053433159722,558.2400097208553,0.4647502767633015,66.23402346416397,0.03891167534722222,0.40844109136710244,15.8,67,1014,9.75,3.69,149,3.68,0,6.050000000000001
2020-3-12 17:47,4400,6709.1489431423615,538.7293943274981,0.46180022598336545,66.37752063303417,0.035626085069444445,0.40665804568355124,15.8,67,1014,9.75,3.79,148,3.79,0,6.050000000000001
2020-3-12 17:48,4400,6825.219969618056,558.5776126825356,0.46565245033566977,66.2449129244416,0.037518446180555554,0.4026074516612201,15.8,67,1014,9.75,3.84,148,3.84,0,6.050000000000001
2020-3-12 17:48,4400,6647.710625,539.7524224362681,0.46364161172025153,65.7374075339738,0.03393120659722222,0.39958423117510894,15.8,67,1014,9.75,3.9,146,3.9,0,6.050000000000001
2020-3-12 17:48,4400,6718.522215711806,557.538473254874,0.4681996996354422,65.09750373465573,0.037157118055555556,0.3951661475354031,15.8,67,1014,9.75,3.92,146,3.91,0,6.050000000000001
2020-3-12 17:48,4400,6598.671056857639,534.5831777543798,0.46551123389557103,64.24005976427789,0.036810980902777776,0.39337723396650326,15.7,67,1014,9.65,3.92,146,3.92,0,6.049999999999999
2020-3-12 17:49,4400,6617.204051649305,547.7574070435688,0.4701709097533834,63.33489454306037,0.039704861111111114,0.3905660573257081,15.7,67,1014,9.65,3.9,145,3.9,0,6.049999999999999
2020-3-12 17:49,4400,6555.219739583334,533.587061325709,0.46738442448609613,63.00282856438962,0.041104600694444444,0.3932429236451525,15.7,67,1014,9.65,3.85,145,3.84,0,6.049999999999999
2020-3-12 17:49,4400,6645.792471788194,554.3515601357873,0.4725137298616457,62.467956517278154,0.044960938,0.39215950520833337,15.7,67,1014,9.65,3.77,145,3.77,0,6.049999999999999
2020-3-12 17:49,4400,6568.01619140625,536.8270376458061,0.4696592348051335,62.218939787648324,0.04341362847222222,0.3937252859477124,15.7,67,1014,9.65,3.6,145,3.6,0,6.049999999999999
2020-3-12 17:50,4400,6621.2589453125,545.195917893982,0.4713981425816862,61.92064378779924,0.04495442708333333,0.39190222034994554,15.7,67,1014,9.65,3.46,145,3.46,0,6.049999999999999
2020-3-12 17:50,4300,6523.450227864583,530.293557940729,0.46921817537436505,62.131535248053275,0.044691840277777777,0.39294573376225495,15.7,67,1014,9.65,3.35,146,3.34,0,6.049999999999999
2020-3-12 17:50,4300,6601.766719,542.0770425703155,0.4696620722458414,62.275471126085186,0.045633680555555556,0.3932502723311547,15.7,67,1014,9.65,3.36,145,3.35,0,6.049999999999999
2020-3-12 17:50,4300,6571.055553385417,533.1475537742286,0.4678569805538367,62.414284471075064,0.04341037326388889,0.3943272569444445,15.7,68,1014,9.87,3.35,145,3.34,0,5.83
2020-3-12 17:51,4300,6708.786128472222,554.7363678330304,0.4709905769387253,62.67776108925362,0.04334526909722222,0.3947101205065359,15.7,68,1014,9.87,3.29,147,3.28,0,5.83
2020-3-12 17:51,4300,6557.919713541667,533.8022525701404,0.4673615842225047,62.821933142245065,0.04098524305555556,0.3958579452614379,15.7,68,1014,9.87,3.21,147,3.2,0,5.83
2020-3-12 17:51,4300,6672.148161892361,551.6331020048623,0.47021043136949753,63.021296222946475,0.04270290798611111,0.396352013548475,15.7,68,1014,9.87,3.21,147,3.21,0,5.83
2020-3-12 17:51,4300,6609.11669921875,538.5665718516017,0.4670245754551219,63.17358227947936,0.041668836805555554,0.39838723362608935,15.6,69,1014,9.99,3.29,147,3.29,0,5.609999999999999
2020-3-12 17:52,4300,6750.7476215277775,556.7278187569325,0.47029233509597607,63.392451933012254,0.04503472222222222,0.39927932240604574,15.6,69,1014,9.99,3.39,147,3.38,0,5.609999999999999
2020-3-12 17:52,4300,6757.953172743056,549.4484111938056,0.4680520138144863,63.40866703244423,0.045884331597222223,0.4032670419730392,15.6,69,1014,9.99,3.42,147,3.42,0,5.609999999999999
2020-3-12 17:52,4300,6923.106673177083,571.4146190489769,0.4710568929603859,63.27233670645914,0.05036349826388889,0.40478698171977123,15.6,69,1014,9.99,3.41,147,3.4,0,5.609999999999999
2020-3-12 17:52,4300,6827.285850694445,553.433314858132,0.4676957433629342,63.121234535644646,0.046318359,0.40886296636710234,15.5,70,1014,10.11,3.39,148,3.39,0,5.390000000000001
2020-3-12 17:53,4300,6970.346019965278,581.4575552442469,0.473655161700414,63.129380841510645,0.05339952256944445,0.40718268739787583,15.5,70,1014,10.11,3.48,147,3.47,0,5.390000000000001
2020-3-12 17:53,4300,6720.489079861111,547.4047806495194,0.46767714403399285,63.07441501939962,0.04625,0.41020136335784313,15.5,70,1014,10.11,3.5,147,3.5,0,5.390000000000001
2020-3-12 17:53,4300,6916.161245659722,572.5975442354544,0.47270954525860887,62.797265616236,0.05633355034722222,0.40746455014297384,15.5,70,1014,10.11,3.47,147,3.47,0,5.390000000000001
2020-3-12 17:53,4300,6766.289474826389,556.4446418437772,0.47092319565878715,62.51802033925918,0.05159613715277778,0.40874410232843134,15.5,70,1014,10.11,3.53,147,3.53,0,5.390000000000001
2020-3-12 17:54,4300,6944.809016927084,576.4317946277008,0.47322977942553096,62.598691173719914,0.05570963541666667,0.4081809385212418,15.5,70,1014,10.11,3.51,148,3.51,0,5.390000000000001
2020-3-12 17:54,4300,6884.528474392361,567.5645030336682,0.4722679627929446,62.67068651579985,0.05826714409722222,0.40903552219498907,15.5,70,1014,10.11,3.54,148,3.54,0,5.390000000000001
2020-3-12 17:54,4300,6980.222888454861,585.9816502693069,0.4755604686391875,62.559403865766114,0.059618055555555556,0.4084056712962963,15.5,70,1014,10.11,3.59,147,3.59,0,5.390000000000001
2020-3-12 17:54,4300,6782.320603298611,556.4832226238061,0.4700069718669721,62.52588571400352,0.05228732638888889,0.40926358677151414,15.4,70,1014,10.01,3.62,146,3.62,0,5.390000000000001
2020-3-12 17:55,4300,6888.37388671875,573.9017350115352,0.47357009378456516,62.64953593758622,0.05654513888888889,0.4086020901416122,15.4,70,1014,10.01,3.64,147,3.64,0,5.390000000000001
2020-3-12 17:55,4300,6750.446063368056,549.812777292506,0.46859402973344905,63.10196369747369,0.05085828993055556,0.4102440512663399,15.4,70,1014,10.01,3.75,147,3.75,0,5.390000000000001
2020-3-12 17:55,4300,6952.9429318576385,577.3338344794191,0.4733109041829046,63.376582744563336,0.05593532986111111,0.4068420989923747,15.4,70,1014,10.01,3.88,147,3.87,0,5.390000000000001
2020-3-12 17:55,4300,6645.468012152778,534.1205913467302,0.4648156001722953,63.59395874934937,0.04389865451388889,0.4109792900667211,15.4,70,1014,10.01,3.83,146,3.83,0,5.390000000000001
2020-3-12 17:56,4300,6861.305206163194,563.937594809633,0.4704593322412204,63.82115694628238,0.052207031,0.40838114872685183,15.4,70,1014,10.01,3.84,146,3.84,0,5.390000000000001
2020-3-12 17:56,4300,6678.212100694444,539.9439908835327,0.46665214063951954,63.917817547576824,0.04327365451388889,0.4107705822780501,15.4,70,1014,10.01,3.79,146,3.79,0,5.390000000000001
2020-3-12 17:56,4300,6885.779392361111,568.6116883324094,0.4705395431379787,64.17105275987997,0.05081814236111111,0.4080119400190632,15.4,70,1014,10.01,3.78,146,3.77,0,5.390000000000001
2020-3-12 17:56,4200,6605.064175347222,525.9819357525811,0.4622975765627965,64.16067166027568,0.039677734,0.41155330456835515,15.4,71,1014,10.22,3.8,146,3.8,0.016666666666666666,5.18
2020-3-12 17:57,4200,6849.3838910590275,559.2029101550445,0.4679367433938873,64.64994074444802,0.04718858506944444,0.4083120829929194,15.4,71,1014,10.22,3.75,145,3.75,0.016666666666666666,5.18
2020-3-12 17:57,4200,6546.397690972222,516.4859472623176,0.4601046752914019,64.74157698914098,0.037437065972222225,0.41015410539215685,15.4,71,1014,10.22,3.67,145,3.66,0.016666666666666666,5.18
2020-3-12 17:57,4200,6888.963448350694,565.9015189429342,0.4682949255294947,65.14440620483303,0.0459375,0.4055589511846405,15.4,71,1014,10.22,3.56,145,3.56,0.016666666666666666,5.18
2020-3-12 17:57,4200,6600.8017578125,523.1525509935913,0.4599374585664952,65.32002761950157,0.035451388888888886,0.40800571895424836,15.3,71,1014,10.13,3.53,145,3.52,0.016666666666666666,5.17
2020-3-12 17:58,4200,6876.133287760416,563.0506194055333,0.46674916663723404,65.49650634749453,0.04090060763888889,0.4020283224400871,15.3,71,1014,10.13,3.49,145,3.49,0.016666666666666666,5.17
2020-3-12 17:58,4200,6672.900303819444,537.979298522907,0.4639599552656376,65.4873042682264,0.03665256076388889,0.3995593937227669,15.3,71,1014,10.13,3.46,144,3.45,0.016666666666666666,5.17
2020-3-12 17:58,4200,6729.773226996528,546.3136344821319,0.46483222781085254,65.38439683614862,0.03841037326388889,0.3952019122753268,15.3,71,1014,10.13,3.45,144,3.44,0.016666666666666666,5.17
2020-3-12 17:58,4200,6628.638424479167,537.2235923022694,0.46416369361864135,65.17749548627839,0.03589626736111111,0.3910277139501634,15.3,72,1014,10.34,3.42,145,3.42,0.03333333333333333,4.960000000000001
2020-3-12 17:59,4200,6613.8165104166665,539.7496614460842,0.46520326785965976,64.69151243767406,0.03585828993055556,0.39076902913943357,15.3,72,1014,10.34,3.45,146,3.45,0.03333333333333333,4.960000000000001
2020-3-12 17:59,4200,6481.909192708334,523.0787671981813,0.46334652334953397,64.72385968766443,0.03340060763888889,0.3913711618327887,15.3,72,1014,10.34,3.55,145,3.55,0.03333333333333333,4.960000000000001
2020-3-12 17:59,4200,6578.803177083333,534.7479628256798,0.4647574335155248,64.53977543507423,0.036689453,0.3909294364447168,15.3,72,1014,10.34,3.65,145,3.65,0.03333333333333333,4.960000000000001
2020-3-12 17:59,4200,6603.863969184028,533.1768118232962,0.464854711415261,64.49779412602449,0.03693576388888889,0.39217403662854033,15.2,72,1014,10.24,3.65,145,3.65,0.03333333333333333,4.959999999999999
2020-3-12 18:00,4200,6651.522026909723,549.4234471366306,0.46910294318009976,64.36274240324313,0.03888563368055555,0.3914489549291939,15.2,72,1014,10.24,3.63,145,3.63,0.03333333333333333,4.959999999999999
2020-3-12 18:00,4200,6626.365972222222,538.2905834465448,0.4661426681304638,64.28394455581036,0.03958767361111111,0.39440537768927014,15.2,72,1014,10.24,3.61,146,3.61,0.03333333333333333,4.959999999999999
2020-3-12 18:00,4200,6732.459270833333,560.3762271218935,0.4700873506373521,64.72474827807831,0.041585286458333336,0.39399333214188453,15.2,72,1014,10.24,3.54,145,3.54,0.03333333333333333,4.959999999999999
2020-3-12 18:00,4200,6692.479114583333,548.1000811386002,0.4675218074738876,64.0926281722397,0.040917969,0.3946743898080065,15.2,72,1014,10.24,3.53,145,3.52,0.03333333333333333,4.959999999999999
2020-3-12 18:01,4200,6777.315167100694,556.4375344984077,0.46833912723107857,63.62644699907147,0.040367838541666666,0.39215843715958604,15.2,72,1014,10.24,3.49,145,3.48,0.03333333333333333,4.959999999999999
2020-3-12 18:01,4200,6736.674435763889,547.5992421055499,0.46741677756214245,63.7898209085438,0.041272786458333335,0.39500466792619826,15.2,72,1014,10.24,3.4,144,3.39,0.03333333333333333,4.959999999999999
2020-3-12 18:01,4200,6857.216985677083,571.6598120217958,0.4718497980284375,63.666263968113185,0.044557291666666665,0.3917087290645425,15.2,72,1014,10.24,3.35,144,3.34,0.03333333333333333,4.959999999999999
2020-3-12 18:01,4200,6765.681529947917,552.4619950641952,0.46707496291498996,63.62527337492856,0.041170789930555556,0.3915174419594227,15.2,72,1014,10.24,3.33,144,3.32,0.03333333333333333,4.959999999999999
2020-3-12 18:02,4200,6836.771247829861,566.643778019639,0.47023895946494715,63.54764130799926,0.041142578,0.39064427168436816,15.2,72,1014,10.24,3.34,144,3.33,0.03333333333333333,4.959999999999999
2020-3-12 18:02,4200,6691.502000868056,544.0288344451483,0.4663165152967059,63.715693748626535,0.03786675347222222,0.3906093196827342,15.2,72,1014,10.24,3.39,144,3.38,0.03333333333333333,4.959999999999999
2020-3-12 18:02,4200,6827.363253038195,565.1034414192434,0.46975569030820197,63.801158540278394,0.04123806423611111,0.3883694214665033,15.2,72,1014,10.24,3.41,144,3.41,0.03333333333333333,4.959999999999999
2020-3-12 18:02,4200,6741.462105034722,549.133065267764,0.465546996904508,64.85496142666146,0.038694661458333335,0.392971081835512,15.2,72,1014,10.24,3.4,144,3.39,0.03333333333333333,4.959999999999999
2020-3-12 18:03,4200,6877.890416666667,572.142796221979,0.47041725482432184,64.522501542359,0.043251953,0.39195151654411764,15.2,72,1014,10.24,3.37,144,3.36,0.03333333333333333,4.959999999999999
2020-3-12 18:03,4200,6676.243111979166,545.0065503183425,0.46599083522150847,64.57275177808067,0.03779839409722222,0.3917906922317538,15.2,72,1014,10.24,3.31,144,3.3,0.03333333333333333,4.959999999999999
2020-3-12 18:03,4200,6769.63794921875,562.3000982454075,0.46982094059534646,64.72022028397345,0.040927734,0.38839051862064267,15.2,72,1014,10.24,3.22,144,3.21,0.03333333333333333,4.959999999999999
2020-3-12 18:03,4200,6802.362048611111,558.0800281745016,0.467296062798293,65.20435411090142,0.04003797743055556,0.3920904309640523,15.2,72,1014,10.24,3.13,144,3.13,0.03333333333333333,4.959999999999999
2020-3-12 18:04,4200,6857.6029296875,570.9763378766364,0.4703964278439735,65.06797763073912,0.039673394097222224,0.38909597120098044,15.2,72,1014,10.24,3.09,143,3.08,0.03333333333333333,4.959999999999999
2020-3-12 18:04,4100,6712.163016493056,542.721742154227,0.46440634185626184,65.21675584526663,0.03666666666666667,0.39379790049700436,15.2,72,1014,10.24,3.09,143,3.08,0.03333333333333333,4.959999999999999
2020-3-12 18:04,4100,6827.044309895833,561.5888776897664,0.4685752852814825,64.93901013389595,0.039563802083333335,0.39063362098311544,15.2,72,1014,10.24,3.06,142,3.04,0.03333333333333333,4.959999999999999
2020-3-12 18:04,4100,6755.919743923611,553.8493856185912,0.4669738438412642,65.15655954641572,0.038736979166666664,0.39189882046568625,15.1,73,1014,10.35,2.97,142,2.96,0.052999999999999985,4.75
2020-3-12 18:05,4100,6789.0717578125,565.7030886782884,0.4707022919990649,65.39174736931182,0.04177300347222222,0.3930715720315904,15.1,73,1014,10.35,2.99,141,2.97,0.05099999999999998,4.75
2020-3-12 18:05,4100,6723.953331163195,549.6115177047152,0.4678404871577318,64.88355526941295,0.03963324652777778,0.39139948427287585,15.1,73,1014,10.35,3.01,140,2.98,0.05,4.75
2020-3-12 18:05,4100,6829.348467881944,561.8244657948387,0.46866511013177276,64.81486159992849,0.04332573784722222,0.3925649892769608,15.1,73,1014,10.35,3.1,139,3.06,0.05,4.75
2020-3-12 18:06,4100,6757.803658854166,556.6873706177594,0.46871223496113035,64.56977063730402,0.04224175347222222,0.3910321478417756,15.1,73,1014,10.35,3.09,138,3.04,0.05,4.75
2020-3-12 18:06,4100,6895.356703559028,574.9167190141737,0.47253515618141084,64.10189842250135,0.043339844,0.3892663143382353,15.1,73,1014,10.35,3.07,136,3,0.05,4.75
2020-3-12 18:06,4100,6823.3318489583335,559.611668815665,0.4694330323269167,64.08129726955653,0.042262369791666664,0.3933810253267974,15.1,73,1014,10.35,3.13,135,3.04,0.05,4.75
2020-3-12 18:06,4100,7023.770629340278,587.8280555553248,0.47412518284253374,63.84438137334287,0.049224175347222225,0.3913225507216776,15,73,1013.9,10.25,3.23,135,3.15,0.05,4.75
2020-3-12 18:07,4100,6770.365043402778,563.6633342528349,0.4702092313456157,63.36965401617882,0.041894531,0.39423168147467325,15,73,1013.9,10.25,3.27,135,3.19,0.05,4.75
2020-3-12 18:07,4100,6942.056532118056,575.9956541295359,0.472982179428955,63.04314214541226,0.04893771701388889,0.39184226068899786,15,73,1013.9,10.25,3.33,135,3.24,0.05,4.75
2020-3-12 18:07,4100,6794.270073784723,557.8319366500747,0.4706446360080631,63.02595043788605,0.046412760416666664,0.393982830371732,15,73,1013.9,10.25,3.4,134,3.3,0.05,4.75
2020-3-12 18:07,4100,7070.062220052083,596.8149519361282,0.4763140044760047,63.220225233172485,0.054223090277777775,0.3924459763071895,15,73,1013.9,10.25,3.47,134,3.37,0.05,4.75
2020-3-12 18:08,4100,6767.3031640625,554.3865101080246,0.468731513732732,63.25003926405193,0.04383680555555555,0.396437806372549,15,73,1013.9,10.25,3.55,134,3.44,0.05,4.75
2020-3-12 18:08,4100,7094.215707465278,597.5433483945305,0.4754127308040381,63.59755670850082,0.053863932291666666,0.3944633586941721,15,73,1013.9,10.25,3.54,134,3.43,0.05,4.75
2020-3-12 18:08,4100,6819.158355034722,557.1014940664494,0.4685119751517933,63.652113178439436,0.04212999131944444,0.39864933108660133,15,73,1013.9,10.25,3.57,134,3.46,0.05,4.75
2020-3-12 18:08,4100,7087.326551649306,595.6455757090142,0.4742363931639058,63.88570245611089,0.052325303819444446,0.3963572984749455,15,74,1013.9,10.45,3.56,133,3.44,0.06666666666666667,4.550000000000001
2020-3-12 18:09,4000,6871.429318576389,568.8927923918361,0.4691533458713831,64.09667338013695,0.04353081597222222,0.4009155007489107,15,74,1013.9,10.45,3.48,133,3.36,0.06666666666666667,4.550000000000001
2020-3-12 18:09,4000,7094.393793402778,593.5915425889006,0.47335571527637477,63.90263697728273,0.05141493055555556,0.3982224647671569,15,74,1013.9,10.45,3.46,133,3.34,0.06666666666666667,4.550000000000001
2020-3-12 18:09,4000,6988.587491319445,574.2334088500932,0.4704137328358486,64.07450473332246,0.04765082465277778,0.40001586328976035,15,74,1013.9,10.45,3.43,134,3.32,0.06666666666666667,4.550000000000001
2020-3-12 18:09,4000,7156.391512586805,602.3659287481944,0.47530277610592087,64.00833109611862,0.055223524305555556,0.39847278816040305,15,74,1013.9,10.45,3.33,134,3.23,0.06666666666666667,4.550000000000001
2020-3-12 18:10,4000,7004.840894097222,580.9452624290888,0.4721682974329747,63.95036704897613,0.05168402777777778,0.4004677457788671,15,74,1013.9,10.45,3.25,134,3.16,0.06666666666666667,4.550000000000001
2020-3-12 18:10,4000,7157.956966145834,606.0759027762521,0.4764049844137336,63.801488259408465,0.05696723090277778,0.39804965788398694,15,74,1013.9,10.45,3.26,134,3.16,0.06666666666666667,4.550000000000001
2020-3-12 18:10,4000,7046.455156,579.2817902886238,0.47151431542913713,63.766170167041494,0.05260308159722222,0.40120712911900874,15,74,1013.9,10.45,3.25,135,3.16,0.06666666666666667,4.550000000000001
2020-3-12 18:10,4000,7240.971297743055,616.1255381857363,0.4776556969605032,63.55110207545079,0.058997395833333334,0.39943777658632895,14.9,74,1014,10.36,3.23,135,3.15,0.06799999999999999,4.540000000000001
2020-3-12 18:11,4000,6991.8018185763885,573.8097992621421,0.4699036932324167,63.232403020034624,0.04918402777777778,0.4028252527573529,14.9,74,1014,10.36,3.22,135,3.14,0.06799999999999999,4.540000000000001
2020-3-12 18:11,4000,7315.4017122395835,620.9897633431704,0.4781784940419657,63.248788608333925,0.060983072916666665,0.39983150360838776,14.9,74,1014,10.36,3.2,135,3.12,0.06799999999999999,4.540000000000001
2020-3-12 18:11,4000,7214.712643229167,605.0910497866737,0.4757287546592042,63.27077918555918,0.05950737847222222,0.4003493540645425,14.9,74,1014,10.36,3.19,136,3.12,0.06799999999999999,4.540000000000001
2020-3-12 18:11,4000,7292.837697482639,614.4572943854332,0.4762613738330394,63.23894937887161,0.05933051215277778,0.39955712145969496,14.9,74,1014,10.36,3.15,136,3.08,0.06799999999999999,4.540000000000001
2020-3-12 18:12,4000,7163.750284288194,594.0498652000849,0.47352941629303424,63.08533517378863,0.05673611111111111,0.4007668504901961,14.9,74,1014,10.36,3.1,135,3.02,0.06799999999999999,4.540000000000001
2020-3-12 18:12,4000,7299.903578559028,618.3962641057036,0.4776523626001419,63.10224246364083,0.06006293402777778,0.4007713865059913,14.9,74,1014,10.36,3.06,134,2.96,0.06799999999999999,4.540000000000001
2020-3-12 18:12,4000,7184.178997395833,599.192476648108,0.4746012678891194,63.220119788213744,0.05891493055555556,0.40190733932461875,14.9,74,1014,10.36,3.01,134,2.92,0.06799999999999999,4.540000000000001
2020-3-12 18:12,4000,7337.69556640625,622.080543057617,0.47730314049071154,63.56402596411112,0.060461154513888886,0.4012044270833333,14.9,74,1014,10.36,3.08,134,2.99,0.06799999999999999,4.540000000000001
2020-3-12 18:13,4000,7311.919626736111,609.7497638069896,0.47349908291494175,64.01313166866892,0.056738281,0.40368252570125274,14.9,74,1014,10.36,3.17,134,3.08,0.06799999999999999,4.540000000000001
2020-3-12 18:13,4000,7403.6137868923615,624.9425410644108,0.4759701233487263,64.46961523445593,0.05863498263888889,0.4038916079452614,14.9,74,1014,10.36,3.19,135,3.11,0.06799999999999999,4.540000000000001
2020-3-12 18:13,4000,7086.783819444445,575.0648619416023,0.4661995894900668,64.78966193330186,0.046053602430555556,0.40807445703976036,14.9,74,1014,10.36,3.24,134,3.14,0.06799999999999999,4.540000000000001
2020-3-12 18:13,4000,7399.761111111111,615.3685270770029,0.4720740412807752,65.2391091539045,0.054185112847222223,0.4058771743940632,14.9,75,1014,10.56,3.36,134,3.27,0.08466666666666665,4.34
2020-3-12 18:14,4000,7279.7180381944445,597.6973412416058,0.4673402343017187,65.71160387883438,0.04579318576388889,0.40937996153322437,14.9,75,1014,10.56,3.46,135,3.37,0.08466666666666665,4.34
2020-3-12 18:14,4000,7457.8536328125,619.4492576964157,0.4710742775098318,65.83435390688942,0.05155490451388889,0.40722785607298473,14.9,75,1014,10.56,3.5,135,3.41,0.08466666666666665,4.34
2020-3-12 18:14,4000,7173.571384548611,586.7750428742539,0.4666926505860151,65.74402510485055,0.043818359,0.406393948291122,14.9,75,1014,10.56,3.52,135,3.42,0.08466666666666665,4.34
2020-3-12 18:14,4000,7453.940023871528,617.6396057029712,0.47091318297488854,65.72492174732405,0.05235785590277778,0.40393930844907405,14.9,75,1013.9,10.56,3.49,136,3.41,0.08466666666666665,4.34
2020-3-12 18:15,4000,7202.660672743055,585.5151678759149,0.4659293933980795,65.4835624952519,0.04479166666666667,0.4084265769675926,14.9,75,1013.9,10.56,3.55,136,3.47,0.08466666666666665,4.34
2020-3-12 18:15,4000,7431.625219184028,617.1215622573245,0.47187789200472563,65.3061318166505,0.055009766,0.40755896820533766,14.9,75,1013.9,10.56,3.65,135,3.56,0.08466666666666665,4.34
2020-3-12 18:15,4000,7392.505733506944,615.5006409733983,0.4722473016768126,65.11163127409276,0.05556315104166667,0.4092746587350218,14.9,75,1013.9,10.56,3.68,135,3.59,0.08466666666666665,4.34
2020-3-12 18:15,3900,7470.3310720486115,622.4968043735074,0.47282508414179414,64.79018364939873,0.057919922,0.4100695125272331,14.8,75,1013.9,10.46,3.69,136,3.61,0.086,4.34
2020-3-12 18:16,3900,7488.720974392361,628.9849572253179,0.4745717750637262,64.45935800025369,0.06137478298611111,0.40964945023148147,14.8,75,1013.9,10.46,3.71,137,3.64,0.086,4.34
2020-3-12 18:16,4000,7597.17822265625,644.2947080648904,0.4783737970956544,63.63073280123154,0.06335828993055556,0.4063878208401416,14.8,75,1013.9,10.46,3.78,138,3.73,0.086,4.34
2020-3-12 18:16,4000,7430.1250390625,621.1941655013932,0.4756659411145643,63.797315794805776,0.06299696180555556,0.4084013352736928,14.8,75,1013.9,10.46,3.89,137,3.82,0.086,4.34
2020-3-12 18:16,4000,7572.083567708333,646.8243639494531,0.479891853071675,63.64362173249361,0.066767578,0.4080470154207516,14.8,75,1013.9,10.46,3.9,137,3.83,0.086,4.34
2020-3-12 18:17,4000,7486.662526041667,630.7849021032075,0.4768139639342519,63.61121678948645,0.06517469618055556,0.4106469184027778,14.8,75,1013.9,10.46,3.78,138,3.72,0.086,4.34
2020-3-12 18:17,4000,7413.838880208334,627.6767217844633,0.4779686865963298,63.46283111511394,0.0652365451388889,0.4052806117238562,14.8,75,1013.9,10.46,3.73,137,3.67,0.086,4.34
2020-3-12 18:17,3900,7189.476942274306,591.3814756310734,0.47102227030460053,63.70443682864764,0.05362847222222222,0.40959287343409584,14.8,75,1013.9,10.46,3.71,138,3.65,0.086,4.34
2020-3-12 18:17,3900,7391.399329427083,619.6076778537323,0.47516660487973744,63.69712110228376,0.06093967013888889,0.408235643041939,14.8,75,1013.9,10.46,3.66,137,3.59,0.086,4.34
2020-3-12 18:18,3900,7327.351150173611,607.4146413065168,0.4730125988699421,63.99480773659979,0.060263672,0.4096016007965686,14.8,75,1013.9,10.46,3.64,137,3.57,0.086,4.34
2020-3-12 18:18,3900,7476.079518229167,633.1311875321834,0.4768498007240354,64.07181697245623,0.062276475694444444,0.40732174649373637,14.8,75,1013.9,10.46,3.59,137,3.52,0.086,4.34
2020-3-12 18:18,3900,7337.673055555556,614.5731377949605,0.47421145731035613,64.04212875571126,0.06087348090277778,0.4093335546023965,14.8,75,1013.9,10.46,3.52,137,3.46,0.086,4.34
2020-3-12 18:18,3800,7295.77880859375,611.9632463505305,0.474146508278044,63.70280842069561,0.058440755208333334,0.40574685968137253,14.7,76,1013.9,10.56,3.58,138,3.53,0.10400000000000001,4.139999999999999
2020-3-12 18:19,3800,7250.936651475695,604.1175464552123,0.47347179864663214,63.693960297042636,0.05837456597222222,0.40747124353213504,14.7,76,1013.9,10.56,3.64,137,3.57,0.10400000000000001,4.139999999999999
2020-3-12 18:19,3800,7352.932315538194,622.2298415050928,0.4765431351334241,63.59389513329168,0.060992838541666664,0.40607080184504357,14.7,76,1013.9,10.56,3.63,139,3.58,0.10400000000000001,4.139999999999999
2020-3-12 18:19,3800,7207.999967447917,600.0012423034372,0.473708470814507,63.58075067129559,0.059199219,0.40697497957516343,14.7,76,1013.9,10.56,3.56,139,3.51,0.10400000000000001,4.139999999999999
2020-3-12 18:19,3800,7288.3447092013885,607.7265114190552,0.4737792559544236,63.70802932154065,0.05900607638888889,0.40680650871459695,14.7,76,1013.9,10.56,3.54,139,3.5,0.10400000000000001,4.139999999999999
2020-3-12 18:20,3800,7202.575594618055,598.9882156422508,0.47256401636629747,63.87786162372011,0.05632921006944445,0.4071975932734205,14.7,76,1013.9,10.56,3.55,139,3.5,0.10400000000000001,4.139999999999999
2020-3-12 18:20,3800,7186.678070746528,600.966108899359,0.4737732887937698,63.83877252968817,0.05787326388888889,0.40724606821895426,14.7,76,1013.9,10.56,3.58,140,3.54,0.10400000000000001,4.139999999999999
2020-3-12 18:20,3800,7117.658411458333,592.8948825590155,0.47291064053701326,63.79176702260797,0.056486545138888886,0.4075502110566449,14.7,76,1013.9,10.56,3.5,140,3.46,0.10400000000000001,4.139999999999999
2020-3-12 18:20,3800,7158.671664496528,597.2539941137799,0.4730110424470208,63.56655774219125,0.05769097222222222,0.40676525054466234,14.6,77,1013.9,10.66,3.39,141,3.36,0.12200000000000001,3.9399999999999995
2020-3-12 18:21,3800,7065.043315972222,584.0074359619128,0.47242962801323574,63.2598155625552,0.056939019097222224,0.4064242664079521,14.6,77,1013.9,10.66,3.35,141,3.33,0.12200000000000001,3.9399999999999995
2020-3-12 18:21,3800,7270.609340277778,616.7610969487403,0.4781879959204046,62.88479491283557,0.06276801215277777,0.404439759497549,14.6,77,1013.9,10.66,3.35,141,3.33,0.12200000000000001,3.9399999999999995
2020-3-12 18:21,3800,7190.446521267361,598.412207903656,0.4747036650219532,62.658846235983596,0.06322048611111111,0.40679009225217866,14.6,77,1013.9,10.66,3.4,141,3.38,0.12200000000000001,3.9399999999999995
2020-3-12 18:21,3800,7291.748830295139,619.5836783603199,0.4789508867707133,62.24542612248133,0.065126953,0.40672025207652507,14.6,78,1013.9,10.85,3.43,141,3.4,0.13866666666666666,3.75
2020-3-12 18:22,3800,7268.260073784722,613.7070764510495,0.4773600021592297,62.174318345461586,0.066689453,0.4072568763616558,14.6,78,1013.9,10.85,3.41,142,3.39,0.13866666666666666,3.75
2020-3-12 18:22,3800,7336.466395399306,626.3605327436552,0.48009026053098725,61.91609549585157,0.06807725694444444,0.4066982528254357,14.6,78,1013.9,10.85,3.35,142,3.34,0.13866666666666666,3.75
2020-3-12 18:22,3800,7257.6421918402775,607.6045515242677,0.47695137176043434,61.9358613881335,0.06669487847222222,0.4090676530160675,14.6,78,1013.9,10.85,3.39,141,3.37,0.13866666666666666,3.75
2020-3-12 18:22,3800,7314.661935763889,623.1566881962483,0.4798104125578799,61.48013273059346,0.06833875868055556,0.40441130514705886,14.6,77,1013.9,10.66,3.44,141,3.41,0.12200000000000001,3.9399999999999995
2020-3-12 18:23,3800,7252.7503841145835,610.9613842973072,0.4783127964669633,61.48573019016227,0.06752170138888888,0.40647157969090414,14.6,77,1013.9,10.66,3.42,141,3.4,0.12200000000000001,3.9399999999999995
2020-3-12 18:23,3700,7363.825935329861,633.5174150237988,0.4821640249501384,61.460637291589485,0.07210286458333333,0.40669409126497824,14.6,77,1013.9,10.66,3.31,142,3.29,0.12200000000000001,3.9399999999999995
2020-3-12 18:23,3700,7132.4142860243055,601.5811653380927,0.47738565479759565,61.62599540951278,0.06580729166666667,0.40507703993055555,14.6,77,1013.9,10.66,3.25,142,3.23,0.12200000000000001,3.9399999999999995
2020-3-12 18:23,3700,7261.389839409722,615.2717133241334,0.47920517466987766,61.798712316462336,0.06893120659722222,0.40465629255174296,14.6,78,1014,10.85,3.21,141,3.18,0.13866666666666666,3.75
2020-3-12 18:24,3700,7137.259958767361,593.9967261561634,0.4746164095674284,62.21575428597388,0.06259114583333333,0.40804329639842046,14.6,78,1014,10.85,3.25,141,3.22,0.13866666666666666,3.75
2020-3-12 18:24,3700,7215.9762977430555,607.0700909811468,0.47720315221735565,61.94330685916943,0.06465060763888889,0.405602043334695,14.6,78,1014,10.85,3.28,141,3.26,0.13866666666666666,3.75
2020-3-12 18:24,3700,7110.693550347222,592.0163259547434,0.4753064433901559,62.338221524398264,0.06314670138888889,0.4061369059776689,14.6,78,1014,10.85,3.29,141,3.26,0.13866666666666666,3.75
2020-3-12 18:24,3700,7229.249845920139,606.4179317370757,0.47658114423919395,62.85421767252714,0.06433702256944444,0.40643625323393245,14.5,79,1013.9,10.94,3.24,141,3.22,0.15666666666666665,3.5600000000000005
2020-3-12 18:25,3700,6982.095290798611,575.2107366220155,0.47125300493825734,63.17940056536189,0.05466471354166667,0.4047886922998366,14.5,79,1013.9,10.94,3.25,141,3.23,0.15666666666666665,3.5600000000000005
2020-3-12 18:25,3700,6996.855625,574.2019529741028,0.4704863048515939,63.825908496446026,0.05350043402777778,0.40532356770833333,14.5,79,1013.9,10.94,3.29,140,3.26,0.15666666666666665,3.5600000000000005
2020-3-12 18:25,3700,6844.195559895833,548.7674391694198,0.4647652242591671,64.80137311341107,0.04671332465277778,0.40702924155773423,14.5,79,1013.9,10.94,3.32,141,3.3,0.15666666666666665,3.5600000000000005
2020-3-12 18:25,3600,6976.184626736111,571.174694845269,0.46799309832803054,65.49489748591174,0.047809244791666664,0.4040555853417756,14.5,78,1013.9,10.75,3.33,141,3.31,0.13999999999999999,3.75
2020-3-12 18:26,3600,6635.101931423611,525.4823827469248,0.4578000192064492,65.97838423503363,0.03595486111111111,0.4090475047657952,14.5,78,1013.9,10.75,3.26,141,3.24,0.13999999999999999,3.75
2020-3-12 18:26,3600,6892.639442274305,565.5426312504512,0.46753816191198216,66.1981119370552,0.042876519097222225,0.40344119349128543,14.5,78,1013.9,10.75,3.18,141,3.16,0.13999999999999999,3.75
2020-3-12 18:26,3600,6587.825316840278,528.9883871629512,0.46175649149169995,65.98505436140158,0.034442274305555555,0.40522483064406317,14.5,78,1013.9,10.75,3.15,141,3.12,0.13999999999999999,3.75
2020-3-12 18:26,3600,6734.521896701389,551.2142226110338,0.46668443277250676,65.29186624007284,0.04089626736111111,0.3999166113494009,14.5,79,1014,10.94,3.12,141,3.1,0.15666666666666665,3.5600000000000005
2020-3-12 18:27,3600,6527.0305859375,527.3613345892586,0.4641143988736394,64.48117732657626,0.03509223090277778,0.39994227430555557,14.5,79,1014,10.94,3.07,141,3.05,0.15666666666666665,3.5600000000000005
2020-3-12 18:27,3600,6659.104934895833,549.0161834712453,0.4715272610349834,63.466530436270176,0.048154297,0.3948895143995098,14.5,79,1014,10.94,3.07,142,3.06,0.15666666666666665,3.5600000000000005
2020-3-12 18:27,3600,6401.413862847222,509.8621835521545,0.46489268610778667,62.331616412295695,0.04303059895833333,0.39891029241557735,14.5,79,1014,10.94,3.03,142,3.02,0.15666666666666665,3.5600000000000005
2020-3-12 18:27,3600,6719.162504340277,554.5875368840534,0.47343809055774916,61.73104924729684,0.05447699652777778,0.39537160011574074,14.4,80,1014,11.03,2.97,142,2.95,0.17766666666666664,3.370000000000001
2020-3-12 18:28,3600,6756.625245225694,561.0286533659935,0.4746955565943541,61.604561891661774,0.056128472222222225,0.39656459780092596,14.4,80,1014,11.03,2.96,143,2.95,0.17866666666666667,3.370000000000001
2020-3-12 18:28,3600,6977.046499565972,585.1854281771613,0.47638985888098667,62.24003855086158,0.05715928819444444,0.39518684470315907,14.4,80,1014,11.03,2.95,143,2.94,0.17966666666666664,3.370000000000001
2020-3-12 18:28,3600,6745.24455078125,547.7087054294715,0.46784811475914323,63.18552037680069,0.046858723958333334,0.3970788951865469,14.4,80,1014,11.03,2.91,144,2.91,0.18366666666666664,3.370000000000001
2020-3-12 18:28,3600,6854.835156,569.5108213869437,0.4702338402894063,64.1123102082728,0.04568576388888889,0.39488798679193904,14.3,80,1014,10.93,2.9,144,2.89,0.186,3.370000000000001
2020-3-12 18:29,3600,6614.684448784722,532.7101909685304,0.4618024860320292,65.01002209851936,0.033769531,0.3971425228077342,14.3,80,1014,10.93,2.91,143,2.9,0.18499999999999997,3.370000000000001
2020-3-12 18:29,3600,6762.415598958333,551.9022406339755,0.4654422503531117,65.28477926071733,0.03863932291666667,0.39122159671160134,14.3,80,1014,10.93,2.89,143,2.88,0.18699999999999997,3.370000000000001
2020-3-12 18:29,3600,6544.758472222222,523.6805066976652,0.4605539181737872,65.49979497917545,0.03225368923611111,0.39163891867510897,14.3,80,1014,10.93,2.91,143,2.9,0.18499999999999997,3.370000000000001
2020-3-12 18:29,3600,6660.850125868055,544.2468283381884,0.46515512618846566,65.34312947535645,0.035481770833333336,0.38856812534041396,14.3,80,1014,10.93,2.9,143,2.89,0.186,3.370000000000001
2020-3-12 18:30,3600,6584.2339887152775,533.458503561796,0.463142960568808,65.34010319257068,0.03448567708333333,0.3878434521377996,14.3,80,1014,10.93,2.89,143,2.87,0.18699999999999997,3.370000000000001
2020-3-12 18:30,3600,6540.259027777778,534.1471363028526,0.4647300721505459,65.24675113168794,0.033007813,0.3851950997412854,14.3,80,1014,10.93,2.91,144,2.9,0.18499999999999997,3.370000000000001
2020-3-12 18:30,3600,6496.191154513889,525.3098944359946,0.46273948097915013,65.41075346618669,0.032802734,0.38735151994825706,14.3,80,1014,10.93,2.9,145,2.9,0.186,3.370000000000001
2020-3-12 18:30,3600,6660.308465711805,547.3911152495913,0.4663324940202385,65.59998250989479,0.03519314236111111,0.3882746459694989,14.3,80,1014,10.93,2.93,145,2.93,0.18299999999999997,3.370000000000001
2020-3-12 18:31,3600,6563.505290798611,536.024041795932,0.4650427363710033,65.16786810335014,0.03388888888888889,0.38666552202478216,14.3,80,1014,10.93,2.92,146,2.92,0.184,3.370000000000001
2020-3-12 18:31,3600,6687.9028103298615,550.7387822985992,0.46791957437680365,65.1294384035637,0.03745876736111111,0.38628373076661215,14.3,80,1014,10.93,2.88,146,2.88,0.188,3.370000000000001
2020-3-12 18:31,3600,6622.744928385417,539.7034348917596,0.4660749855421559,64.7328493035802,0.03826497395833333,0.3864001480800654,14.3,80,1014,10.93,2.8,146,2.8,0.196,3.370000000000001
2020-3-12 18:31,3600,6761.088259548611,563.718902504974,0.47191933726684626,64.00137803709237,0.04254991319444444,0.38618495115059914,14.3,80,1014,10.93,2.79,146,2.79,0.19699999999999998,3.370000000000001
2020-3-12 18:32,3600,6640.551236979167,542.0537084440821,0.46929501087834646,63.20708630946442,0.044524739583333334,0.38485179227941174,14.3,80,1014,10.93,2.78,146,2.78,0.198,3.370000000000001
2020-3-12 18:32,3600,6777.05189453125,568.7252679577286,0.4756611849853962,62.74406262424874,0.04928602430555556,0.38586888956971677,14.3,80,1014,10.93,2.84,147,2.84,0.192,3.370000000000001
2020-3-12 18:32,3600,6579.082061631944,533.3023003107517,0.4687085849769983,62.39147351594615,0.044472656,0.39199967660675383,14.3,80,1014,10.93,2.85,146,2.85,0.19099999999999998,3.370000000000001
2020-3-12 18:32,3500,6833.900798611111,567.7245561955195,0.4742830580855442,62.386715662229676,0.052760416666666664,0.3871386250680828,14.3,81,1014,11.12,2.82,146,2.82,0.21066666666666667,3.1800000000000015
2020-3-12 18:33,3500,6659.651692708333,549.0724052492485,0.47110379375874306,62.31303903212352,0.045042317708333335,0.39081486587690634,14.3,81,1014,11.12,2.81,145,2.81,0.21166666666666664,3.1800000000000015
2020-3-12 18:33,3600,6849.01375,575.625003154132,0.4758693728899852,62.692661707422786,0.050695529513888886,0.38685568150871463,14.3,81,1014,11.12,2.79,146,2.79,0.21366666666666664,3.1800000000000015
2020-3-12 18:33,3600,6561.9229947916665,539.3716589177441,0.4689278641959804,62.927657964557966,0.040823567708333335,0.3880730400667211,14.3,81,1014,11.12,2.86,146,2.86,0.20666666666666667,3.1800000000000015
2020-3-12 18:33,3600,6783.607649739583,567.43266579488,0.4730411765464663,63.4896312289036,0.04572374131944444,0.3838421883510349,14.2,82,1014,11.2,2.91,146,2.91,0.21966666666666668,3
2020-3-12 18:34,3600,6435.095750868056,517.6819617746562,0.46242436038681733,64.38337186503735,0.03473741319444444,0.3894099562568083,14.2,82,1014,11.2,2.89,145,2.88,0.22166666666666668,3
2020-3-12 18:34,3600,6795.377821180556,567.174298839423,0.4717958068946893,64.3094302022602,0.04382052951388889,0.38379135178376905,14.2,82,1014,11.2,2.84,145,2.83,0.2266666666666667,3
2020-3-12 18:34,3600,6469.720391,522.4747731650448,0.46465086032393915,64.37496466159502,0.033847656,0.38346869042755993,14.2,82,1014,11.2,2.84,145,2.84,0.2266666666666667,3
2020-3-12 18:34,3600,6660.396004774306,553.7248079271378,0.4703488560563566,64.70105133912723,0.040377604166666664,0.3815830397263072,14.2,82,1014,11.2,2.82,146,2.82,0.2286666666666667,3
2020-3-12 18:35,3600,6404.970082465278,519.1082833711413,0.46484200129301007,64.58010840676499,0.03516276041666667,0.38163868464052286,14.2,82,1014,11.2,2.83,146,2.83,0.22766666666666668,3
2020-3-12 18:35,3500,6487.985475260417,536.9180586020847,0.46943867106049075,64.70905998948614,0.03854600694444445,0.38000863374863836,14.2,82,1014,11.2,2.87,146,2.87,0.22366666666666668,3
2020-3-12 18:35,3500,6429.318862847223,525.8059481788872,0.46743375405057974,64.91273189961194,0.03801323784722222,0.3822237668504902,14.2,82,1014,11.2,2.83,145,2.83,0.22766666666666668,3
2020-3-12 18:35,3500,6450.58470703125,537.9677874530638,0.4698981941041446,64.46618969654646,0.03821614583333333,0.38058913313589326,14.2,82,1013.9,11.2,2.86,146,2.86,0.2246666666666667,3
2020-3-12 18:36,3500,6486.728984,535.5853891003917,0.46937192670430783,64.55372429580106,0.03921875,0.38196032475490194,14.2,82,1013.9,11.2,2.88,146,2.88,0.2226666666666667,3
2020-3-12 18:36,3500,6573.617039930556,552.1058569425603,0.4733162049954269,63.867621642423444,0.042255859,0.38042643654684094,14.2,82,1013.9,11.2,2.88,145,2.88,0.2226666666666667,3
2020-3-12 18:36,3500,6558.375388454861,540.855105226294,0.47110544614811284,63.46553458743376,0.042598741319444446,0.3851196682666122,14.2,82,1013.9,11.2,2.84,145,2.84,0.2266666666666667,3
2020-3-12 18:36,3500,6737.083057725695,570.0344996805251,0.4774865034714175,62.578597459530236,0.05221028645833333,0.38325409347766887,14.1,83,1013.9,11.29,2.82,144,2.81,0.2466666666666667,2.8100000000000005
2020-3-12 18:37,3500,6533.549392361111,537.6718637747869,0.4718882997472949,61.74807716996738,0.045743272569444444,0.3869017948325163,14.1,83,1013.9,11.29,2.77,144,2.76,0.25166666666666665,2.8100000000000005
2020-3-12 18:37,3500,6816.7911979166665,580.1995670162198,0.4808277688227167,60.96253980216691,0.061113281,0.38518080661083876,14.1,83,1013.9,11.29,2.75,144,2.75,0.25366666666666665,2.8100000000000005
2020-3-12 18:37,3500,6800.258697916666,572.9023567351871,0.47961743298852166,60.25769657444785,0.06289930555555556,0.3875115868395969,14.1,83,1013.9,11.29,2.78,144,2.77,0.2506666666666667,2.8100000000000005
2020-3-12 18:37,3500,7052.397013888889,612.3886919061341,0.48590123412934294,59.81980128751206,0.07200954861111111,0.3866543479370915,14.1,83,1013.9,11.29,2.69,143,2.68,0.25966666666666666,2.8100000000000005
2020-3-12 18:38,3500,7037.23443359375,605.3192746065446,0.4843003321117328,59.75181721795565,0.07096571180555555,0.3880942350898693,14.1,83,1013.9,11.29,2.64,143,2.63,0.26466666666666666,2.8100000000000005
2020-3-12 18:38,3500,7206.018934461806,630.9988516950771,0.48809321014874296,59.741972677522426,0.07404839409722222,0.38825117868327885,14.1,83,1013.9,11.29,2.59,143,2.58,0.2696666666666667,2.8100000000000005
2020-3-12 18:38,3500,7052.535766059028,603.8497607498689,0.4825744244469718,60.08092040487466,0.06964735243055556,0.39064927151416123,14.1,83,1013.9,11.29,2.58,143,2.57,0.27066666666666667,2.8100000000000005
2020-3-12 18:38,3500,7092.454255642361,613.016553447577,0.48433285510420315,60.34088615416361,0.069960938,0.39115084592864924,14.1,83,1013.9,11.29,2.54,143,2.53,0.27466666666666667,2.8100000000000005
2020-3-12 18:39,3500,6955.515407986111,592.8201571900154,0.4803758188014677,61.04222993920425,0.06455186631944444,0.39172093290441173,14.1,83,1013.9,11.29,2.53,142,2.51,0.2756666666666667,2.8100000000000005
2020-3-12 18:39,3500,6945.276319444444,594.5341675143759,0.4802199190193332,61.57442634028931,0.06277560763888888,0.39299020458878,14.1,83,1013.9,11.29,2.5,141,2.48,0.2786666666666667,2.8100000000000005
2020-3-12 18:39,3400,6771.0425390625,571.4195642195702,0.47545616136125674,62.24088691685311,0.056834852430555555,0.39405493004493464,14.1,83,1013.9,11.29,2.46,142,2.44,0.2826666666666667,2.8100000000000005
2020-3-12 18:39,3400,6896.034720052084,585.6822611701118,0.47728650810034245,62.770039878755355,0.05633029513888889,0.3934501633986928,14.1,84,1013.9,11.47,2.45,141,2.43,0.30033333333333334,2.629999999999999
2020-3-12 18:40,3400,6867.178589409722,571.4900216278028,0.4732476456090912,63.2001488206324,0.05444227430555556,0.3947712673611111,14.1,84,1013.9,11.47,2.49,140,2.46,0.29633333333333334,2.629999999999999
2020-3-12 18:40,3400,6915.147549913195,580.1041839530097,0.4746419427301505,63.14880304236645,0.05527669270833333,0.3950088635280501,14.1,84,1013.9,11.47,2.49,140,2.47,0.29633333333333334,2.629999999999999
2020-3-12 18:40,3400,6887.459871961805,579.446394028076,0.47533431263120574,62.79163101086054,0.05727756076388889,0.397732349537037,14.1,84,1013.9,11.47,2.49,140,2.47,0.29633333333333334,2.629999999999999
2020-3-12 18:40,3400,7101.69541015625,604.9645843200672,0.4793184996472274,62.515054143222905,0.06479600694444444,0.397652241625817,14.1,84,1013.9,11.47,2.52,139,2.49,0.29333333333333333,2.629999999999999
2020-3-12 18:41,3400,7188.8804730902775,611.1365450879508,0.4790482426247512,62.284128425506225,0.06763780381944444,0.39919167858115473,14.1,84,1013.9,11.47,2.58,139,2.55,0.28733333333333333,2.629999999999999
2020-3-12 18:41,3400,7486.013342013889,646.2893760097071,0.4829098387232391,62.06523885900687,0.072910156,0.4008344779752179,14.1,84,1013.9,11.47,2.6,139,2.57,0.2853333333333333,2.629999999999999
2020-3-12 18:41,3400,7420.685596788195,627.8714626678416,0.4778952511471791,62.255270238340515,0.06707356770833334,0.4066763727192266,14.1,84,1013.9,11.47,2.63,138,2.59,0.2823333333333333,2.629999999999999
2020-3-12 18:41,3400,7672.929210069445,658.2902435978066,0.4815983746765942,61.81832450038682,0.07441840277777778,0.40269370404411764,14,85,1014,11.54,2.67,139,2.64,0.29633333333333334,2.460000000000001
2020-3-12 18:42,3400,7630.487152777778,651.1198382661036,0.4809509444878627,61.41766894318887,0.07201605902777777,0.40098734936683006,14,85,1014,11.54,2.68,139,2.65,0.2953333333333333,2.460000000000001
2020-3-12 18:42,3400,7793.422562934028,669.6323849758382,0.48164287616731494,61.6912970257536,0.07152669270833334,0.4031036773216231,14,85,1014,11.54,2.7,139,2.67,0.2933333333333333,2.460000000000001
2020-3-12 18:42,3500,7607.144618055556,639.7334188986779,0.47737147251936546,61.51241011904263,0.06798394097222223,0.4020430155569172,14,85,1014,11.54,2.68,139,2.64,0.2953333333333333,2.460000000000001
2020-3-12 18:42,3500,7656.836032986111,647.406058361967,0.47867498734464914,61.13689619065921,0.06894965277777777,0.3999594141476035,13.9,85,1014,11.45,2.67,140,2.64,0.2976666666666667,2.450000000000001
2020-3-12 18:43,3500,7616.912456597222,643.078914706741,0.4772148432941982,61.86101348031202,0.06569878472222222,0.4031197874114924,13.9,85,1014,11.45,2.61,140,2.59,0.3036666666666667,2.450000000000001
2020-3-12 18:43,3500,7631.237510850695,647.5547372895984,0.47919608670100483,61.871458734020834,0.06754557291666667,0.4022857264433551,13.9,85,1014,11.45,2.58,141,2.56,0.30666666666666664,2.450000000000001
2020-3-12 18:43,3500,7579.152026909722,644.8795734493948,0.4788829201510558,61.75572074276339,0.06893446180555556,0.40462091077750545,13.9,85,1014,11.45,2.57,141,2.55,0.3076666666666667,2.450000000000001
2020-3-12 18:43,3500,7549.926827256944,642.9547980328551,0.480127271528693,61.17704644676209,0.07084092881944444,0.40246513735702616,13.9,84,1014,11.27,2.56,141,2.54,0.292,2.630000000000001
2020-3-12 18:44,3400,7481.178969184028,637.4451743361284,0.48045038518715705,60.67900269103663,0.07298502604166666,0.4047376046772876,13.9,84,1014,11.27,2.47,141,2.45,0.301,2.630000000000001
2020-3-12 18:44,3400,7648.054943576389,658.5560806260096,0.4837774710965424,60.30437349496818,0.0760373263888889,0.4051958401416122,13.9,84,1014,11.27,2.4,142,2.38,0.308,2.630000000000001
2020-3-12 18:44,3400,7402.20552734375,626.806161985015,0.4792624907203932,60.429885390973325,0.06749565972222223,0.40674565546704794,13.9,84,1014,11.27,2.38,142,2.37,0.31,2.630000000000001
2020-3-12 18:44,3500,7471.1477734375,635.6882920083887,0.4809890410533744,59.96206686449687,0.07322048611111111,0.4034248366013072,13.9,85,1014,11.45,2.34,143,2.33,0.33066666666666666,2.450000000000001
2020-3-12 18:45,3500,7218.921673177083,603.0360089940199,0.4759433832297486,59.977222035765024,0.06430338541666666,0.406268365332244,13.9,85,1014,11.45,2.25,144,2.24,0.3396666666666667,2.450000000000001
2020-3-12 18:45,3500,7526.6977322048615,643.7927036722393,0.48313063230423325,59.97182906135565,0.07735134548611111,0.404064044628268,13.9,85,1014,11.45,2.19,144,2.18,0.3456666666666667,2.450000000000001
2020-3-12 18:45,3500,7222.029390190973,601.6436499698591,0.47607807250113754,60.061019447890736,0.06604058159722222,0.4074987021718409,13.9,85,1014,11.45,2.18,145,2.18,0.3466666666666666,2.450000000000001
2020-3-12 18:45,3500,7605.780394965278,655.1929831949681,0.484686186835027,60.01140860420231,0.07973958333333334,0.40523885144335514,13.9,85,1014,11.45,2.16,145,2.15,0.3486666666666666,2.450000000000001
2020-3-12 18:46,3500,7222.8711957465275,609.9686359652469,0.4786089475914323,59.550421661918755,0.06769748263888889,0.4049215516067538,13.9,85,1014,11.45,2.17,145,2.16,0.3476666666666667,2.450000000000001
2020-3-12 18:46,3500,7393.6871961805555,637.643364746931,0.48462871621116416,59.59310456640899,0.07707573784722223,0.4028386735770697,13.9,85,1014,11.45,2.14,145,2.13,0.3506666666666666,2.450000000000001
2020-3-12 18:46,3500,7142.615245225695,599.9573957960292,0.478005513207765,59.80945125421268,0.06785590277777778,0.40688346354166666,13.9,85,1014,11.45,2.09,144,2.09,0.3556666666666667,2.450000000000001
2020-3-12 18:46,3500,7233.390149739584,615.745453521724,0.4814648291799715,59.779951391115084,0.07193901909722222,0.40205698529411765,13.9,85,1014,11.45,2.18,144,2.18,0.3466666666666666,2.450000000000001
2020-3-12 18:47,3500,7126.030505642361,600.2452937970467,0.4781521216556651,60.366277526211576,0.06676866319444444,0.40411380038126365,13.9,85,1014,11.45,2.22,144,2.22,0.3426666666666666,2.450000000000001
2020-3-12 18:47,3500,7224.025902777777,609.7308016029065,0.4786055259830767,60.89786012188491,0.06874782986111111,0.40477183329929195,13.9,85,1014,11.45,2.22,144,2.21,0.3426666666666666,2.450000000000001
2020-3-12 18:47,3500,7105.8683072916665,593.2474431581663,0.4761413120716554,61.48604266497826,0.06628689236111111,0.40603506689133984,13.9,85,1014,11.45,2.14,145,2.14,0.3506666666666666,2.450000000000001
2020-3-12 18:47,3500,7193.035859,598.6600494893396,0.4743215250762511,61.821238096889346,0.06653971354166667,0.4071205661083878,13.9,85,1014,11.45,2.09,145,2.09,0.3556666666666667,2.450000000000001
2020-3-12 18:48,3500,7145.775212673611,596.8213745723193,0.47519447435932277,62.17789702742971,0.06372612847222223,0.4065033062704248,13.9,85,1014,11.45,2.1,146,2.1,0.35466666666666663,2.450000000000001
2020-3-12 18:48,3500,7328.655601128472,617.7002472995288,0.4767947644571935,62.202895681257026,0.06598415798611111,0.4068339886301743,13.9,85,1014,11.45,2.11,146,2.11,0.3536666666666667,2.450000000000001
2020-3-12 18:48,3500,7197.992228732639,600.9159622419273,0.4746755090026398,62.1942017348309,0.062381727430555554,0.40775668487881267,13.9,85,1014,11.45,2.11,148,2.11,0.3536666666666667,2.450000000000001
2020-3-12 18:48,3500,7358.5317209201385,622.0557204341886,0.476606071501885,62.19499151915237,0.066455078,0.4077703993055556,13.9,86,1014,11.62,2,148,2,0.3813333333333333,2.280000000000001
2020-3-12 18:49,3400,7360.043595920139,618.7045994490625,0.4763305874491098,62.04310772471338,0.06738172743055555,0.4071401058687364,13.9,86,1014,11.62,2,148,2,0.3813333333333333,2.280000000000001
2020-3-12 18:49,3400,7321.1619270833335,610.8624175331961,0.475814531191479,60.72697330443408,0.06727647569444445,0.4033050917415577,13.9,86,1014,11.62,2.01,149,2.01,0.38033333333333336,2.280000000000001
2020-3-12 18:49,3400,7310.871295572917,610.0794313783811,0.4766991411707654,60.95826183229301,0.06842013888888888,0.4064171772875817,13.9,86,1014,11.62,1.98,148,1.98,0.38333333333333336,2.280000000000001
2020-3-12 18:49,3400,7504.4942838541665,633.1928884231947,0.4795486554679179,60.45740808998708,0.07510633680555556,0.40680149186410675,13.9,86,1014.1,11.62,1.97,148,1.97,0.3843333333333333,2.280000000000001
2020-3-12 18:50,3400,7445.5947482638885,622.8325499004599,0.47863063281397616,59.62031914652511,0.07621527777777778,0.40934549887663396,13.9,86,1014.1,11.62,1.96,148,1.96,0.3853333333333333,2.280000000000001
2020-3-12 18:50,3400,7507.416792534722,646.2465700707317,0.48508166507468475,58.64396648641191,0.08101019965277778,0.4065282415917756,13.9,86,1014.1,11.62,1.94,148,1.94,0.3873333333333333,2.280000000000001
2020-3-12 18:50,3400,7163.0921484375,602.669180708651,0.4788324998553597,57.74991437104961,0.07201497395833334,0.4131467439406318,13.9,86,1014.1,11.62,1.97,147,1.97,0.3843333333333333,2.280000000000001
2020-3-12 18:50,3400,7537.785486111111,654.2171223568341,0.4880744399284618,57.08844585204876,0.08634114583333333,0.4063285888139978,13.9,86,1014.1,11.62,2.01,146,2.01,0.38033333333333336,2.280000000000001
2020-3-12 18:51,3400,7202.7041796875,609.2725418094954,0.48021406289675844,57.14766388011253,0.072871094,0.413283581835512,13.9,86,1014.1,11.62,1.98,145,1.98,0.38333333333333336,2.280000000000001
2020-3-12 18:51,3500,7539.392532552083,644.3813008661328,0.48499553145518665,57.12324511881945,0.08331380208333333,0.40852192691312633,13.9,86,1014.1,11.62,1.97,144,1.97,0.3843333333333333,2.280000000000001
2020-3-12 18:51,3500,7190.000431857639,606.421581963433,0.4792632876170633,57.72232355539724,0.07067708333333333,0.41454831324891067,13.9,86,1014.1,11.62,2.02,143,2.01,0.3793333333333333,2.280000000000001
2020-3-12 18:51,3500,7416.509841579861,627.352621484375,0.4813981182347381,57.6231861197662,0.07934353298611112,0.40987425534449895,13.9,85,1014.1,11.45,2.02,143,2.01,0.36266666666666664,2.450000000000001
2020-3-12 18:52,3500,7102.039021267361,591.2439127379947,0.4757812463565399,57.550641483822524,0.06664388020833334,0.4107315367987473,13.9,85,1014.1,11.45,2.02,142,2,0.36266666666666664,2.450000000000001
2020-3-12 18:52,3500,7319.945084635417,619.2833223283508,0.4806191141078779,58.394916946699084,0.07593424479166666,0.4098210401348039,13.9,85,1014.1,11.45,2.04,141,2.02,0.36066666666666664,2.450000000000001
2020-3-12 18:52,3400,6939.896286892361,566.6044574072521,0.47135636173876155,58.687464324071506,0.06268337673611112,0.41288859102668846,13.9,85,1014.1,11.45,2.02,141,2.01,0.36266666666666664,2.450000000000001
2020-3-12 18:52,3400,7261.290766059028,605.1792490876327,0.4768309995653223,59.006348311318575,0.07153862847222223,0.409911249829793,13.9,85,1014.1,11.45,2.03,141,2.01,0.3616666666666667,2.450000000000001
2020-3-12 18:53,3400,6986.364696180555,573.8534764853393,0.4720270325961942,59.441028734006295,0.060360243055555554,0.41152307581018516,13.9,85,1014.1,11.45,2.07,142,2.06,0.3576666666666667,2.450000000000001
2020-3-12 18:53,3300,7235.5972721354165,609.3033647997242,0.4789253159478826,59.573470548768,0.070673828,0.40888014025054464,13.9,85,1014.1,11.45,2.11,142,2.1,0.3536666666666667,2.450000000000001
2020-3-12 18:53,3300,7155.1089453125,592.5474888382477,0.47524920579323865,60.08657569617508,0.06875651041666667,0.4093541496459695,13.9,85,1014.1,11.45,2.14,142,2.12,0.3506666666666666,2.450000000000001
2020-3-12 18:53,3300,7221.341668836805,600.1954556055705,0.4754067525246912,60.17227538478351,0.06851453993055556,0.4093805274714052,13.9,86,1014.1,11.62,2.16,142,2.14,0.36533333333333334,2.280000000000001
2020-3-12 18:54,3300,7125.146532118056,591.9614364893596,0.4746242975075541,60.43070933633921,0.06398111979166667,0.4096424930215141,13.9,86,1014.1,11.62,2.13,143,2.12,0.36833333333333335,2.280000000000001
2020-3-12 18:54,3300,7317.2290234375,613.7142697199774,0.47628601329288495,60.72742360967135,0.06651258680555555,0.4087744204452614,13.9,86,1014.1,11.62,2.19,144,2.18,0.36233333333333334,2.280000000000001
2020-3-12 18:54,3400,7204.916447482639,595.3847317771804,0.4733027194537145,60.93564116224492,0.061494141,0.40897156267020696,13.9,86,1014.1,11.62,2.2,145,2.2,0.3613333333333333,2.280000000000001
2020-3-12 18:54,3400,7298.39474609375,605.9059938427912,0.47379093447264037,61.026860639907305,0.06369032118055555,0.41038259123093684,13.9,87,1014.1,11.79,2.14,146,2.14,0.38399999999999995,2.110000000000001
2020-3-12 18:55,3400,7290.622838541667,603.4725563978218,0.4737686002987115,61.24994527437355,0.06272026909722223,0.4092809606481481,13.9,87,1014.1,11.79,2.1,146,2.1,0.38799999999999996,2.110000000000001
2020-3-12 18:55,3400,7352.117599826389,614.2604878960313,0.47520738064965284,61.30261105260276,0.06534505208333333,0.40957082312091503,13.9,87,1014.1,11.79,2.09,146,2.09,0.389,2.110000000000001
2020-3-12 18:55,3400,7243.440071614584,595.526092569298,0.47269607357896376,61.321808395781126,0.061582031,0.4102783096745643,13.9,87,1014.1,11.79,2.03,147,2.03,0.395,2.110000000000001
2020-3-12 18:55,3400,7353.99623046875,607.3563899301024,0.47346227572618527,61.18242274025918,0.06546549479166666,0.40891023284313727,13.8,87,1014.1,11.7,1.98,148,1.98,0.4013333333333333,2.1000000000000014
2020-3-12 18:56,3300,7300.342165798611,601.1450911379167,0.4726959973972789,61.076826668025284,0.06414171006944444,0.4076932657611656,13.8,87,1014.1,11.7,1.97,148,1.97,0.4023333333333333,2.1000000000000014
2020-3-12 18:56,3300,7293.650538194444,607.6560665794077,0.4753561994240618,60.89031015612188,0.06504991319444445,0.40572762629357295,13.8,87,1014.1,11.7,1.93,148,1.93,0.4063333333333333,2.1000000000000014
2020-3-12 18:56,3300,7153.356078559028,591.1836425428875,0.4737221943960435,61.11831367492698,0.06193901909722222,0.4042819648692811,13.8,87,1014.1,11.7,1.95,148,1.95,0.4043333333333333,2.1000000000000014
2020-3-12 18:56,3300,7213.922740885417,598.3729535447812,0.474221880381075,61.169074698916674,0.06308376736111111,0.40383322695397605,13.8,87,1014.2,11.7,1.98,148,1.98,0.4013333333333333,2.1000000000000014
2020-3-12 18:57,3200,7069.235614149306,580.2524564954547,0.4723740222184468,61.17553239123636,0.058094618055555554,0.4025330371732026,13.8,87,1014.2,11.7,1.98,148,1.98,0.4013333333333333,2.1000000000000014
2020-3-12 18:57,3200,7051.524646267361,578.1400693534521,0.4726351343990356,61.17992748867015,0.05929361979166667,0.40169280620234205,13.8,87,1014.2,11.7,1.96,148,1.96,0.4033333333333333,2.1000000000000014
2020-3-12 18:57,3200,6891.771623263889,558.7544378941664,0.4702737760294916,61.45656278970049,0.05511176215277778,0.401276862915305,13.8,87,1014.2,11.7,1.95,147,1.95,0.4043333333333333,2.1000000000000014
2020-3-12 18:57,3200,6925.536586371528,557.6537521597355,0.4685414330141348,61.7549448771262,0.055122612847222224,0.3999255557257625,13.8,87,1014.2,11.7,1.93,147,1.93,0.4063333333333333,2.1000000000000014
2020-3-12 18:58,3200,6754.266319444445,538.14422074106,0.4651760772999022,62.040395896343114,0.04907769097222222,0.4021749812772331,13.8,87,1014.2,11.7,1.89,146,1.89,0.4103333333333333,2.1000000000000014
2020-3-12 18:58,3200,6988.118960503472,573.5440028109973,0.4702824567214596,62.59388867805817,0.05268988715277778,0.39954551334422655,13.8,87,1014.2,11.7,1.84,145,1.83,0.41533333333333333,2.1000000000000014
2020-3-12 18:58,3200,6758.165145399305,538.7312021989186,0.4636901618120904,62.98088752066898,0.045108506944444446,0.40236972358387796,13.8,87,1014.2,11.7,1.78,145,1.78,0.42133333333333334,2.1000000000000014
2020-3-12 18:58,3200,6919.126115451389,566.1338345178484,0.4685980501283039,63.3108788809395,0.049083116319444446,0.3992494000204248,13.8,88,1014.2,11.87,1.76,145,1.75,0.44,1.9300000000000015
2020-3-12 18:59,3200,6622.543142361111,524.8045453073844,0.4606048029149336,63.54144760794076,0.038908420138888886,0.4029015948393246,13.8,88,1014.2,11.87,1.78,146,1.78,0.438,1.9300000000000015
2020-3-12 18:59,3200,6924.478760850694,559.4011761633553,0.46667602934716673,63.93653015670286,0.047945963541666664,0.4020484621800109,13.8,88,1014.2,11.87,1.74,147,1.73,0.442,1.9300000000000015
2020-3-12 18:59,3200,6554.224314236111,513.3761805468478,0.45755366967865235,64.43192176392436,0.03818467881944444,0.4072930283224401,13.8,88,1014.2,11.87,1.74,147,1.74,0.442,1.9300000000000015
2020-3-12 18:59,3200,6872.00302734375,555.1587976850299,0.46511647873556833,64.8826832721938,0.04792100694444444,0.40403368395969497,13.8,88,1014.2,11.87,1.75,147,1.74,0.441,1.9300000000000015
2020-3-12 19:00,3200,6665.568728298611,526.0954090708403,0.4593458971872773,64.97785345343947,0.03812391493055556,0.4067380429602397,13.8,88,1014.2,11.87,1.74,147,1.74,0.442,1.9300000000000015
2020-3-12 19:00,3200,6873.876864149305,553.7813085457083,0.46491231018863927,64.79616620836062,0.045595703,0.4049364106753812,13.8,88,1014.2,11.87,1.73,148,1.73,0.443,1.9300000000000015
2020-3-12 19:00,3200,6658.947899305555,524.006583009648,0.45903628260581525,65.0818826229189,0.037988281,0.4078623876633987,13.8,88,1014.2,11.87,1.7,147,1.7,0.446,1.9300000000000015
2020-3-12 19:00,3200,6952.956477864584,562.5474012517003,0.464500166257671,65.07963111762469,0.04725151909722222,0.4055532918028322,13.8,88,1014.3,11.87,1.73,146,1.73,0.443,1.9300000000000015
2020-3-12 19:01,3200,6758.995486111111,538.8400726926722,0.46112360682298476,64.9388201635122,0.03837022569444445,0.4078458988630174,13.8,88,1014.3,11.87,1.7,144,1.7,0.446,1.9300000000000015
2020-3-12 19:01,3200,7033.535271267361,572.9184819595608,0.4667086017568178,64.69813943856961,0.04796006944444445,0.4011977975217865,13.8,88,1014.3,11.87,1.73,143,1.72,0.443,1.9300000000000015
2020-3-12 19:01,3200,6687.4559505208335,534.0652495365805,0.46206879871452505,64.26861861741335,0.038096788194444446,0.40133148658769063,13.8,88,1014.3,11.87,1.71,143,1.71,0.445,1.9300000000000015
2020-3-12 19:01,3200,6810.091807725695,550.7139550651443,0.4650607620750878,63.722936651434594,0.04360243055555556,0.3946895424836601,13.8,88,1014.3,11.87,1.75,144,1.75,0.441,1.9300000000000015
2020-3-12 19:02,3200,6482.4612109375,524.6550128380621,0.46210194033175656,63.4967714322292,0.03535698784722222,0.3946206767429194,13.8,88,1014.3,11.87,1.79,145,1.79,0.437,1.9300000000000015
2020-3-12 19:02,3200,6648.71744140625,533.3044346223512,0.4639839397529191,63.112221680613395,0.04020616319444444,0.39095870778867103,13.8,88,1014.3,11.87,1.84,144,1.83,0.432,1.9300000000000015
2020-3-12 19:02,3200,6376.9573763020835,509.3371168694095,0.46080488876137327,63.07191538365694,0.03536024305555555,0.3920158377587146,13.8,88,1014.3,11.87,1.87,145,1.87,0.429,1.9300000000000015
2020-3-12 19:02,3200,6587.484077690972,525.9283137925466,0.46266962911758536,62.91309272187091,0.03965386284722222,0.38922281794662306,13.8,88,1014.3,11.87,1.81,145,1.81,0.435,1.9300000000000015
2020-3-12 19:03,3200,6382.107738715278,502.1823404808031,0.45881290259966073,62.9185755370791,0.033190104166666665,0.39289488017429197,13.8,88,1014.3,11.87,1.82,145,1.82,0.434,1.9300000000000015
2020-3-12 19:03,3200,6650.31470703125,542.3869520358322,0.46777244117865713,62.9846652020785,0.04215928819444444,0.3885254119008715,13.8,88,1014.3,11.87,1.84,145,1.84,0.432,1.9300000000000015
2020-3-12 19:03,3200,6423.14708984375,509.1376822445716,0.4611221424548615,63.052491393441564,0.03543728298611111,0.3945008935866013,13.8,88,1014.3,11.87,1.89,145,1.89,0.42700000000000005,1.9300000000000015
2020-3-12 19:03,3200,6633.968602430556,532.793240006958,0.4653273563586084,62.8553243464403,0.043436414930555556,0.39213805487472764,13.8,88,1014.3,11.87,1.88,144,1.88,0.428,1.9300000000000015
2020-3-12 19:04,3200,6479.5612586805555,513.9567924301666,0.46092631616154855,62.928880625403615,0.03673394097222222,0.3952882114651416,13.8,88,1014.3,11.87,1.85,144,1.85,0.431,1.9300000000000015
2020-3-12 19:04,3200,6757.43306640625,547.791986667858,0.46695947754326755,62.918371097771846,0.04369249131944444,0.39167187925517427,13.8,88,1014.3,11.87,1.86,144,1.85,0.43,1.9300000000000015
2020-3-12 19:04,3200,6483.207395833333,509.23047409636786,0.4600221095960513,62.87933382409163,0.03620551215277778,0.39533850762527234,13.8,88,1014.3,11.87,1.86,144,1.86,0.43,1.9300000000000015
2020-3-12 19:04,3200,6722.94404296875,537.9486165336318,0.46507558171519253,62.905272228723774,0.045107422,0.3923819316789216,13.8,88,1014.4,11.87,1.9,145,1.89,0.426,1.9300000000000015
2020-3-12 19:05,3200,6465.034141,503.39434344394687,0.45714230805338635,63.111883457080594,0.03585286458333333,0.39776807598039216,13.8,88,1014.4,11.87,1.89,145,1.89,0.42700000000000005,1.9300000000000015
2020-3-12 19:05,3200,6726.802986111111,546.6162163450348,0.46707973662772895,63.38984462560678,0.045462239583333335,0.39606784024373637,13.8,88,1014.4,11.87,1.86,146,1.86,0.43,1.9300000000000015
2020-3-12 19:05,3200,6555.122113715278,522.9385025471818,0.4615692900815573,64.00844684636489,0.03815863715277778,0.40130224077478216,13.8,88,1014.4,11.87,1.82,145,1.82,0.434,1.9300000000000015
2020-3-12 19:05,3200,6848.481276041667,547.5850238545736,0.4630356455523397,64.59314738706415,0.043755425347222224,0.4001760152845861,13.8,88,1014.4,11.87,1.82,146,1.82,0.434,1.9300000000000015
2020-3-12 19:06,3200,6642.606653645833,514.1259385848045,0.45480987327997024,65.18368311593302,0.03432400173611111,0.40490300755718955,13.8,88,1014.4,11.87,1.85,147,1.85,0.431,1.9300000000000015
2020-3-12 19:06,3200,6989.1553515625,560.1631011005494,0.4617186929859447,65.47571997503884,0.04147677951388889,0.4016625434027778,13.8,88,1014.4,11.87,1.82,147,1.82,0.434,1.9300000000000015
2020-3-12 19:06,3100,6812.953758680555,541.8952623927316,0.4582661891536424,65.72603852720795,0.03278103298611111,0.40270555470452074,13.8,88,1014.4,11.87,1.81,148,1.81,0.435,1.9300000000000015
2020-3-12 19:06,3100,6960.80185546875,565.5974348953624,0.4636659532001548,65.59588578027402,0.037518446180555554,0.4000676657815904,13.8,88,1014.4,11.87,1.76,148,1.76,0.44,1.9300000000000015
2020-3-12 19:07,3100,6794.777821180555,540.3674858924853,0.4591630218399879,65.68899146820634,0.03298177083333333,0.4011833299291939,13.8,88,1014.4,11.87,1.74,148,1.74,0.442,1.9300000000000015
2020-3-12 19:07,3100,6857.351232638889,554.9262985735468,0.4626354298807843,65.5527272517299,0.03755425347222222,0.3973495115059913,13.8,88,1014.4,11.87,1.75,148,1.75,0.441,1.9300000000000015
2020-3-12 19:07,3100,6723.769856770833,535.5636661201747,0.45935200876092724,65.61908071970934,0.034023438,0.3986159322235839,13.8,88,1014.4,11.87,1.76,149,1.76,0.44,1.9300000000000015
2020-3-12 19:07,3100,6845.567031,555.9198100594307,0.46368793120881413,65.39020793209728,0.03701388888888889,0.3951682240604575,13.8,88,1014.4,11.87,1.77,150,1.77,0.439,1.9300000000000015
2020-3-12 19:08,3100,6635.355985243055,524.7871059860785,0.45848859902853417,65.05214549434409,0.032872178819444445,0.39534099264705885,13.8,88,1014.4,11.87,1.77,150,1.77,0.439,1.9300000000000015
2020-3-12 19:08,3100,6829.135086805555,560.4182496777275,0.4662518705357562,64.83970632573079,0.03642361111111111,0.3904674351511438,13.8,88,1014.4,11.87,1.75,152,1.74,0.441,1.9300000000000015
2020-3-12 19:08,3100,6700.791892361111,537.2191283471836,0.4620301622901159,64.51123069706196,0.033987630208333335,0.39037765948393244,13.8,88,1014.4,11.87,1.72,153,1.72,0.444,1.9300000000000015
2020-3-12 19:08,3100,6754.177697482639,552.7592371899062,0.46516974609151546,64.1124981381445,0.034788411458333335,0.38857894624863837,13.8,89,1014.5,12.04,1.69,154,1.68,0.46366666666666667,1.7600000000000016
2020-3-12 19:09,3100,6669.2095703125,538.7701428858442,0.461670065326615,64.03103023792168,0.033116319444444445,0.3926958273760893,13.8,89,1014.5,12.04,1.64,156,1.62,0.4686666666666667,1.7600000000000016
2020-3-12 19:09,3100,6835.0814453125,559.7004209696407,0.4667707781979888,63.58930910759198,0.03778211805555556,0.3905567810457516,13.8,89,1014.5,12.04,1.6,157,1.58,0.4726666666666667,1.7600000000000016
2020-3-12 19:09,3100,6637.818763020833,535.8405750868012,0.46351720774103955,62.807245618512006,0.036042751736111114,0.3906800917415577,13.8,89,1014.5,12.04,1.57,156,1.56,0.4756666666666667,1.7600000000000016
2020-3-12 19:09,3100,6735.177146267361,545.1866232048128,0.4639900238638066,62.47848748462266,0.03874240451388889,0.3913455414283769,13.8,89,1014.5,12.04,1.53,158,1.5,0.4796666666666667,1.7600000000000016
2020-3-12 19:10,3100,6703.909092881944,540.6193853833938,0.46355071547960075,62.12807425574579,0.03626302083333333,0.39077081631263616,13.8,89,1014.5,12.04,1.49,160,1.46,0.4836666666666667,1.7600000000000016
2020-3-12 19:10,3100,6722.364752604167,547.6964376857323,0.46549709472597695,61.65902406840563,0.03957248263888889,0.389305883203976,13.8,89,1014.5,12.04,1.52,160,1.49,0.4806666666666667,1.7600000000000016
2020-3-12 19:10,3100,6657.485625,542.7673715491778,0.4662647796474907,61.09936806417587,0.03990559895833334,0.3885577895220588,13.8,89,1014.5,12.04,1.54,161,1.5,0.4786666666666667,1.7600000000000016
2020-3-12 19:10,3100,6780.590329861111,556.773860586091,0.46822171142984403,60.67550009066088,0.04292317708333333,0.3875586320465686,13.8,89,1014.5,12.04,1.55,163,1.5,0.4776666666666667,1.7600000000000016
2020-3-12 19:11,3100,6719.822901475694,540.0909450064471,0.46598823366396513,60.221228225936486,0.04115993923611111,0.3889594992510893,13.8,89,1014.5,12.04,1.61,164,1.55,0.4716666666666667,1.7600000000000016
2020-3-12 19:11,3100,6950.372599826389,570.6659585284763,0.47061493750176137,60.05829892215098,0.049951172,0.3881277828839869,13.8,89,1014.5,12.04,1.6,163,1.55,0.4726666666666667,1.7600000000000016
2020-3-12 19:11,3100,6711.469297,536.9005466059887,0.4646442702979962,59.99793516587795,0.040614149305555555,0.39217653016067533,13.8,89,1014.5,12.04,1.57,164,1.51,0.4756666666666667,1.7600000000000016
2020-3-12 19:11,3100,6935.311382378472,569.3101592506304,0.4707133596351969,59.89939537947061,0.05049587673611111,0.39236552372685185,13.8,88,1014.5,11.87,1.59,165,1.52,0.45699999999999996,1.9300000000000015
2020-3-12 19:12,3100,6897.220015190972,564.1731477703411,0.47060904255214575,59.78704727888823,0.05263454861111111,0.39467500255310456,13.8,88,1014.5,11.87,1.62,163,1.56,0.45399999999999996,1.9300000000000015
2020-3-12 19:12,3200,7091.2868446180555,589.254514970133,0.4759150188725548,59.58727815686858,0.060888672,0.3977697142224945,13.8,88,1014.5,11.87,1.55,165,1.48,0.46099999999999997,1.9300000000000015
2020-3-12 19:12,3200,7076.6908203125,586.5341077010498,0.4752426353654987,59.68005802323243,0.060842013888888886,0.40215030552151415,13.8,88,1014.5,11.87,1.5,164,1.44,0.46599999999999997,1.9300000000000015
2020-3-12 19:12,3200,7256.5337890625,610.2863129135135,0.4786803743838791,59.65710751275999,0.06710720486111112,0.40578423713235295,13.8,88,1014.6,11.87,1.44,164,1.39,0.472,1.9300000000000015
2020-3-12 19:13,3200,7188.049166666667,598.7603208372333,0.47551229733063455,60.149238547907515,0.06447482638888889,0.411751953,13.8,88,1014.6,11.87,1.38,165,1.32,0.478,1.9300000000000015
2020-3-12 19:13,3200,7286.402384982639,604.9184895546808,0.47524668971357165,60.858459077871856,0.06446180555555556,0.41149306832107846,13.8,88,1014.6,11.87,1.37,168,1.29,0.479,1.9300000000000015
2020-3-12 19:13,3200,7127.409236111111,582.5045474518658,0.46986999669323715,61.96910507923487,0.057289496527777775,0.410069146582244,13.8,88,1014.6,11.87,1.37,170,1.27,0.479,1.9300000000000015
2020-3-12 19:13,3200,7271.538715277778,598.4263769255641,0.46982227776657526,63.15152625688559,0.05356662326388889,0.40906397229030506,13.7,88,1014.6,11.77,1.28,170,1.19,0.48933333333333334,1.9299999999999997
2020-3-12 19:14,3200,6898.445881076389,549.1908819777583,0.45961545397211934,63.759343159819664,0.038154297,0.4092751736111111,13.7,88,1014.6,11.77,1.18,171,1.09,0.49933333333333335,1.9299999999999997
2020-3-12 19:14,3200,7174.660002170139,578.5427223164016,0.4627834163435884,64.43403672709715,0.04333224826388889,0.40688341247957516,13.7,88,1014.6,11.77,1.18,171,1.09,0.49933333333333335,1.9299999999999997
2020-3-12 19:14,3200,6943.5993055555555,550.8943847380636,0.45762047136870093,65.08957328234835,0.03421983506944445,0.4097464554398148,13.7,88,1014.6,11.77,1.23,172,1.13,0.49433333333333335,1.9299999999999997
2020-3-12 19:14,3200,7137.782068142361,580.6858246504985,0.46275137685549317,65.19619997890464,0.040649956597222224,0.40583648641748366,13.8,87,1014.6,11.7,1.29,172,1.18,0.4703333333333333,2.1000000000000014
2020-3-12 19:15,3300,6880.355251736111,539.8566860470194,0.45514964515094714,65.02034981779966,0.03254448784722222,0.40740057785266887,13.8,87,1014.6,11.7,1.3,172,1.19,0.4693333333333333,2.1000000000000014
2020-3-12 19:15,3300,7025.681653645834,573.2995561887849,0.46476917441858584,64.7748587735336,0.041245659722222223,0.4020691976443355,13.8,87,1014.6,11.7,1.28,172,1.17,0.4713333333333334,2.1000000000000014
2020-3-12 19:15,3300,6744.975286458333,529.8291023751707,0.4574372361145328,64.38280689731305,0.03397894965277778,0.4033196316721133,13.8,87,1014.6,11.7,1.26,174,1.13,0.47333333333333333,2.1000000000000014
2020-3-12 19:15,3300,6935.860010850694,563.0972699143398,0.4650736030915143,64.16496086614286,0.041864149305555556,0.39808045258033764,13.8,87,1014.7,11.7,1.29,174,1.16,0.4703333333333333,2.1000000000000014
2020-3-12 19:16,3300,6600.678723958334,521.4266807632433,0.4579553571798845,63.70299918529254,0.03317491319444445,0.3986804236451525,13.8,87,1014.7,11.7,1.32,173,1.2,0.4673333333333333,2.1000000000000014
2020-3-12 19:16,3300,6828.389173177084,551.5374294603033,0.46465347863061734,63.76405262966682,0.038866102430555556,0.39310973243464054,13.8,87,1014.7,11.7,1.3,172,1.19,0.4693333333333333,2.1000000000000014
2020-3-12 19:16,3300,6497.489192708334,520.2180010124301,0.4609038887349512,63.46562831249611,0.030400391,0.39339412275326796,13.8,87,1014.7,11.7,1.22,172,1.11,0.4773333333333334,2.1000000000000014
2020-3-12 19:16,3300,6667.486538628472,543.5472069988066,0.46599721487372614,63.500861457284444,0.03599826388888889,0.3884117434300109,13.8,86,1014.7,11.52,1.16,169,1.08,0.4666666666666667,2.280000000000001
2020-3-12 19:17,3200,6572.78919921875,526.7323708301109,0.46241147628099116,63.61090694439148,0.034370659722222224,0.3885730613425926,13.8,86,1014.7,11.52,1.13,167,1.07,0.4696666666666667,2.280000000000001
2020-3-12 19:17,3200,6566.10486328125,530.0838128237832,0.46301645608514663,64.14839104270972,0.034752604166666666,0.3891981038943355,13.8,86,1014.7,11.52,1.15,166,1.1,0.4676666666666667,2.280000000000001
2020-3-12 19:17,3200,6424.445802951389,511.3167487,0.46113608366900594,64.4309767078031,0.03234375,0.3895378157339325,13.8,86,1014.7,11.52,1.13,164,1.09,0.4696666666666667,2.280000000000001
2020-3-12 19:17,3200,6512.4348828125,528.2859331580221,0.4632089955416957,64.63779077217782,0.032663845486111114,0.38781684453295207,13.8,86,1014.7,11.52,1.11,163,1.07,0.4716666666666667,2.280000000000001
2020-3-12 19:18,3200,6343.593715277778,507.1494930678366,0.4597505438569778,64.6277641561345,0.029760199652777777,0.38940156930827885,13.8,86,1014.7,11.52,1.12,164,1.07,0.4706666666666667,2.280000000000001
2020-3-12 19:18,3200,6466.138810763889,521.5813508794039,0.4615997894034739,64.63140644014463,0.03209635416666667,0.3886593094703159,13.8,86,1014.7,11.52,1.12,163,1.08,0.4706666666666667,2.280000000000001
2020-3-12 19:18,3200,6412.207120225695,507.0204123238975,0.45911682829388134,64.32722916254045,0.03203884548611111,0.3896935721337146,13.8,86,1014.7,11.52,1.14,165,1.09,0.4686666666666667,2.280000000000001
2020-3-12 19:18,3200,6452.876176215278,520.3922992004099,0.46211833798895585,64.05806688180144,0.03222981770833333,0.3887036994485294,13.8,86,1014.8,11.52,1.15,164,1.1,0.4676666666666667,2.280000000000001
2020-3-12 19:19,3200,6366.842344,507.79523195137665,0.46066285814311886,63.49801483665675,0.03296115451388889,0.38963268058959694,13.8,86,1014.8,11.52,1.15,164,1.11,0.4676666666666667,2.280000000000001
2020-3-12 19:19,3200,6425.773834635416,521.0134102593872,0.46457340781160505,63.119984894229155,0.03549696180555555,0.3884667585784314,13.8,86,1014.8,11.52,1.12,164,1.08,0.4706666666666667,2.280000000000001
2020-3-12 19:19,3200,6369.879639756944,509.50719939370674,0.4627961499631494,62.540188811926036,0.036883680555555555,0.38987113630174297,13.8,86,1014.8,11.52,1.1,167,1.04,0.4726666666666667,2.280000000000001
2020-3-12 19:19,3200,6507.826733940972,533.5001214697523,0.4680511563758117,62.23774768143044,0.03971245659722222,0.38951201235702615,13.8,86,1014.8,11.52,1.09,168,1.02,0.4736666666666667,2.280000000000001
2020-3-12 19:20,3200,6382.654229600695,511.4892880768764,0.46318489626506204,61.83819479641844,0.035277777777777776,0.392855672998366,13.8,86,1014.8,11.52,1.11,170,1.02,0.4716666666666667,2.280000000000001
2020-3-12 19:20,3200,6569.0040082465275,531.8388397484945,0.4674058207397275,61.356349794106606,0.04282660590277778,0.3910486111111111,13.8,86,1014.8,11.52,1.11,172,1.01,0.4716666666666667,2.280000000000001
2020-3-12 19:20,3200,6475.511421440972,518.9723967683475,0.4653283136067207,60.97305467129721,0.040878906,0.3927449193218954,13.8,86,1014.8,11.52,1.11,171,1.02,0.4716666666666667,2.280000000000001
2020-3-12 19:20,3200,6650.710180121528,543.9534673246405,0.47051551381434853,60.17354843635537,0.04789605034722222,0.39201649731072985,13.8,86,1014.8,11.52,1.12,175,1,0.4706666666666667,2.280000000000001
2020-3-12 19:21,3200,6490.645768229167,515.5254480168559,0.46508722029694916,59.62870636826797,0.04242404513888889,0.39450038722086056,13.8,86,1014.8,11.52,1.15,177,1.01,0.4676666666666667,2.280000000000001
2020-3-12 19:21,3200,6842.49412109375,567.2275325517819,0.47524862678954577,59.009657287687055,0.05792751736111111,0.39206430419389976,13.8,86,1014.8,11.52,1.19,179,1.02,0.46366666666666667,2.280000000000001
2020-3-12 19:21,3200,6689.157677951389,545.0643066178768,0.4717412997209292,58.74610660991351,0.05426215277777778,0.39717932581018517,13.8,86,1014.8,11.52,1.23,177,1.08,0.45966666666666667,2.280000000000001
2020-3-12 19:21,3300,6925.909922,568.9182788914812,0.4735926826955757,58.78576646021073,0.06211371527777778,0.39692907901007624,13.8,87,1014.9,11.7,1.23,178,1.06,0.47633333333333333,2.1000000000000014
2020-3-12 19:22,3300,6931.960933159722,572.2693951796531,0.4735157338737276,59.70640155140372,0.059462891,0.40087787224264704,13.8,87,1014.9,11.7,1.18,180,1,0.48133333333333334,2.1000000000000014
2020-3-12 19:22,3300,7023.509913194444,579.1102658122484,0.47118080672947665,60.84896376946694,0.05825629340277778,0.40484051181236386,13.8,87,1014.9,11.7,1.12,181,0.94,0.4873333333333333,2.1000000000000014
2020-3-12 19:22,3300,6965.263556857639,559.1115190370866,0.46555271626534994,62.30754334714297,0.05102647569444444,0.40939527590550107,13.8,87,1014.9,11.7,1.09,184,0.88,0.4903333333333333,2.1000000000000014
2020-3-12 19:22,3300,7142.858042534722,577.7642326684631,0.46614833870889605,63.064611766701155,0.052708333333333336,0.4094220749931917,13.7,86,1014.9,11.42,1.07,186,0.85,0.47700000000000004,2.2799999999999994
2020-3-12 19:23,3200,7003.414212239583,564.4495451608716,0.46475016926804147,63.46287922583568,0.04509440104166667,0.40980122804330066,13.7,86,1014.9,11.42,1.05,188,0.8,0.47900000000000004,2.2799999999999994
2020-3-12 19:23,3200,7055.2008680555555,577.3927614333531,0.46755408310848595,63.44614826869823,0.04855902777777778,0.4058333929057734,13.7,86,1014.9,11.42,1.03,188,0.79,0.48100000000000004,2.2799999999999994
2020-3-12 19:23,3200,6690.714602864583,534.3082107043689,0.4601705004104401,63.584677578718775,0.04001736111111111,0.4086373442606209,13.7,86,1014.9,11.42,0.96,192,0.69,0.48800000000000004,2.2799999999999994
2020-3-12 19:23,3200,6883.988843315972,558.3270030157724,0.46509874246475247,64.00026904307303,0.046331380208333335,0.4045587171500545,13.7,86,1015,11.42,0.95,194,0.66,0.489,2.2799999999999994
2020-3-12 19:24,3200,6642.24009765625,538.3112630009359,0.4623901072058435,64.04331191131118,0.036319444444444446,0.4065625978690087,13.7,86,1015,11.42,0.97,193,0.69,0.48700000000000004,2.2799999999999994
2020-3-12 19:24,3300,6847.1783984375,560.5740428891592,0.4673965691116691,63.988350177828465,0.044352213541666664,0.4030467686206427,13.7,86,1015,11.42,0.97,194,0.67,0.48700000000000004,2.2799999999999994
2020-3-12 19:24,3300,6578.199435763889,529.6460522703901,0.4628225499786044,64.11449900034854,0.036132813,0.40624677457788666,13.7,86,1015,11.42,0.99,192,0.71,0.48500000000000004,2.2799999999999994
2020-3-12 19:24,3300,6812.466417100694,551.8706369212573,0.46617665673887926,63.888685707799134,0.04394965277777778,0.4037142012186819,13.7,86,1015,11.42,0.95,193,0.67,0.489,2.2799999999999994
2020-3-12 19:25,3300,6589.334661458333,530.7259578852608,0.4630668962976499,63.773517117321326,0.036149088541666666,0.40523115383306096,13.7,86,1015,11.42,0.91,194,0.63,0.49300000000000005,2.2799999999999994
2020-3-12 19:25,3300,6784.647554253473,549.329204621999,0.46631103847564165,63.47990544065926,0.04471462673611111,0.4007855690019063,13.7,86,1015,11.42,0.87,195,0.59,0.49700000000000005,2.2799999999999994
2020-3-12 19:25,3300,6496.8645703125,514.058366881447,0.46090640790192505,62.91533159623311,0.036053602430555554,0.4031745259735839,13.7,86,1015,11.42,0.93,193,0.66,0.49100000000000005,2.2799999999999994
2020-3-12 19:25,3300,6781.725616319444,548.9765417419137,0.46671350027038505,62.133750469530014,0.04599826388888889,0.39929241132216775,13.7,86,1015.1,11.42,1,191,0.74,0.48400000000000004,2.2799999999999994
2020-3-12 19:26,3300,6625.665243055556,532.8524142777233,0.46366357302176375,62.005704517601224,0.03921875,0.40171247787309367,13.7,86,1015.1,11.42,1,193,0.71,0.48400000000000004,2.2799999999999994
2020-3-12 19:26,3300,6886.254574652778,566.4943680043114,0.4703573859484468,61.867355551217294,0.048177083333333336,0.39725371902233114,13.7,86,1015.1,11.42,1.03,194,0.71,0.48100000000000004,2.2799999999999994
2020-3-12 19:26,3400,6581.18662109375,517.0583321444085,0.4596730153059471,61.738661285390315,0.03718641493055556,0.3990037530637255,13.7,86,1015.1,11.42,1.06,197,0.7,0.47800000000000004,2.2799999999999994
2020-3-12 19:26,3400,6854.562771267361,557.2159947606299,0.46695655948509246,61.86185544102539,0.04290147569444445,0.39336324295343134,13.7,86,1015.1,11.42,1.12,196,0.75,0.47200000000000003,2.2799999999999994
2020-3-12 19:27,3400,6653.1349609375,528.5894465433332,0.46138602106459803,62.074389419976626,0.034397786458333336,0.39513162105119826,13.7,86,1015.1,11.42,1.17,196,0.78,0.467,2.2799999999999994
2020-3-12 19:27,3400,6764.532999131944,546.9543435024676,0.4639754032437943,62.39798425503273,0.038984375,0.39159584354575167,13.7,86,1015.1,11.42,1.2,195,0.82,0.464,2.2799999999999994
2020-3-12 19:27,3400,6517.982042100694,511.50308249296853,0.45717424600871565,62.78094096329869,0.031221788194444444,0.39244471252042484,13.7,86,1015.1,11.42,1.22,196,0.82,0.462,2.2799999999999994
2020-3-12 19:27,3400,6700.728036024306,538.5518478284945,0.4613790895672106,63.09281353467641,0.03418402777777778,0.38821279701116557,13.7,86,1015.1,11.42,1.2,194,0.83,0.464,2.2799999999999994
2020-3-12 19:28,3400,6444.116786024306,511.78714603734437,0.45671292841205124,63.62246974817654,0.027420789930555557,0.3900717507489107,13.7,86,1015.1,11.42,1.23,193,0.87,0.461,2.2799999999999994
2020-3-12 19:28,3400,6710.786618923611,540.3353472131043,0.4613662913476086,63.634518897438504,0.03205837673611111,0.3873853443287037,13.7,86,1015.1,11.42,1.28,194,0.89,0.456,2.2799999999999994
2020-3-12 19:28,3400,6634.436315104167,531.69778469857,0.46238248492991124,63.2763688236226,0.03357204861111111,0.38866557734204793,13.7,86,1015.1,11.42,1.26,192,0.9,0.458,2.2799999999999994
2020-3-12 19:28,3300,6766.475807291667,549.5271028421612,0.4652619705653897,62.80577991021893,0.03600043402777778,0.3899297130310458,13.7,85,1015.2,11.25,1.27,192,0.91,0.44033333333333335,2.4499999999999993
2020-3-12 19:29,3400,6678.312569444444,533.7287086280351,0.46266509220262153,62.57845525146928,0.037823350694444445,0.39353754340277775,13.7,85,1015.2,11.25,1.27,192,0.91,0.44033333333333335,2.4499999999999993
2020-3-12 19:29,3400,6721.568630642361,538.4392675776999,0.46336205374738715,62.04180803023207,0.043297526041666666,0.39228569240196076,13.7,85,1015.2,11.25,1.24,191,0.91,0.44333333333333336,2.4499999999999993
2020-3-12 19:29,3400,6555.5965234375,520.668316985461,0.4633847822093837,61.566423339514316,0.03878472222222222,0.3953653918164488,13.7,85,1015.2,11.25,1.21,191,0.88,0.44633333333333336,2.4499999999999993
2020-3-12 19:29,3400,6716.2212955729165,542.6413551083307,0.46790232774207247,61.11681785466453,0.047945963541666664,0.3917859647331155,13.8,85,1015.2,11.35,1.16,193,0.82,0.45000000000000007,2.450000000000001
2020-3-12 19:30,3300,6601.119344618056,532.9423587332832,0.46784773382529116,60.39947062032429,0.045664063,0.39322687738289763,13.8,85,1015.2,11.35,1.11,196,0.74,0.455,2.450000000000001
2020-3-12 19:30,3300,6693.0972265625,551.7042999980773,0.4731092818748712,60.028877371141476,0.053728298611111114,0.3913840465005447,13.8,85,1015.2,11.35,1.06,197,0.69,0.45999999999999996,2.450000000000001
2020-3-12 19:30,3300,6549.485666232639,532.1475845404542,0.46951371538434883,59.93527122845793,0.04843315972222222,0.3939517931304466,13.8,85,1015.2,11.35,1.06,200,0.65,0.45999999999999996,2.450000000000001
2020-3-12 19:30,3300,6698.246017795139,551.6849141393769,0.47284421365721785,59.779897065540396,0.05390625,0.39364874812772327,13.8,85,1015.3,11.35,1.02,200,0.63,0.464,2.450000000000001
2020-3-12 19:31,3300,6719.533706597223,550.0257799482451,0.4715918673014786,59.86618874449818,0.05525282118055556,0.39479979830473855,13.8,85,1015.3,11.35,1.03,201,0.62,0.46299999999999997,2.450000000000001
2020-3-12 19:31,3300,6853.078865017361,560.4553978230499,0.47089297384341305,59.96265740306683,0.056171875,0.39841479438997823,13.8,85,1015.3,11.35,1.05,202,0.62,0.461,2.450000000000001
2020-3-12 19:31,3300,6905.809479166666,566.668076164527,0.47091174085599463,60.37044701817836,0.058007813,0.39973841741557736,13.8,85,1015.3,11.35,1.05,202,0.62,0.461,2.450000000000001
2020-3-12 19:31,3300,7049.788114149305,578.7250255949044,0.4708961052492207,60.666314317987684,0.05900499131944444,0.4029610226034859,13.9,85,1015.3,11.45,1.1,203,0.63,0.4546666666666666,2.450000000000001
2020-3-12 19:32,3300,7145.325223524305,584.6266395022059,0.4703275725242904,61.16601354100508,0.05917751736111111,0.4082378131808279,13.9,85,1015.3,11.45,1.14,203,0.65,0.45066666666666666,2.450000000000001
2020-3-12 19:32,3300,7260.092723524305,594.7545767920178,0.4703302091853346,61.70127182650292,0.06061414930555555,0.40940073954929196,13.9,85,1015.3,11.45,1.16,203,0.67,0.4486666666666667,2.450000000000001
2020-3-12 19:32,3300,7156.647901475694,585.3426190931106,0.46990718355489897,61.86737247271631,0.056826172,0.4100415943287037,13.9,85,1015.3,11.45,1.15,203,0.66,0.44966666666666666,2.450000000000001
2020-3-12 19:32,3300,7300.673077256944,601.2783398379811,0.4707477830402701,62.07951995369403,0.05968532986111111,0.4079966809640523,13.9,85,1015.4,11.45,1.19,204,0.67,0.4456666666666667,2.450000000000001
2020-3-12 19:33,3300,7220.7505099826385,587.5072535825647,0.46842486838384645,62.6176310312487,0.05385959201388889,0.40828587111928105,13.9,85,1015.4,11.45,1.19,204,0.67,0.4456666666666667,2.450000000000001
2020-3-12 19:33,3300,7251.76240234375,600.6700249311554,0.47101618033609943,63.02808627570097,0.05523220486111111,0.40847052866285405,13.9,85,1015.4,11.45,1.17,204,0.65,0.44766666666666666,2.450000000000001
2020-3-12 19:33,3200,7130.667113715278,579.444976092002,0.46660087626820085,63.60747235621841,0.048913845486111114,0.4111793343205338,13.9,85,1015.4,11.45,1.17,205,0.64,0.44766666666666666,2.450000000000001
2020-3-12 19:33,3200,7206.833324652778,587.6761096659897,0.4673068804294052,63.855416955985575,0.05144422743055556,0.408214567163671,13.9,85,1015.4,11.45,1.19,203,0.68,0.4456666666666667,2.450000000000001
